"Name,C,254","Address,C,254","Type,C,254","Class,C,254","District,C,254","Province,C,254","Lat,N,24,15","Long,N,24,15","Hospital,C,254"
RS Medika Stania,"Jl. Jend. Sudirman No.3,Sungailiat",A,,Bangka,Bangka Belitung,-1.875800000000000,106.097000000000000,rs
RSU Bakti Timah,"Jl. Bukit Baru No.1,Pangkal Pinang",A,C,Bangka,Bangka Belitung,-2.230789000000000,106.134569000000000,rs
RSUD Kab.Bangka Tengah,"Jl. By Pass Koba,bangka Tengah",A,D,Bangka Tengah,Bangka Belitung,-2.443900000000000,106.200167000000000,rs
RS Almah,Jl. Raya Air Kenanga Kec. Sungailiat Kab. Bangka,A,A,,Bangka Belitung,-1.875800000000000,106.097000000000000,rs
RSUD Sejiran Setason,Jl. Kadur Dalam Muntok Bangka Barat,A,D,Bangka Barat,Bangka Belitung,-1.837403000000000,105.445775000000000,rs
RSU Sungai Liat,"Jl. Jend Sudirman 195,Sungailiat",A,C,Bangka,Bangka Belitung,-1.883308000000000,106.138689000000000,rs
RS Jiwa Sungai Liat,"Jl. Jend Sudirman,Sungai Liat",B,B,Bangka,Bangka Belitung,-1.904947000000000,106.081264000000000,rs
RSUD Kabupaten Belitung,"Jl. Melati Tajung Pandan,Kab.Belitung",A,C,Belitung,Bangka Belitung,-2.857611000000000,107.955567000000000,rs
RSUD Toboali Kab.Bangka Selatan,Jl. Raya Gadung Toboali,A,D,Bangka Selatan,Bangka Belitung,-2.927056000000000,108.064889000000000,rs
RSUD Kab.Belitung Timur,Jl. Raya Gantung Ds. Padang Belitung Timur,A,D,Belitung Timur,Bangka Belitung,-2.876919000000000,107.912664000000000,rs
RSUD Depati Hamzah,"Jl. Soekarno Hatta,Pk Pinang",A,C,Pangkal Pinang,Bangka Belitung,-2.230803000000000,106.134608000000000,rs
RSUP Persahabatan,"Jl. Raya Persahabatan,Jaktim",A,B,Kota Jakarta Timur,DKI Jakarta,-6.204058000000000,106.884772000000000,rs
RS Pelabuhan Tg.Priok,Jl. Kramat Jaya Tg Priok Jakut,A,,Kota Jakarta Utara,DKI Jakarta,-6.125000000000000,106.918000000000000,rs
RS Manuela,Jl. Mangga Besar VIII/23 Jakbar,A,C,Kota Jakarta Barat,DKI Jakarta,-6.151200000000000,106.809386000000000,rs
RSUP Fatmawati,"Jl. RS Fatmawati Cilandak,Jaksel",A,A,Kota Jakarta Selatan,DKI Jakarta,-6.294844000000000,106.795564000000000,rs
RSUD Budhi Asih,"Jl. Dewi Sartika, Cawang III/ 200,Jakarta Timur",A,B,Kota Jakarta Timur,DKI Jakarta,-6.256169000000000,106.863364000000000,rs
RS Kramat 128,"Jl. Kramat Raya No.128,Jakpus",A,C,Jakarta Pusat,DKI Jakarta,-6.185350000000000,106.844089000000000,rs
RSIA Budi Kemuliaan,Jl. Budi Kemuliaan No.25 Jakarta Pusat,O,,Kota Jakarta Selatan,DKI Jakarta,-6.180025000000000,106.818100000000000,rs
RS Sahid Sahirman,"Jl. Jend.Sudirman No.86, Jaksel",A,,,DKI Jakarta,-6.227203000000000,106.802183000000000,rs
RS Islam Jakarta Utara,Jl. Tipar Cakung No.5 Jakut,A,,Kota Jakarta Utara,DKI Jakarta,-6.139789000000000,106.920956000000000,rs
RS Sumber Waras,Jl. Kiyai Tapa Grogol Jakbar,A,b,Kota Jakarta Barat,DKI Jakarta,-6.166628000000000,106.798008000000000,rs
RS Mitra Keluarga Kelapa Gading,Jl. Bukit Gading Raya Kav.2,A,B,Kota Jakarta Utara,DKI Jakarta,-6.151925000000000,106.897100000000000,rs
Rumkit Tk II M.Ridwan Meuraksa,"Jl. Kramat Raya No.174, Jakarta Pusat",A,2,Kota Jakarta Pusat,DKI Jakarta,-6.191750000000000,106.846608000000000,rs
RS Mata Jkt Eye Centre,Jl. Teuku Cik Ditiro 46 Jakpus,D,B Uta,Kota Jakarta Pusat,DKI Jakarta,-6.198719000000000,106.836861000000000,rs
RS MMC,"Jl. H R. Rasuna Said No.21,Jaksel",A,A,Kota Jakarta Selatan,DKI Jakarta,-6.219878000000000,106.832414000000000,rs
RSIA &quot; Aulia &quot;,"Jl. Jeruk Raya No.15 RT.011 RW 01,Jagakarsa Jaksel",O,,Kota Jakarta Selatan,DKI Jakarta,-6.335000000000000,106.827000000000000,rs
RSU Dr. Cipto Mangunkusumo (RSCM),Jl. Diponegoro 71 Jakarta Pusat,A,A,Jakarta Pusat,DKI Jakarta,-6.196661000000000,106.845153000000000,rs
RSIA Evasari,Jl. Rawamangun No. 47 Jakpus,RSK Ibu & Anak,Khusu,Kota Jakarta Selatan,DKI Jakarta,-6.193733000000000,106.860003000000000,rs
RS Mitra Kemayoran,Jl. Landas Pacu Timur Kemayoran,A,B,Kota Jakarta Utara,DKI Jakarta,-6.152075000000000,106.858639000000000,rs
RS KO Jakarta,"Jl. Lanpangan Tembak no 75 kel cibubur No.76,Jaktim",RSkhusus,B,,DKI Jakarta,-6.346989000000000,106.872000000000000,rs
RSB Yayasan Restu,Jl. Raya Bogor Jakarta Timur,Ibu dan Anak,C,Jakarta Timur,DKI Jakarta,-6.307017000000000,106.865719000000000,rs
RS Omni Medical Center,"Jl. Pulomas Barat VI/20,Jaktim",A,B,Jakarta Timur,DKI Jakarta,-6.179950000000000,106.883614000000000,rs
RS Medika Griya,Jl. Danau Sunter Utara Jakut,A,C,Jakarta Utara,DKI Jakarta,-6.138950000000000,106.865325000000000,rs
RS PGI Tjikini,Jl. Raden Saleh No. 40 Jakpus,A,,Kota Jakarta Selatan,DKI Jakarta,-6.191483000000000,106.841983000000000,rs
RS Jakarta Medical Center (JMC),"Jl. Buncit Raya No.15,Jakarta Selatan",A,,Jakarta Selatan,DKI Jakarta,-6.271394000000000,106.830200000000000,rs
RS THT Bedah Yayasan Yurino,"Jl. Ciranjang No.20-22,Jaksel",K,,Kota Jakarta Selatan,DKI Jakarta,-6.235778000000000,106.810781000000000,rs
RS Islam Jakarta Timur,Jl. Raya Pondok Kopi Jakarta Timur,A,c,Jakarta Timur,DKI Jakarta,-6.220206000000000,106.940094000000000,rs
RSIA Bunda,Jl. Teuku Cik Ditiro No. 28 Jakpus,O,,Jakarta Pusat,DKI Jakarta,-6.195903000000000,106.836536000000000,rs
RS Siloam Graha Medika,Jl. Perjuangan Raya Kav.8 Jakarta Barat,A,B,Jakarta Barat,DKI Jakarta,-6.190781000000000,106.763472000000000,rs
RS Sukmul,Jl. Tawes No.18-20 Jakarta Utara,A,C,Jakarta Utara,DKI Jakarta,-6.112331000000000,106.882000000000000,rs
RS Sint Carolus,Jl. Salemba Raya No.41 Jakarta Pusat,A,B,Jakarta Pusat,DKI Jakarta,-6.184736000000000,106.845131000000000,rs
RS Islam Jakarta Cempaka Putih,Jl. Cempaka Putih Tengah I Jakarta Pusat,A,B,Jakarta Pusat,DKI Jakarta,-6.170311000000000,106.870714000000000,rs
RS Keluarga Afi,Jl. Kalipasir No.9 Jakarta Pusat,A,D,Jakarta Pusat,DKI Jakarta,-6.187217000000000,106.838764000000000,rs
RSIA Bina Sehat Mandiri,"Jl. Duri Raya No.22 Duri Kepa,Jakbar",O,,Jakarta Barat,DKI Jakarta,-6.173650000000000,106.775772000000000,rs
RSUD Koja,"Jl. Deli No.4 Tanjung Priok,Jakut",A,B,Jakarta Utara,DKI Jakarta,-6.108861000000000,106.900000000000000,rs
RS Pantai Indah Kapuk,Jl. Pantai Indah Utara 3 Jakut,A,,Jakarta Utara,DKI Jakarta,-6.111944000000000,106.753183000000000,rs
RS Jiwa Dharmawangsa,"Jl. Dharmawangsa Raya 13,Jaksel",B,,Jakarta Selatan,DKI Jakarta,-6.252297000000000,106.803961000000000,rs
RSB Budhi Jaya,"Jl. Dr. Sahardjo 120,Jaksel",C,,Jakarta Selatan,DKI Jakarta,-6.219008000000000,106.844986000000000,rs
RS FK UKI,"Jl. May.Jen Soetoyo Cawang,Jakarta Timur",A,,Jakarta Timur,DKI Jakarta,-6.250919000000000,106.872000000000000,rs
RS Mitra Internasional,"Jl. Jatinegara Timur No.85A-87,Jaktim",A,B,Jakarta Timur,DKI Jakarta,-6.221397000000000,106.868189000000000,rs
RS Harapan Bunda,Jl. Raya Bogor Km.22 No.44 Jaktim,A,C,Jakarta Timur,DKI Jakarta,-6.303031000000000,106.867431000000000,rs
RSJ Dr Soeharto Heerjan Jakarta,Jl. Prof.Dr.Latumeten No. 1 Jakbar,B,A,Jakarta Barat,DKI Jakarta,-6.162481000000000,106.788000000000000,rs
RS Jantung & Pembuluh Darah H K,Jl. S. Parman Kav 87 Jakbar,L,A,Jakarta Barat,DKI Jakarta,-6.171967000000000,106.790089000000000,rs
RS Ibu dan Anak Sayyidah,"Jl. Taman malaka Selatan No.6 Pondok Kelapa, Jaktim",O,,Jakarta,DKI Jakarta,-6.232531000000000,106.932258000000000,rs
RSUD Cengkareng,"Dra. Khafifah Any,Apt,MARS",A,B,PemPro DKI Jakarta,DKI Jakarta,-6.142750000000000,106.735000000000000,rs
RS Pusat Pertamina,"Jl. Kyai Maja,Jakarta Selatan",A,,Jakarta Selatan,DKI Jakarta,-6.242836000000000,106.800478000000000,rs
RS AL Cilandak,"Jl. Raya Cilandak,Jaksel",A,3,Jakarta Selatan,DKI Jakarta,-6.309597000000000,106.814869000000000,rs
RS Jakarta,"Jl. Jend.Sudirman Kav.49,Jaksel",A,,Jakarta Selatan,DKI Jakarta,-6.227203000000000,106.802183000000000,rs
RSB Panti Nugeraha,"Jl. Senayan 26 Kby.Baru,Jaksel",C,,Jakarta Selatan,DKI Jakarta,-6.235617000000000,106.816222000000000,rs
RS Kebayoran,"Jl. Birah III/4 Keb Baru,Jaksel",A,,Jakarta Selatan,DKI Jakarta,-6.233158000000000,106.822033000000000,rs
RSB Asih,"Jl. Panglima Polim I/34,Jakarta Selatan",C,,Jakarta Selatan,DKI Jakarta,-6.250139000000000,106.797522000000000,rs
RS Mata Aini,"Jl. HR Rasuna Said,Jaksel",D,,Jakarta Selatan,DKI Jakarta,-6.213200000000000,106.821719000000000,rs
RS Setia Mitra,"Jl. Fatmawati No. 80-82,Jaksel",A,,Jakarta Selatan,DKI Jakarta,-6.269361000000000,106.806056000000000,rs
RS Tebet,"Jl. Let.Jend.Haryono. MT No.8,Jaksel",A,,Jakarta Selatan,DKI Jakarta,-6.238467000000000,106.851469000000000,rs
RS Pondok Indah,"Jl. Metro Duta Pd Indah,Jaksel",A,,Jakarta Selatan,DKI Jakarta,-6.280486000000000,106.780350000000000,rs
RSU Prikasih,"Jl. RS Fatmawati Raya 74,Jaksel",A,,Jakarta Selatan,DKI Jakarta,-6.313358000000000,106.794989000000000,rs
RS Harapan Kartini,"Jl. Ampera Raya No.1,Jaksel",A,,Jakarta Selatan,DKI Jakarta,-6.286136000000000,106.815633000000000,rs
RSU Gandaria,"Jl. Gandaria Tengah 11 Kby Baru,Jaksel",A,,Jakarta Selatan,DKI Jakarta,-6.246517000000000,106.792994000000000,rs
RS Agung,"Jl. Sultan Agung No.67,Jaksel",A,,Jakarta Selatan,DKI Jakarta,-6.209253000000000,106.844683000000000,rs
RS Siaga Raya,"Jl. Siaga Raya Kav.4-8,Jaksel",A,,Jakarta Selatan,DKI Jakarta,-6.272933000000000,106.838208000000000,rs
RS Pasar Minggu,"Jl. Raya Ragunan P 7,Jaksel",A,,Jakarta Selatan,DKI Jakarta,-6.286483000000000,106.832919000000000,rs
RS Medistra,"Jl. Gatot Subroto Kav 59,Jaksel",A,,Jakarta Selatan,DKI Jakarta,-6.240011000000000,106.833792000000000,rs
RS Indah Medika,"Jl. Tebet Raya No. 4-6,Jaksel",A,,Jakarta Selatan,DKI Jakarta,-6.229464000000000,106.848239000000000,rs
RSU Tria Dipa,"Jl. Raya Pasar Minggu No.3A,Jaksel",A,,Jakarta Selatan,DKI Jakarta,-6.250483000000000,106.842650000000000,rs
RSGM Univ.Prof.Moestopo,"Jl. Bintaro Permai Raya,Jaksel",T,,Jakarta Selatan,DKI Jakarta,-6.255444000000000,106.766953000000000,rs
RSIA Zahirah,"Jl. Sirsak No.21 RT/RW 009/001,Jagakarsa,Jaksel",O,,Jakarta Selatan,DKI Jakarta,-6.335719000000000,106.823697000000000,rs
RSB Kartini,"Jl. Ciledug Raya No.94-96 Cipulir, Keabayoran Lama",C,,Jakarta Selatan,DKI Jakarta,-6.238389000000000,106.769967000000000,rs
RSIA Brawijaya Women and Children Hospital,"Jl..Taman Brawijaya No.1,Cepete Utara,Jaksel",O,,Jakarta Selatan,DKI Jakarta,-6.257381000000000,106.807539000000000,rs
RSB Durentiga,Jl. Duren Tiga Raya No.5 Pancoran Jaksel,C,,Jakarta Selatan,DKI Jakarta,-6.253381000000000,106.841000000000000,rs
RSIA Muhammadiyah Taman Puring,"Jl. Gandaria I/20 Kebayoran Baru, Jaksel",O,,Jakarta Selatan,DKI Jakarta,-6.241600000000000,106.787000000000000,rs
RS LPK Cipinang,"Jl. Bekasi Timur 170,Jaktim",A,,Jakarta Timur,DKI Jakarta,-6.209758000000000,106.892806000000000,rs
RS Pusdikkes,"Jl. Raya Bogor,Jakarta Timur",A,4,Jakarta Timur,DKI Jakarta,-6.276139000000000,106.869014000000000,rs
RS Halim Perdana Kusuma,"Jl. Merpati No. 2 Halim Perdana Kusuma, Jakarta",A,2,Jakarta Timur,DKI Jakarta,-6.262081000000000,106.894000000000000,rs
RS Kepolisian Pusat,"Kramat Jati,Jakarta Timur",A,2,Jakarta Timur,DKI Jakarta,-6.275767000000000,106.876178000000000,rs
Rumkit Tk IV Cijantung,"Jl. Mahoni Pasar Rebo,Jaktim",A,4,Jakarta Timur,DKI Jakarta,-6.307281000000000,106.859000000000000,rs
RSU Pasar Rebo,"Jl. TB Simatupang No.30,Jaktim",A,B,Jakarta Timur,DKI Jakarta,-6.318383000000000,106.867397000000000,rs
RSIA Hermina,"Jl. Jatinegara Barat 126,Jaktim",O,B,Jakarta Timur,DKI Jakarta,-6.220242000000000,106.864642000000000,rs
RSK Bedah Rawamangun,"Jl. Balai Pustaka Raya,Jaktim",K,,Jakarta Timur,DKI Jakarta,-6.196614000000000,106.884547000000000,rs
RSU Kartika Pulo Mas,Jl. Pulo Mas Barat IV Jaktim,A,,Jakarta Timur,DKI Jakarta,-6.174064000000000,106.885097000000000,rs
RS Harum,"Jl. Tarum Barat, Kalimalang",A,,Jakarta Timur,DKI Jakarta,-6.247692000000000,106.909267000000000,rs
RS Harapan Jayakarta,Jl. Bekasi Timur No. 6 Jaktim,A,,Jakarta Timur,DKI Jakarta,-6.194922000000000,106.906128000000000,rs
RS Yadika,Jl. P.Revolusi No.47 Pondok Bambu Jaktim,A,C,Jakarta Timur,DKI Jakarta,-6.255228000000000,106.777925000000000,rs
RS Dharma Nugraha,Jl. Balai Pustaka Baru 9 Jaktim,A,,Jakarta Timur,DKI Jakarta,-6.199342000000000,106.854600000000000,rs
RS Mediros,"Jl. P.Kemerdekaan 149,Jaktim",A,,Jakarta Timur,DKI Jakarta,-6.179628000000000,106.903822000000000,rs
RSU Haji Jakarta,Jl. Raya Pondok Gede Jaktim,A,C,Jakarta Timur,DKI Jakarta,-6.290036000000000,106.889300000000000,rs
RS Jiwa Islam Klender,Jl. Bunga Rampai X P.Klender Jaktim,B,,Jakarta Timur,DKI Jakarta,-6.221719000000000,106.934689000000000,rs
RS Jiwa Duren Sawit,Jl. Duren Sawit Baru Jakarta Timur,B,A,Jakarta Timur,DKI Jakarta,-6.232133000000000,106.908869000000000,rs
RS PAD Gatot Soebroto,Jl. Dr A Rahman Saleh No. 24 Jakarta Pusat,A,1,Jakarta Pusat,DKI Jakarta,-6.176172000000000,106.838714000000000,rs
RS AL Dr Mintoharjo,Jl. Bendungan Hilir 17 Jakpus,A,2,Jakarta Pusat,DKI Jakarta,-6.210950000000000,106.812000000000000,rs
RS Husada,Jl. Raya Mangga Besar No.137/139 Jakpus,A,,Jakarta Pusat,DKI Jakarta,-6.148722000000000,106.834633000000000,rs
RSB Yy Pemelihara Kesehatan,Jl. Gereja Theresia No.22 Menteng Jakpus,C,,Jakarta Pusat,DKI Jakarta,-6.189594000000000,106.826647000000000,rs
RS Jiwa Dharma Jaya,Jl. Raya Mangga Besar Jakarta Pusat,B,,Jakarta Pusat,DKI Jakarta,-6.148214000000000,106.830058000000000,rs
RSK Bedah Kramat Lima,Jl. Kramat V No. 6 Jakpus,K,,Jakarta Pusat,DKI Jakarta,-6.187958000000000,106.843217000000000,rs
RSB Angkasa,Jl. Budikemuliaan 12 Jakpus,C,,Jakarta Pusat,DKI Jakarta,-6.180161000000000,106.819658000000000,rs
RS Pertamina Jaya,Jl. A. Yani No. 2 By Pass Jakarta Pusat,A,,Jakarta Pusat,DKI Jakarta,-6.173286000000000,106.876092000000000,rs
RS Jiwa Dharma Sakti,Jl. Kaji 40 Jakarta Pusat,B,,Jakarta Pusat,DKI Jakarta,-6.168908000000000,106.815972000000000,rs
RS Moh Husni Thamrin,Jl. Salemba Tengah 24-28 Jakpus,A,,Jakarta Pusat,DKI Jakarta,-6.193550000000000,106.852000000000000,rs
RSK THT Bedah P.Raharja,Jl. Sawo No. 58-60 Jakpus,M,,Jakarta Pusat,DKI Jakarta,-6.195444000000000,106.870661000000000,rs
RSU Tarakan,Jl. Kyai Caringin Jakarta Pusat,A,B,Jakarta Pusat,DKI Jakarta,-6.172839000000000,106.806458000000000,rs
RSK THT Bedah Proklamasi,Jl. Proklamasi 43 Jakarta Pusat,K,,Jakarta Pusat,DKI Jakarta,-6.201897000000000,106.848233000000000,rs
RS Abdi Waluyo,Jl. Hos Cokroaminoto 31-33 Jakarta Pusat,A,,Jakarta Pusat,DKI Jakarta,-6.189686000000000,106.829031000000000,rs
RSK THT Prof Nizar,Jl. Kesehatan No. 9 Jakpus,M,,Jakarta Pusat,DKI Jakarta,-6.171808000000000,106.814911000000000,rs
RSK Bedah Bina Estetika,Jl. Teuku Cik Ditiro 41 Jakarta Pusat,K,,Jakarta Pusat,DKI Jakarta,-6.199492000000000,106.837597000000000,rs
RS Jiwa Mita Menteng Abadi,Jl. Kalipasir No.9 Jakarta Pusat,B,D,Jakarta Pusat,DKI Jakarta,-6.187217000000000,106.838764000000000,rs
RSGM FKG Univ.Indonesia,Jl. Salemba Raya No. 4 Jakpus,T,A,Jakarta Pusat,DKI Jakarta,-6.193161000000000,106.852625000000000,rs
RSIA Berkat Ibu,"Jl. Sumur Batu Raya Blok A3 No.13 Kemayoran,Jakpus",O,,Jakarta Pusat,DKI Jakarta,-6.162081000000000,106.865897000000000,rs
RSIA Tambak,"Jl. Tambak No.18 Manggarai, Jakpus",O,,Jakarta Pusat,DKI Jakarta,-6.205608000000000,106.849244000000000,rs
RS Pelni Petamburan,Jl. K. S. Tubun 92-94 Jakbar,A,,Jakarta Barat,DKI Jakarta,-6.193433000000000,106.805325000000000,rs
RS Trisna Pangastuti,Jl. KS Tubun No.79 Slipi Jakbar,A,,Jakarta Barat,DKI Jakarta,-6.199211000000000,106.801000000000000,rs
RS Kanker Dharmais,Jl. S Parman Kav.84-86 Slipi Jakarta Barat,E,,Jakarta Barat,DKI Jakarta,-6.186967000000000,106.797753000000000,rs
RS Anak dan Bunda H K,Jl. S Parman Kav 87 Jakbar,O,,Jakarta Barat,DKI Jakarta,-6.184061000000000,106.796283000000000,rs
RSK Benda Chandera,Jl. Raya Mangga Besar 40 Jakbar,K,,Jakarta Barat,DKI Jakarta,-6.148828000000000,106.825525000000000,rs
RSU Al-Kamal,Jl. Raya Al Kamal Kebon Jeruk Jakbar,A,,Jakarta Barat,DKI Jakarta,-6.187225000000000,106.762019000000000,rs
RS Patria IKKT,Jl. Cendrawasih 1 Slipi Jakbar,A,,Jakarta Barat,DKI Jakarta,-6.196956000000000,106.792669000000000,rs
RS Medika Permata Hijau,Jl. Kebayoran Lama No.64 Jakarta Barat,A,,Jakarta Barat,DKI Jakarta,-6.218350000000000,106.778000000000000,rs
RSIA Hermina Daan Mogot,Jl. Kintamani Raya No. 2 Jakbar,O,,Jakarta Barat,DKI Jakarta,-6.152761000000000,106.712000000000000,rs
RSGM Yayasan Trisakti,Jl. Kyai Tapa Grogol Jakbar,T,,Jakarta Barat,DKI Jakarta,-6.166628000000000,106.792894000000000,rs
RSK Bedah Cinta Kasih Tzu Chi,Jl. Kramat Raya Komplek Rusun BCI Jakbar,K,,Jakarta Barat,DKI Jakarta,-6.161094000000000,106.705800000000000,rs
RS Puri Mandiri Kedoya,"Jl. Raya Kedoya No.2,Kelurahan Kedoya Jakbar",A,,Jakarta Barat,DKI Jakarta,-6.188222000000000,106.762200000000000,rs
RS Royal Taruma,"Jl. Daan Mogot No.34,Jakarta Barat",A,,Jakarta Barat,DKI Jakarta,-6.166364000000000,106.785022000000000,rs
RS Puri Indah,"Jl. Puri Indah Raya,Blok S-2,Kel.Kembangan Selatan,Jakbar",A,,Jakarta Barat,DKI Jakarta,-6.185856000000000,106.740725000000000,rs
RS Akademik Atma Jaya,Jl. Pluit Raya Jakarta Utara,A,,Jakarta Utara,DKI Jakarta,-6.126683000000000,106.793053000000000,rs
RSTP Ancol,Jl. LE. Martadinata Jakut,F,,Jakarta Utara,DKI Jakarta,-6.133947000000000,106.830161000000000,rs
RSPI Prof.Dr. Sulianti S.,Jl. Sunter Permai Raya Jakarta Utara,H,,Jakarta Utara,DKI Jakarta,-6.130389000000000,106.862003000000000,rs
RSIA Hermina Podomoro,Jl. Danau Agung 2 Sunter Jakarta Utara,C,,Jakarta Utara,DKI Jakarta,-6.145608000000000,106.861492000000000,rs
RS Satya Negara,Jl. Agung Utara Raya No. 1 Jakut,A,,Jakarta Utara,DKI Jakarta,-6.137586000000000,106.858592000000000,rs
RS Pluit,Jl. Raya Pluit Selatan 2 Jakut,A,,Jakarta Utara,DKI Jakarta,-6.125578000000000,106.798336000000000,rs
RSIA Family,Jl. Pluit Mas I Blok A Jakut,O,C,Jakarta Utara,DKI Jakarta,-6.133792000000000,106.790572000000000,rs
RSIA Puri Medika,Jl. Sungai Bambu 5A Tanjung Priok,O,,Jakarta Utara,DKI Jakarta,-6.129944000000000,106.885417000000000,rs
RS Port Medical Center,"Jl. Enggano No.10 Tanjung Priok, Jakarta Utara",A,,Jakarta Utara,DKI Jakarta,-6.110758000000000,106.887861000000000,rs
RS Gading Pluit,"Jl. Boulevard Timur Raya Pegangsaan Dua,Kelapa Gading",A,,Jakarta Utara,DKI Jakarta,-6.166378000000000,106.916922000000000,rs
RS Proklamasi,"Jl. Proklamasi KM.2 Rengasdengklok,Karawang",A,,Karawang,Jawa Barat,-6.201892000000000,106.847014000000000,rs
RS Sumber Waras,"Jl. Urip Sumoharjo No.5 Ciwaringin,Kab.Cirebon",A,,Kota Cirebon,Jawa Barat,-6.166628000000000,106.798008000000000,rs
RS Mulyasari,"Jl. Raya Plumpung Semper No.19 RT.006/RW.015, Jakarta Utara",A,0,JAKARTA UTARA,DKI Jakarta,-6.129400000000000,106.917319000000000,rs
RS Kusta Balun,Jl. Maruti 10 Denpasar,G,,Kota Denpasar,Bali,-8.644592000000000,115.211061000000000,rs
RSU Prima Cipta,Jl. P Serangan 9X Denpasar Bali,A,,,Bali,-8.721714000000000,115.223822000000000,rs
RSU Amlapura,Jl. Ngurah Rai - Amlapura,A,C,Karang Asem,Bali,-8.457250000000000,115.606500000000000,rs
RS Karya Dharma Husada,Jl. Yudistra No. 7 Singaraja,A,C,Buleleng,Bali,-8.146683000000000,115.048325000000000,rs
RSUD Wangaya,Jl. Kartini No.133 Denpasar,A,B,Kota Denpasar,Bali,-8.648956000000000,115.213403000000000,rs
RSUD Kab. Buleleng,Jl. Ngurah Rai 30 Singaraja,A,B,Buleleng,Bali,-8.119911000000000,115.092367000000000,rs
RSU Surya Husadha,"Jl. Pulau Serangan No.7, Denpasar",A,C,Denpasar,Bali,-8.727600000000000,115.228956000000000,rs
RSU Dr GelGel,Jl. Mawar No. 76 Tabanan,A,D,Tabanan,Bali,-8.546844000000000,115.124347000000000,rs
RSU Negara,Jl. Wijaya Kusuma 17 Negara,A,C,Jembrana,Bali,-8.354136000000000,114.621797000000000,rs
RSUD Sanjiwani Gianyar,Jl. Ciung Wenara No.2 Gianyar,A,B,Gianyar,Bali,-8.537967000000000,115.322736000000000,rs
RSU Bhakti Rahayu,"Jl. Batukaru No.2 Br.Tuakilang, Tabanan",A,,Bali,Bali,-8.545039000000000,115.119961000000000,rs
RSUD Badung,"Jl. Raya Kapal Mengwi, Badung",A,D,Badung,Bali,-8.572281000000000,115.180028000000000,rs
RS Parama Sidhi,"Jl. Ahmad Yani No.177 A Baktiseraga, Singaraja",A,,Bali,Bali,-8.122689000000000,115.071000000000000,rs
RSU Tabanan,Jl. Pahlawan No. 14 Tabanan,A,B,Tabanan,Bali,-8.539283000000000,115.131883000000000,rs
RSK Bedah dan Penyakit Dalam BIMC,"Jl. By Pass Ngurah Rai No.100 X, Kuta - Badung",J,,Badung,Bali,-8.677750000000000,115.205522000000000,rs
RSU. Dharma Yadnya,"Jl. WR.Supratman 256,Denpasar",A,D,Denpasar,Bali,-8.642069000000000,115.251133000000000,rs
RS Ibu dan Anak Puri Bunda,"Jl. Gatot Subroto VI /19, Denpasar",O,,Denpasar,Bali,-8.673550000000000,115.232172000000000,rs
RSU Premagana,"Jl. Hyang Sangsi No.2 Komp.Perumahan Chandra Ayu Br. Tubuh,Batubulan,Sukawati - More ...",A,-,-,Bali,-8.608128000000000,115.293792000000000,rs
RSU Dharma Sentana,Jl. Ngurah Rai 151 Negara,A,,Jembrana,Bali,-8.314989000000000,114.602492000000000,rs
RSB Kertayasa,Jl. Ngurah Rai 143 Negara,C,,Jembrana,Bali,-8.323344000000000,114.666794000000000,rs
RS Dharma Kerti Tabanan,Jl. Teratai 16 Tabanan,A,,Tabanan,Bali,-8.540969000000000,115.118086000000000,rs
RSU Klungkung,Jl. Flamboyan No. 40 Klungkung,A,C,Klungkung,Bali,-8.538569000000000,115.395097000000000,rs
RSU Bangli,Jl. Kusuma Yudha No. 27 Bangli,A,C,Bangli,Bali,-8.454267000000000,115.352647000000000,rs
RS Jiwa Bangli,Jl. Kusuma Yudha No. 29 Bangli,B,A,Bangli,Bali,-8.454211000000000,115.352000000000000,rs
Rumkit Tk.IV Singaraja,Jl. Ngurah Rai No. 70 Singaraja,A,4,Buleleng,Bali,-8.125458000000000,115.090600000000000,rs
RS Kertha Usadha,Jl. Cendrawasih No.5 Singaraja,A,,Buleleng,Bali,-8.674786000000000,115.152800000000000,rs
RS Kertha Usada II,Jl. Cendrawasih No. 5 Singaraja,A,,Buleleng,Bali,-8.674786000000000,115.152800000000000,rs
RSUP Sanglah Denpasar,Jl. Diponegoro Denpasar,A,A,Denpasar,Bali,-8.676161000000000,115.213103000000000,rs
Rumkit Tk.III Udayana Denpasar,Jl. P.B Sudirman No.1 Denpasar,A,3,Denpasar,Bali,-8.663467000000000,115.218678000000000,rs
RSU Dharma Usadha,Jl. P.B. Sudirman 50 Denpasar,A,,Denpasar,Bali,-8.670633000000000,115.217742000000000,rs
RSU Manuaba,Jl. Cokroaminoto 28 Denpasar,A,,Denpasar,Bali,-8.644183000000000,115.209322000000000,rs
RS Jiwa Bina Atma,Jl. Cokroaminoto 256 Km.5 Denpasar,B,,Denpasar,Bali,-8.630000000000000,115.201189000000000,rs
RSK Bedah Graha Usadha,Jl. Cokroaminoto No.28 Denpasar,K,,Denpasar,Bali,-8.643361000000000,115.210000000000000,rs
RSU Kasih Ibu,"Jl. Teuku Umar 120,Denpasar",A,,Denpasar,Bali,-8.677750000000000,115.205522000000000,rs
RSU Puri Raharja,Jl. WR Supratman 14-19 Denpasar,A,,Denpasar,Bali,-8.649367000000000,115.226475000000000,rs
RSU Sari Dharma,Jl. Pulau Seram No.8 Denpasar,A,,Denpasar,Bali,-8.670953000000000,115.213950000000000,rs
RSU Bhakti Rahayu,Jl. Gatot Subroto II /11 Denpasar,A,,Denpasar,Bali,-8.637339000000000,115.221000000000000,rs
RSB Harapan Bunda,Jl. Tukad Unda No. 1 Denpasar,C,,Denpasar,Bali,-8.673550000000000,115.232172000000000,rs
RS Graha Asih,Jl. IG Ngurah Rai 33 Kuta Bali,A,,Denpasar,Bali,-8.731958000000000,115.179003000000000,rs
RSGM FKG Un Mahasaraswati,Jl. Kamboja 11A Denpasar,T,,Denpasar,Bali,-8.653139000000000,115.224639000000000,rs
RS Balimed,"Jl.Mahendradatta No.57,Denpasar Bali",A,,Denpasar,Bali,-8.656908000000000,115.191656000000000,rs
RSU Shanti Graha,"Desa Sulanyah, Kecamatan Seririt, Singaraja",A,D,,Bali,-8.191378000000000,114.961117000000000,rs
RS Paru Dr. H.A. Rotinsulu Bandung,Jl. Bukit Jarian No. 40 Bandung,F,A,Kota Bandung,Jawa Barat,-6.877661000000000,107.606561000000000,rs
RSB Astanaanyar,Jl. Astanaanyar 224 Bandung,C,,Kota Bandung,Jawa Barat,-6.925961000000000,107.611700000000000,rs
RSIA Sukajadi,Jl. Sukajadi No. 149 Bandung,O,,Kota Bandung,Jawa Barat,-6.886711000000000,107.596161000000000,rs
RS Jiwa Hurip Waluya,Jl. Karang Tineung No.1A Bandung,B,C,Kota Bandung,Jawa Barat,-6.883944000000000,107.594247000000000,rs
RS Al-Islam Bandung,Jl. Soekarno. Hatta 644 Bandung,A,,Kota Bandung,Jawa Barat,-6.939222000000000,107.669000000000000,rs
RSK Bedah Halmahera Siaga,Jl. Halmahera No. 10 Bandung,K,,Kota Bandung,Jawa Barat,-6.907233000000000,107.616025000000000,rs
RS PKU Muhammadiyah,"Jl. Raya Kedu Km.2,Temanggung",A,C,Temanggung,Jawa Tengah,-7.291367000000000,110.173372000000000,rs
RS Islam Kendal,"Jl. Ar.Rahmah No.17 Weleri,Kendal",A,,Kendal,Jawa Tengah,-6.923569000000000,110.067458000000000,rs
RSUD Kab. Batang,"Jl. Dr Sutomo No. 42,Batang",A,C,Batang,Jawa Tengah,-6.914681000000000,109.719422000000000,rs
RSU Bhakti Waluyo,"Ds Sukorejo,Warungasem,Batang",A,,Batang,Jawa Tengah,-6.903186000000000,109.695903000000000,rs
RSUD Kajen Kab.Pekalongan,Jl. Raya Karangsari Karanganyar,A,C,Pekalongan,Jawa Tengah,-6.988967000000000,110.446153000000000,rs
RSUD Bendan Kota Pekalongan,"Jl. Sriwijaya No.2,Pekalongan",A,D,Pekalongan,Jawa Tengah,-6.894569000000000,109.660106000000000,rs
RS Islam Moga,"Jl. Raya Moga Pulosari,Pemalang",A,,Pemalang,Jawa Tengah,-6.901419000000000,109.412533000000000,rs
RS Islam Al-Ikhlas,"Jl. Kol.Soegiono No.13,Pemalang",A,,Pemalang,Jawa Tengah,-6.904083000000000,109.411469000000000,rs
RSTP Kalibakung,"Jl. Dr Sutomo 63,Slawi",F,,Tegal,Jawa Tengah,-6.992739000000000,109.139344000000000,rs
RSB Harapan Ibu,"Jl. Raya Procot,Slawi",C,,Tegal,Jawa Tengah,-6.871061000000000,109.129142000000000,rs
RSB Utama Aisyiyah &quot;Siti Hajar&quot;,Jl. Kartini No.41 Kab. Tegal,C,,Tegal,Jawa Tengah,-6.870214000000000,109.140047000000000,rs
RSU Brebes,"Jl. Jend.Sudirman No.181,Brebes",A,C,Brebes,Jawa Tengah,-6.874686000000000,109.046378000000000,rs
RS SELARAS,Jl. Raya Lapan Rumpin Suradita,A,D,Tangerang,Banten,-6.228892000000000,106.519767000000000,rs
RSIA Tiara,Jl. Raya serang KM 14.5 No.1,C,-,Tangerang,Banten,-6.136239000000000,106.140125000000000,rs
RS Islam Sari Asih Ar-rahmah,Jl. K.S Tubun No.44 Koang Jaya,A,D,Kota Tangerang,Banten,-6.163733000000000,106.629178000000000,rs
RS Mitra Husada,Tangerang Banten,A,,Tangerang,Banten,-6.080789000000000,106.650111000000000,rs
RS Mayapada,Jl. Honoris Raya Kav.6 Tangerang,A,C+,Kota Tangerang,Banten,-6.203092000000000,106.641797000000000,rs
RS Q a d r,Komp Islamic Village Curug Tangerang,A,C,Tangerang,Banten,-6.227294000000000,106.616469000000000,rs
RSIA An-Nisa Tangerang,Jl. Gatot Subroto 96 Tangerang,O,C,Kota Tangerang,Banten,-6.187978000000000,106.604344000000000,rs
"RSK Mental, Narkotik Dharma Graha",Jl. Raya Astek No.17 Lengkong Gudang Timur Serpong,B,,Tangerang,Banten,-6.293839000000000,106.687000000000000,rs
RS Restu Ibu,Jl. Jen A.Yani No. 12 Balikpapan,A,,Balikpapan,Kalimantan Timur,-1.271531000000000,116.837000000000000,rs
RSB Sayang Ibu Balikpapan,"Jl. Wain No.33,Kebun Sayur,Balikpapan",C,B,Balikpapan,Kalimantan Timur,-1.265386000000000,116.831200000000000,rs
RSUD H A Wahab Sjahranie,"Jl. Dr. Soetomo, Samarinda",A,B,Samarinda,Kalimantan Timur,-0.502183000000000,117.153800000000000,rs
RS Dim 0901 Samarinda,Jl. Jen Sudirman Samarinda,A,4,Samarinda,Kalimantan Timur,-0.503589000000000,117.157000000000000,rs
RSIA Aisyiah Samarinda,Jl. P Hidayatulah 64 Samarinda,O,,Samarinda,Kalimantan Timur,-0.499914000000000,117.149750000000000,rs
RS Bhakti Nugraha,Jl. Basuki Rachmat 50 Samarinda,A,,Samarinda,Kalimantan Timur,-0.495703000000000,117.151000000000000,rs
RS Haji Darjad,"Jl.Dahlia No.4,Samarinda",A,,Samarinda,Kalimantan Timur,-0.502183000000000,117.153800000000000,rs
RSUD Inche Abdoel Moeis,"Jl. A.M.Rifaddin Kel,Harapan Baru Samarinda Seberang",A,C,Samarinda,Kalimantan Timur,-0.503589000000000,117.156500000000000,rs
RSAL Ilyas Tarakan,Jl. Jen Sudirman Tarakan,A,3,Tarakan,Kalimantan Timur,3.276089000000000,117.619400000000000,rs
RS LNG Badak,Bontang Selatan Kotip Bontang,A,,Bontang,Kalimantan Timur,0.135697000000000,117.498597000000000,rs
RS Pupuk Kaltim,Komplek Pupuk Kaltim Bontang,A,,Bontang,Kalimantan Timur,0.135697000000000,117.498597000000000,rs
RSU Kab. Karimun,"Jl. Soekarno - Hatta, Tg Balai Karimun",A,C,Karimun,Kepulauan Riau,0.907700000000000,103.450033000000000,rs
RS Jiwa Makassar,Jl. L Pasewang No. 34 Makassar,B,A,Makassar,Sulawesi Selatan,-5.152300000000000,119.422531000000000,rs
RSB Elim Makassar,Jl. S Saddang 70 Makassar,C,,Makassar,Sulawesi Selatan,-5.146408000000000,119.422122000000000,rs
RSB Sentosa,Jl. Jend Sudirman 44 Makkassar,C,,Makassar,Sulawesi Selatan,-5.144542000000000,119.414867000000000,rs
RSB Siti Hadijah,Jl. Kartini No. 15-17 Makassar,C,,Makassar,Sulawesi Selatan,-5.155386000000000,119.424322000000000,rs
RSB Restu Makassar,Jl. H A Mappanyuki 27 Makassar,C,,Makassar,Sulawesi Selatan,-5.150925000000000,119.414844000000000,rs
RSB Siti Miriam,Jl. Lamadukelleng Makassar,C,,Makassar,Sulawesi Selatan,-5.143919000000000,119.411000000000000,rs
RS Jiwa Dr. Radjiman Wediodiningrat,Jl. Jen. A.Yani Lawang,RS Khusus,A,Malang,Jawa Timur,-7.839828000000000,112.676147000000000,rs
RSUD Dr Soegiri Lamongan,Jl. Kusumabangsa 7 Lamongan,A,B,Lamongan,Jawa Timur,-7.114131000000000,112.411000000000000,rs
RSU Dr. Saiful Anwar,Jl. Jaksa Agung Suprapto No.2 Malang,A,A,Kota Malang,Jawa Timur,-7.964533000000000,112.631711000000000,rs
RS Katholik Surabaya,"Jl. Diponegoro 51,Surabaya",A,,Kota Surabaya,Jawa Timur,-7.291169000000000,112.736000000000000,rs
RSU Dr. R. Soetrasno Rembang,"Jl. Pahlawan No.16,Rembang",A,C,Rembang,Jawa Tengah,-6.704192000000000,111.342033000000000,rs
RSU Tidar,"Jl. Tidar No.30 A, Magelang",A,B,Kota Magelang,Jawa Tengah,-7.500544000000000,110.223703000000000,rs
RS St. Elisabeth Semarang,"Jl. Kawi No.1,Semarang",A,B,Kota Semarang,Jawa Tengah,-7.007989000000000,110.418000000000000,rs
RSB Permata Bunda,"Jl. Hayam Wuruk No. 24,Grobogan",C,C,Grobogan,Jawa Tengah,-7.030875000000000,110.920711000000000,rs
RSB Gunung Sawo II,Jl. Gatot Subroto Manding Temanggung,C,C,Temanggung,Jawa Tengah,-7.309386000000000,110.155597000000000,rs
Rumkit Tk III Wijayakusuma,Jl. Prof.Dr. HR Bunyamin Purwokerto,A,3,Banyumas,Jawa Tengah,-7.483214000000000,109.140439000000000,rs
RS Telogorejo Semarang,Jl. KH. Ahmad Dahlan Semarang,A,,Kota Semarang,Jawa Tengah,-6.988278000000000,110.426650000000000,rs
RS. Maguan Husada,"Jl. Raya Praci-gribelah Km.6 Suci, Pracimantoro",A,D,Wonogiri,Jawa Tengah,-8.055306000000000,110.808303000000000,rs
RSK Bedah Diponegoro,"Jl. Diponegoro No.21,Klaten",K,B,Klaten,Jawa Tengah,-7.709558000000000,110.614633000000000,rs
RS Paru Dr. Ario Wirawan Salatiga,"Jl. Hasanudin No.806,Salatiga",F,B,,Jawa Tengah,-7.369986000000000,110.450372000000000,rs
RSUD Tugurejo Semarang,"Jl. Raya Tugurejo,Semarang",A,B,Kota Semarang,Jawa Tengah,-6.996617000000000,110.372544000000000,rs
RSU Roemani,"Jl. Wonodri 2 No. 22,Semarang",A,C,Kota Semarang,Jawa Tengah,-7.002222000000000,110.425933000000000,rs
RSU PKU Muhammdiyah DI,"Jl. Raya Delanggu Utara No.19,Delanngu",A,,Klaten,Jawa Tengah,-7.619514000000000,110.698756000000000,rs
RS Islam Klaten,"Jl. Raya Klaten Solo KM 4,Klaten",A,B,Klaten,Jawa Tengah,-7.686500000000000,110.636203000000000,rs
RSIA Sarila Husada,"Jl. Veteran No. 41-43,Sragen",RS Ibu&Anak,Khusu,Sragen,Jawa Tengah,-7.429533000000000,111.023950000000000,rs
RS Dr.Oen,"Jl. Brigjend Katamso 55,Surakarta",A,B,Kota Surakarta,Jawa Tengah,-7.555100000000000,110.839000000000000,rs
RSU Ananda Salatiga,"Jl. Ki Penjawi No.5,Salatiga",A,D,,Jawa Tengah,-7.343383000000000,110.503669000000000,rs
RSU Pambalah Batung,Jl. Basuki Rahmat No. 1 Amuntai,A,C,Hulu Sungai Utara,Kalimantan Selatan,-3.092642000000000,115.283758000000000,rs
RSUD Kotabaru,"Jl. H Hasan Basri No.57, Kotabaru",A,C,Kotabaru,Kalimantan Selatan,-3.092642000000000,115.283758000000000,rs
RSUD Ratu Zalecha,Jl. A Yani Km 00100 Martapura,A,C,Banjar,Kalimantan Selatan,-3.411597000000000,114.845200000000000,rs
RSU Datu Sanggul Rantau,Jl. Brigjen H Basri Rantau,A,C,Tapin,Kalimantan Selatan,-3.689894000000000,116.183208000000000,rs
RSU Brigjen H Hasan Basry,Jl. Jend Sudirman Kandangan,A,C,Hulu Sungai Selatan,Kalimantan Selatan,-2.778900000000000,115.264000000000000,rs
RS Rem 101 Kandangan,Jl. Gambah Dalam Kandangan,A,4,Hulu Sungai Selatan,Kalimantan Selatan,-2.778900000000000,115.264000000000000,rs
RSUD H Damanhuri Barabai,Jl. Murakata No. 4 Barabai,A,C,Hulu Sungai Tengah,Kalimantan Selatan,-2.652250000000000,115.339967000000000,rs
RSUD H. Badaruddin/Tanjung,Jl. J A Suprapto Tanjung,A,C,Tabalong,Kalimantan Selatan,-2.216361000000000,115.436692000000000,rs
RS Pertamina Tanjung,Tanjung Kab Tabalong,A,,Tabalong,Kalimantan Selatan,-2.216361000000000,115.436692000000000,rs
RSUD Amanah Husada,Jl. Batulicin - Serongga Km.3.5 kec.Simpang Empat Kab.Tanah Bumbu,A,D,Tanah Bumbu,Kalimantan Selatan,-2.967728000000000,115.686036000000000,rs
RSUD Ulin Banjarmasin,"Jl. Jen A Yani No.43, Banjarmasin",A,B,Banjarmasin,Kalimantan Selatan,-3.395972000000000,114.585081000000000,rs
RSU Suaka Insan,Jl. H Zafri Zamzam Banjarmasin,A,,Banjarmasin,Kalimantan Selatan,-3.395972000000000,114.585081000000000,rs
RS Islam Banjarmasin,Jl. S Parman Banjarmasin,A,,Banjarmasin,Kalimantan Selatan,-3.395972000000000,114.585081000000000,rs
Rumkit Tk.III Dr. R.Soeharsono.,Jl. M.Soetoyo S 408 Banjarmasin,A,3,Banjarmasin,Kalimantan Selatan,-3.395972000000000,114.585081000000000,rs
RSB Pura Raharja,Jl. Rantauan Tengah Banjarmasin,C,,Banjarmasin,Kalimantan Selatan,-3.395972000000000,114.585081000000000,rs
RSUD Dr.H.Moch.Ansari Saleh,"Jl. Brig Jend H Hasan Basry No.1,Banjarmasin",A,B,Banjarmasin,Kalimantan Selatan,-3.395972000000000,114.585081000000000,rs
RSU Sari Mulia,Jl. P Antasari 139B Banjarmasin,A,,Banjarmasin,Kalimantan Selatan,-3.395972000000000,114.585081000000000,rs
RS Puri Paramita,Jl. A Yani Km 3 1/2 Banjarmasin,A,,Banjarmasin,Kalimantan Selatan,-3.395972000000000,114.585081000000000,rs
RSB Renata,Jl. A Yani No. 149 Banjarmasin,C,,Banjarmasin,Kalimantan Selatan,-3.395972000000000,114.585081000000000,rs
RSB Ibunda Siti,Jl. Kol Sugio No. 51 Banjarmasin,C,,Banjarmasin,Kalimantan Selatan,-3.395972000000000,114.585081000000000,rs
RSK Bedah Siaga,Jl. A Yani No. 149 Banjarmasin,K,,Banjarmasin,Kalimantan Selatan,-3.395972000000000,114.585081000000000,rs
RS TNI-Au Tk.IV Syamsudin Noor,Jl. Hercules No. 17 Banjarmasin,A,4,Banjarmasin,Kalimantan Selatan,-3.395972000000000,114.585081000000000,rs
Rumkit Bhayangkara Banjarmasin,"Jl. A. Yani Km.3,5 Banjarmasin",A,4,Banjarmasin,Kalimantan Selatan,-3.395972000000000,114.585081000000000,rs
RSUD Banjarbaru,Jl. Palang Merah 2 Banjarbaru,A,C,Kota Banjar Baru,Kalimantan Selatan,-3.092642000000000,115.283758000000000,rs
RSIA Fatima Ketapang,"Jl. Jend Sudirman No.27, Ketapang",O,D,Ketapang,Kalimantan Barat,-1.859097000000000,109.971900000000000,rs
RS Agape,Jl. Sintang-Pontianak Sintang,A,,Sintang,Kalimantan Barat,0.080239000000000,111.495500000000000,rs
RSUD Kab.Sekadau,"Sekadau,Kalbar",A,D,Sekadau,Kalimantan Barat,0.015081000000000,110.888603000000000,rs
RSUD Melawi,"Jl. Rawat Inap Nanga Pinoh,Kab.Melawi-Kalbar",A,D,Melawi,Kalimantan Barat,0.083333000000000,111.483333000000000,rs
RS Dam XII Ponianak,Jl. Jen Sudirman No. 1 Pontianak,A,3,Kota Pontianak,Kalimantan Barat,-0.022522000000000,109.330308000000000,rs
RS Jiwa Pontianak,Jl. Ali Anyang No. 1 Pontianak,B,A,Kota Pontianak,Kalimantan Barat,-0.028411000000000,109.327000000000000,rs
RSB Harapan Anda,Jl. KH W Hasyim 256 Pontianak,C,,Kota Pontianak,Kalimantan Barat,-0.022522000000000,109.330308000000000,rs
RSI Yarsi Pontianak,Jl. Tanjung Raya II Pontianak,A,C,Kota Pontianak,Kalimantan Barat,-0.022522000000000,109.330308000000000,rs
RSIA Anugerah Bunda Khatulistiwa,"Jl. Ahmad Yani,Pontianak Selatan",O,,Kota Pontianak,Kalimantan Barat,-0.051289000000000,109.346000000000000,rs
Rumkit Lanud Supadio,"Jl. Raya Kuala Dua, Pontianak",A,4,Kota Pontianak,Kalimantan Barat,-0.022522000000000,109.330308000000000,rs
RS Bethesda Serukam,"Serukam Samalantan Bengkayang, Sambas",A,C,Sambas,Kalimantan Barat,1.361328000000000,109.309997000000000,rs
RSU Ade Moehamad Djoen Sintang,Jl. Patimura Sintang,A,C,Sintang,Kalimantan Barat,0.080239000000000,111.495500000000000,rs
Rumkit TK.IV Singkawang,Jl. Perwira No.W 15 Singkawang,RS TNI,D,Sambas,Kalimantan Barat,1.361328000000000,109.309997000000000,rs
RSUD Dr Achmad Diponegoro,Jl. Yos Sudarso 42 Puttussibau,A,C,Kapuas Hulu,Kalimantan Barat,0.851408000000000,112.932297000000000,rs
RS Bersalin Jeumpa,-,RSB,D,Pontianak,Kalimantan Barat,-0.022522000000000,109.330308000000000,rs
RSU Dr Sudarso PTK,Jl. Adisucipto Pontianak,A,B,Kota Pontianak,Kalimantan Barat,-0.022522000000000,109.330308000000000,rs
RSU St.Antonius,"Jl. KHW. Hasyim No.249, Pontianak",A,B,Kota Pontianak,Kalimantan Barat,-0.022522000000000,109.330308000000000,rs
RS Santo Vincentius,Jl. P Diponegoro 5 Singkawang,A,C,,Kalimantan Barat,0.908794000000000,108.984597000000000,rs
Rumkit Bhayangkara Pontianak,"Jl. K.S. Tubun 14, Pontianak",A,4,Pontianak,Kalimantan Barat,-0.022522000000000,109.330308000000000,rs
RSUD Dr Abdul Aziz,"Jl. Dr Sotomo No. 28, Singkawang",A,B,Sambas,Kalimantan Barat,1.361328000000000,109.309997000000000,rs
RS Santa Elizabeth,Jl. Gusti Hamzah 029 Sambas,A,,Sambas,Kalimantan Barat,1.361328000000000,109.309997000000000,rs
RS Pro Medika,"Jl. Gusti S. Lelanang Blok EA No.2-5, Kota Pontianak",A,0,,Kalimantan Barat,-0.040422000000000,109.329011000000000,rs
RSU Sambas,Jl. Gusti Hamzah No. 87 Sambas,A,C,Sambas,Kalimantan Barat,1.361328000000000,109.309997000000000,rs
RS Jiwa Singkawang,Jl. Raya Singkawang Singkawang,B,B,Sambas,Kalimantan Barat,0.908794000000000,108.984597000000000,rs
RS Kusta Singkawang,Jl. Gn Sari 70 Singkawang,G,,Sambas,Kalimantan Barat,0.908794000000000,108.984597000000000,rs
RSU Harapan Bersama,Jl. P Belitung No.61 Singkawang,A,,Sambas,Kalimantan Barat,0.908794000000000,108.984597000000000,rs
RS PTPN XIII D Salak,Danau Salak Martapura Kalsel,A,D,Banjar,Kalimantan Selatan,-3.395972000000000,114.585081000000000,rs
RSIA Anugerah Medical Center,"Jl. Kunang 15 Kauman, Metro",RSIA,C,Lampung Barat,Lampung,-5.100000000000000,105.330000000000000,rs
RS Jiwa Bandar Lampung,"Jl. Raya Gd.Tataan,Bandar Lampung",B,B,Kota Bandar Lampung,Lampung,-5.450000000000000,105.266667000000000,rs
RSU Bumi Waras,"Jl. W. Monginsidi No.235,Bandar Lampung",A,Madya,Kota Bandar Lampung,Lampung,-5.435911000000000,105.255386000000000,rs
RSU Liwa,"Jl. Teuku Umar 3,Lampung Barat",A,C,Lampung Barat,Lampung,-5.356681000000000,104.035364000000000,rs
RS Islam Asy-Syifaa Bandar Jaya,"Jl. Negara 56 Lintas,Sumatera",A,,Lampung Utara,Lampung,-4.851478000000000,104.849436000000000,rs
RSU Dr H Abdul Moeloek,"Jl. Dr. Rivai 6,Penengahan B.Lampung",A,B,Lampung Barat,Lampung,-5.790250000000000,105.717064000000000,rs
RS Harapan Bunda,"Jl. Raya Lintas Sumatera, Seputih Jaya No.31 Gunung Sugih, Lampung Tengah",A,,Lampung Tengah,Lampung,-4.874917000000000,105.174467000000000,rs
RS Kusta Dr. Rivai Abdullah,Jl. Dr. Rivai Abdullah - Mariana Banyuasin I,G,B,Lampung,Sumatera Selatan,-5.385256000000000,105.260406000000000,rs
RSB Anugerah Medika,"Jl. Kapten Achmad Ibrahim No.21-23 Engal, Bandar Lampung",C,,Bandar Lampung,Lampung,-5.417844000000000,105.260333000000000,rs
RS Islam Metro,"Jl. Jend.AH Nasution No.250,Metro",A,,-,Lampung,-5.111475000000000,105.322922000000000,rs
RSUD Dr. Muhammad Zein Painan,Jl. Dr A Rivai Painan,A,C,Pesisir Selatan,Sumatera Barat,-5.297031000000000,104.006231000000000,rs
RSU Pringsewu,"Jl. Kesehatan No.1360,Pringsewu",A,C,Lampung Selatan,Lampung,-5.355564000000000,104.965092000000000,rs
RS Islam Umbul Thoif,"Jl. Pemanngilan Natal,Lampung Selatan",A,,Lampung Selatan,Lampung,-5.247550000000000,105.295942000000000,rs
RSUD Sukadana,"Jl. Adnan Sanjaya,Lintas Timur,Sukadana,Lamp.Timur",A,C,Lampung Timur,Lampung,-5.108719000000000,105.614967000000000,rs
RS Mitra Mulia Husada,"Jl. Proklamator Raya No.162-164,Lampung Tengah",A,,Lampung Tengah,Lampung,-4.800808000000000,105.313117000000000,rs
RS Yukum Medical Centre,Jl. Jl. Negara No.99 Km.67 Yukum Jaya Lampung Tengah,A,,Lampung Tengah,Lampung,-4.800808000000000,105.313117000000000,rs
RSU May Jen HM Ryacudu,"Jl. Jen.Sudirman No.2,Kotabumi",A,C,Lampung Utara,Lampung,-4.835500000000000,104.892000000000000,rs
RSUD Zainal Abidin Pagar Alam,"Jl. Raya Lintas Sumatera,Blambangan Umpu",A,C,Way Kanan,Lampung,-5.379453000000000,105.252936000000000,rs
RSUD Menggala Tulang Bawang,"Menggala,Kab.Tulang Bawang",A,D,Tulang Bawang,Lampung,-4.610283000000000,105.221039000000000,rs
Rumkit Tk IV Bandara Lampung,"Jl. Dr. A.Rivai No.7, Bandar Lampung",A,4,Bandar Lampung,Lampung,-5.402567000000000,105.258572000000000,rs
RS Kartika,"Jl. Gatot Subroto 96 B,Bandar Lampung",A,,Bandar Lampung,Lampung,-5.435211000000000,105.281494000000000,rs
RS Immanuel Way Halim,"Jl. Sukarno Hatta Way Halim,Bandar Lampung",A,,Bandar Lampung,Lampung,-5.363350000000000,105.237194000000000,rs
RS Mata Permana Sari,"Jl. HOS Cokroaminoto,B Lampung",D,,Lampung,Lampung,-5.417969000000000,105.262383000000000,rs
RSU Advent Bandar Lampung,"Jl. Teuku Umar 48,Bandar Lampung",A,,Bandar Lampung,Lampung,-5.391867000000000,105.269403000000000,rs
RS Urip Sumoharjo,"Jl. Urip Sumoharjo No.200,Bandar Lampung",A,,Bandar Lampung,Lampung,-5.391256000000000,105.276733000000000,rs
RSU Graha Husada,"Jl. Gajah Mada No.88,Bandar Lampung",A,,Bandar Lampung,Lampung,-5.414619000000000,105.267122000000000,rs
RS Bintang Amin Husada,"Jl. Pramuka No.27,Bandar Lampung",A,,Bandar Lampung,Lampung,-5.377925000000000,105.220508000000000,rs
Rumkit Bhayangkara Lampung,Jl. Pramuka No.88 Rajabasa Bandar Lampung,A,4,Bandar Lampung,Lampung,-5.374017000000000,105.224097000000000,rs
"RSUD Ahmad Yani,Metro","Jl. Jend.A.Yani No.13,Metro",A,B,Metro,Lampung,-5.113942000000000,105.305736000000000,rs
RS Mardi Waluyo,"Jl. Jenderal Susdirman 156,Metro Lampung",A,,Metro,Lampung,-5.125158000000000,105.286847000000000,rs
RSUD Dr. A. Dadi Tjokrodipo,"Jl. Basuki Rachmad No.73 Teluk Betung, Bandar lampung",A,C,,Lampung,-5.439628000000000,105.254158000000000,rs
RSU Muhammadiyah Metro,"Jl. Soekarno Hatta No.42 Mulyojati 16B, Metro Barat",A,0,,Lampung,-5.115758000000000,105.297208000000000,rs
RSUD Demang Sepulau Raya,Jl. Raya Lintas Sumatera Kampung Terbanggi Agung Kec.Gunung Sugih Kab.Lampung T More ...,A,C,Lampung Tengah,Lampung,-5.053100000000000,105.201650000000000,rs
RS Bergerak Kab.Maluku Tenggara Barat,Jln. Ir. Soekarno,A,D,,Maluku,-3.238461000000000,130.145272000000000,rs
RSU Tanjung Uban,"Jl. Indun Suri-Simpang Busung No.1,Kepulauan Riau",A,C,,Kepulauan Riau,3.945650000000000,108.142867000000000,rs
RSU Lapangan Lingga,Jl. Masjid Sultan Kab.Lingga,A,C,,Kepulauan Riau,-0.160131000000000,104.674542000000000,rs
RS Budi Kemuliaan Batam,"Jl. Budi Kemuliaan No.1,Batam",A,,,Kepulauan Riau,1.082828000000000,104.030453000000000,rs
RS Awal Bros Batam,"Jl. Gajah Mada Kav.I Baloi,Batam",A,,,Kepulauan Riau,1.045625000000000,104.030453000000000,rs
RS Casa Medical Centre,"Jl. Jend. A. Yani No.8,Batam",A,,,Kepulauan Riau,1.082828000000000,104.030453000000000,rs
RS Otorita Batam,"Jl. Dr. Cipto Mangunkusumo Sekupang,Batam",A,B,,Kepulauan Riau,1.087186000000000,103.954311000000000,rs
RS Bhakti Timah,"Jl. Canggai Putri,Tanjung Balai",A,,Tanjung Pinang,Kepulauan Riau,1.083333000000000,104.483333000000000,rs
RSUD Dabo,"Jl. Kesehatan No.1, Dabo Singkep",A,D,Lingga,Kepulauan Riau,-0.553581000000000,104.481400000000000,rs
RSUD Natuna,"Jl. H.Ali Murtopo,Natuna",A,C,Natuna,Kepulauan Riau,3.945650000000000,108.142867000000000,rs
RS AL Dr Midiyato S,"Jl. Ciptadi No.1,Tanjung Pinang",A,3,Tanjung Pinang,Kepulauan Riau,1.091167000000000,104.478406000000000,rs
RS Antam Bauksit,"Jl. Kesehatan C. 36,Tg Pinang",A,,Tanjung Pinang,Kepulauan Riau,1.158228000000000,104.334122000000000,rs
RS Lanu Ranai,Natuna Kab.Kepulauan Riau,A,4,Tanjung Pinang,Kepulauan Riau,3.945650000000000,108.142867000000000,rs
RS Santa Elisabeth Batam,"Jl. Anggrek Blok II,Lubuk Baja Batam",A,,Batam,Kepulauan Riau,1.087667000000000,104.046606000000000,rs
RS Ibu dan Anak Nuruddiniyah,Jl. Raya Sei Panas - Batam,O,,Batam,Kepulauan Riau,1.060042000000000,104.030319000000000,rs
RS Harapan Bunda Batam,"Jl. Seraya No.1,Batam",A,,Tanjung Pinang,Kepulauan Riau,0.966944000000000,103.976667000000000,rs
RSK Anak Permata Hati,"Jl. Bunga Raya No.3A/3B,Batam",P,,Tanjung Pinang,Kepulauan Riau,1.091025000000000,103.984972000000000,rs
RSU Daerah Kota Batam,Jl. Bringjen Katamso,A,C,Tanjung Pinang,Kepulauan Riau,1.086317000000000,103.953181000000000,rs
RSIA Mutiara Aini,"Jl. Batu Aji II Blok A No.01, Kel.Buliang, Kec.Batu Aji - Batam",O,C,,Kepulauan Riau,1.045625000000000,104.030453000000000,rs
RSIA Panti Secanti,"Jl. Raya Gisting,Tanggamus",Swasta,Umum,Tanggamus,Lampung,-5.459672000000000,104.703161000000000,rs
RS Handayani,"Jl. Soekarno - Hatta No.94,Kotabumi lampung Utara",A,D,,Lampung,-4.839392000000000,104.883833000000000,rs
RS Mitra Husada,"Jl. Jend.A.Yani No.14 Pringsewu,Kab.Tanggamus",A,,Tanggamus,Lampung,-5.459672000000000,104.703161000000000,rs
RSUD Kalianda,"Jl. Lettu Rohani 14 B,Kalianda",A,C,Lampung Selatan,Lampung,-5.735489000000000,105.616000000000000,rs
RSU Kolaka,Jl. W R Supratman No. 20 Kolaka,A,C,Kolaka,Sulawesi Tenggara,-4.020736000000000,121.511839000000000,rs
RS Antam Nikel Pomalaa,Jl. R.Suprapto Pomalaa Kab.Kolaka,A,BUMN,Kolaka,Sulawesi Tenggara,-4.020736000000000,121.511839000000000,rs
RSU Bau Bau,Jl. Jend Sudirman 20 Bau Bau,A,C,Buton,Sulawesi Tenggara,-5.309636000000000,122.988833000000000,rs
RSU Propinsi Kendari,Jl. Dr Ratulangi No. 151 Kendari,A,B,Kota Kendari,Sulawesi Tenggara,-3.957961000000000,122.571333000000000,rs
Rumkit Tk.IV Dr. R Ismoyo Kendari,Jl. Laute no 1 Kendari Sul-ut,A,4,Kota Kendari,Sulawesi Tenggara,-3.957961000000000,122.571222000000000,rs
RSUD Kab.Konawe Utara,"Jl. Raya Asera - Kendari, Lahimbua Kec. Asera",A,B,Konawe Utara,Sulawesi Tenggara,-3.280278000000000,121.837758000000000,rs
RS Mitra Sakinah Idaman,Jl. Poros Kendari-Kolaka Unaaha Kendari,A,,Kendari,Sulawesi Tenggara,-3.968347000000000,122.577961000000000,rs
RSUD Bombana,"Jl. Poea Kel.Poea, Rumbia",A,D,Bombana,Sulawesi Tenggara,-4.688628000000000,121.797114000000000,rs
RSUD Wakatobi,"Jl. Wohou Kel. Mandati III, Kec. Wangi - Wangi Selatan",A,D,Wakatobi,Sulawesi Tenggara,-5.329664000000000,123.590289000000000,rs
RSUD Namrole,Jl. Kamboja - Namrole,A,D,Buru Selatan,Maluku,-4.006631000000000,122.498867000000000,rs
RSUD Pasar Wajo,Kabupaten Buton,A,C,Buton,Sulawesi Tenggara,-5.309636000000000,122.988833000000000,rs
RSU Raha,Jl. Sultan Hasanuddin No.6 Raha,A,C,Muna,Sulawesi Tenggara,-4.901628000000000,122.627744000000000,rs
RSU Unaaha,"Jl. Pangeran Diponegoro No.301, Konawe",A,C,Kendari,Sulawesi Tenggara,-3.968183000000000,122.572233000000000,rs
RS Jiwa Kendari,Jl. Letjen Suprapto Kendari,B,B,Kota Kendari,Sulawesi Tenggara,-3.960481000000000,122.509217000000000,rs
RS Bhayangkara Kendari,Jl. Y Wayong No.7Kendari,A,4,Kendari,Sulawesi Tenggara,-4.013000000000000,122.509528000000000,rs
RS Griya Husada Bakti,Jl. Saranani No. 248 Kendari,A,,Kota Kendari,Sulawesi Tenggara,-3.966839000000000,122.521864000000000,rs
RSU Daerah Abunawas,"Jl. Ki Hajar Dewantara No. 16, Kendari",A,D,Kota Kendari,Sulawesi Tenggara,-3.967489000000000,122.594700000000000,rs
RSIA Permata Bunda,"Jl. Masjid Agung Al-Kautsar No.9,Kendari",O,,Kendari,Sulawesi Tenggara,-3.967489000000000,122.594700000000000,rs
RSUD H.M.Djafar Harun,"Jl. Trans Sulawesi No. Lasusua, Kaloka",A,D,Kolaka,Sulawesi Tenggara,-4.021350000000000,121.512692000000000,rs
RSU Noongan,Jl.Raya Noongan Langowan Barat,A,D,Minahasa,Sulawesi Utara,1.000000000000000,124.583333000000000,rs
RS Budi Mulia Bitung,Jl. Sam Ratulangi X/9A Bitung,A,Madya,Bitung,Sulawesi Utara,1.455333000000000,125.204697000000000,rs
RS Bergerak Kab.Kep.Sitaro,"Kampung Sawang Kec, Siau timur selatan",A,D,Siau Tagulandang Biaro,Sulawesi Utara,0.624692000000000,123.975003000000000,rs
RSUD Morowali,Jl. Trans Sulawesi Fonuasingko Bungku,A,D,Morowali,Sulawesi Tengah,-2.169122000000000,121.354164000000000,rs
RSU Ampana,Jl. St Hasanudin No. 32 Ampana,A,C,Poso,Sulawesi Tengah,-0.867983000000000,121.585800000000000,rs
RS GSTK Tentena,"Jl. Setia Budi No.98,Kec.Pamona - Utara",A,,Poso,Sulawesi Tengah,-1.410239000000000,120.758217000000000,rs
RSUD Kabelota,Jl. Trans Palu - Donggala Kabonga Besar,A,D,Donggala,Sulawesi Tengah,-1.183542000000000,119.974053000000000,rs
RSU Mokopido Toli-Toli,"Jl. Lanoni No.37 Toli-Toli, Sulteng",A,C,Toli-Toli,Sulawesi Tengah,1.033333000000000,120.816667000000000,rs
RSU Buol,Kab Buol,A,D,Buol,Sulawesi Tengah,1.160725000000000,121.427211000000000,rs
RSU Undata Palu,Jl. Dr Suharso 14 Palu,A,B,Palu,Sulawesi Tengah,-0.886883000000000,119.867167000000000,rs
Rumkit Tk.IV Wirabuana Palu,"Jl. Sisinga Mangaraja No.4,Palu",A,4,Palu,Sulawesi Tengah,-0.895603000000000,119.887378000000000,rs
RSU Anutapura Palu,Jl. Kangkung No. 1 Palu,A,B,Palu,Sulawesi Tengah,-0.898583000000000,119.850600000000000,rs
RS Woodward,Jl. Woodward No.1 Palu,A,,Palu,Sulawesi Tengah,-0.904283000000000,119.872000000000000,rs
RS Jiwa Palu,Km 13 Mamboro Palu,B,B,Palu,Sulawesi Tengah,-0.806472000000000,119.878675000000000,rs
RS Bethesda Kulawi,Kulawi Kab Donggala Palu,A,,Palu,Sulawesi Tengah,-1.516222000000000,120.008014000000000,rs
RSK Peny.Dalam Sylviani,Jl. Tg Malakosa Palu,J,,Palu,Sulawesi Tengah,-0.898583000000000,119.850600000000000,rs
RSIA Sitti Masyithah,Jl. WR Supratman No. 7 Palu,O,,Palu,Sulawesi Tengah,-0.898583000000000,119.850600000000000,rs
RS Budi Agung,Jl. Maluku No. 4 Palu,A,,Palu,Sulawesi Tengah,-0.907369000000000,119.873600000000000,rs
RS Mata Prof.Dr. Warouw,Jl. Dr Suharso No. 2 Palu,D,,Palu,Sulawesi Tengah,-0.898583000000000,119.850600000000000,rs
RSB Tinatapura,Jl. Raden Saleh 31 Palu,C,,Palu,Sulawesi Tengah,-0.884292000000000,119.868453000000000,rs
RSUD Kab. Konawe,Jl. Poros Andoolo,A,D,,Sulawesi Tenggara,-3.843733000000000,122.033292000000000,rs
RSU Tangerang,Jl. A Yani No. 9 Tangerang,A,B,Kota Tangerang,Banten,-6.170044000000000,106.635467000000000,rs
RSIA Budiasih,Jl. KH Sohari No.39 Serang,RS Bersalin,C,Serang,Banten,-6.136239000000000,106.140125000000000,rs
RSAB Sari Asih,Jl. Imam Bonjol Karawaci No 38 TNG,RSU,B,Kota Tangerang,Banten,-6.179225000000000,106.626283000000000,rs
RSU Dr Adjidarmo,Jl. Iko Jatmika 1 Rangkasbitung,RS non Pendidikan,B,Lebak,Banten,-6.369178000000000,106.283111000000000,rs
RS Islam Asshobirin,Jl. Raya Serpong Km11 Tangerang,A,C,Tangerang,Banten,-6.318589000000000,106.678261000000000,rs
RSIA Ichsan Medical Center,"Jl.Raya Jombang No.56,Bintaro Jaya,Tangerang",A,,Tangerang,Banten,-6.312058000000000,106.740075000000000,rs
RSIA Selaras,"Jl. Raya Serang KM.18,5 Desa Bojong,Tangerang",O,,Tangerang,Banten,-6.223133000000000,106.496517000000000,rs
Rumkit Tk.IV Kencana Serang,Jl. A Yani 23 Serang,A,4,Serang,Banten,-6.118386000000000,106.159497000000000,rs
RS Kusta Sitanala,Jl. Dr Sitanala Tangerang,G,A,Kota Tangerang,Banten,-6.162642000000000,106.633692000000000,rs
RS Usada Insani,Jl. KH.HASYIM ASHARI NO.24 Tangerang,U,B,Kota Tangerang,Banten,-6.183983000000000,106.647747000000000,rs
RSIA Keluarga Ibu,"Jl.Benua Indah No.58,Pabuaran Tumpeng - Tangerang",,C,Kota Tangerang,Banten,-6.166039000000000,106.614725000000000,rs
RSU Melati,"Jl. Merdeka No. 92,Tangerang",A,C,Kota Tangerang,Banten,-6.180725000000000,106.620939000000000,rs
RSIA Kurnia,"Jl. Jombang Masjid No.4,Cilegon",O,C,Kota Cilegon,Banten,-6.015600000000000,106.053100000000000,rs
RSUD As Sholihin,"Jl. Surya Kencana No.1, Kec.Pamulang, Tangerang Selatan",A,C,Kota Tangerang Selatan,Banten,-6.316889000000000,106.740403000000000,rs
RSUD Malingping,"Jl. Raya Saketi Km.1, Malingping Kab.Lebak",A,C,Lima Puluh Kota,Banten,-6.719747000000000,105.982619000000000,rs
RS Misi Lebak,Jl. Multatuli No.41 Rangkas Bitung,A,D,Lebak,Banten,-6.369178000000000,106.283111000000000,rs
RS Medika BSD,"Jl. Letnan Soetopo Kav Kom. III A No.7, BSD Tangerang",A,,Kota Tangerang,Banten,-6.318589000000000,106.678261000000000,rs
RSU Kota Cilegon,Jl. Kapten P.Tendean Km.3 Cilegon,A,B,,Banten,-6.002558000000000,106.066881000000000,rs
RS Antam Emas Cikotok,Cikotok Kec Cibeber Kab Lebak,A,,Lebak,Banten,-6.828411000000000,106.311150000000000,rs
RSIA Lestari,Jl. Cirendeu Indah III/37 Ciputat Tangerang,O,,Tangerang,Banten,-6.312686000000000,106.771503000000000,rs
RSU Bhineka Bakti Husada,"Jl. Cabe Raya No.17 Pondok Cabe,Pamulang Tangerang",A,,Tangerang,Banten,-6.293628000000000,106.766339000000000,rs
RS Bersalin Putra Dalima,"Bumi Serpong Damai Sektor 1-2 Blok K/5-UA/26-27,Tangerang",C,,Tangerang,Banten,-6.318589000000000,106.678261000000000,rs
RS Omni Internasional,"Jl. Alam Sutera Boulevard Kav.25,Tangerang",A,,Tangerang,Banten,-6.244600000000000,106.651022000000000,rs
RS Aminah,"Jl. Hos Cokroaminoto No.4 A, Kreo Selatan",A,,Tangerang,Banten,-6.238039000000000,106.745000000000000,rs
RSK Bedah Benggala,"Jl. Yusuf Martadilaga No.56,Serang",K,,Serang,Banten,-6.121222000000000,106.154875000000000,rs
RS DIM 0506 Tangerang,Jl. Daan Mogot 59 Tangerang,A,4,Kota Tangerang,Banten,-6.163469000000000,106.659133000000000,rs
RS Siloam Gleneagles,Jl. Siloam Lippo Karawaci Tangerang,A,,Kota Tangerang,Banten,-6.225247000000000,106.597422000000000,rs
RS Internasional Bintaro,"Jl. MH Thamrin No.1 Sektor 7 Bintaro Jaya,Tangerang",A,,Kota Tangerang,Banten,-6.276139000000000,106.723664000000000,rs
RS Eka,"Jl. Raya Serpong Km.8,Kab.Tangerang",A,,Kota Tangerang,Banten,-6.298989000000000,106.669936000000000,rs
RSU Mulya,"Jl. Jl.K.H. Hasyim Ashari No.18,Tangerang",A,,Kota Tangerang,Banten,-6.222022000000000,106.687614000000000,rs
RS Bhakti Asih,"Jl. Raden saleh No.10 Karang Tengah, Tangerang",A,,Kota Tangerang,Banten,-6.221147000000000,106.705767000000000,rs
RS Krakatau Medika,Jl. Semang Raya Cilegon,A,B,Cilegon,Banten,-5.990553000000000,106.033192000000000,rs
RS Hermina Tangerang,"Jl. KS, Tubun No.10 Kel. Pasar Baru Kec. Karawaci Kota Tangerang",A,0,,Banten,-6.203764000000000,106.630217000000000,rs
RSU Rafflesia,"Jl. Mahoni No.10 Sawah Lebar,Bengkulu",A,D,Kota Bengkulu,Bengkulu,-3.800650000000000,102.256203000000000,rs
RSU Curup,Jl. Basuki Rachmad No.10 Curup,A,C,Rejang Lebong,Bengkulu,-3.457453000000000,102.553264000000000,rs
RS Bergerak Enggano,Jl. Raya Malakoni KM3 Enggano,A,D,Bengkulu Utara,Bengkulu,-2.666489000000000,101.344353000000000,rs
RSJKO Soeprapto Bengkulu,Jl. Bhakti Husada Lingkar Barat Bengkulu,B,B,Kota Bengkulu,Bengkulu,-3.800650000000000,102.256203000000000,rs
Rumkit Tk IV Bengkulu,"Jl. Zainal Arifin Gading Cempaka,Bengkulu",A,D,Kota Bengkulu,Bengkulu,-3.800650000000000,102.256203000000000,rs
RSU Arga Makmur,Jl. Siti Khadijah Arga Makmur,A,C,Bengkulu Utara,Bengkulu,-2.666489000000000,101.344353000000000,rs
RSUD Mukomuko,"Jl. Padat Karya No.166,Mukomuko",A,D,Muko-Muko,Bengkulu,-2.575764000000000,101.117303000000000,rs
Rumkit Bhayangkara Jitra Bengkulu,Jl. Veteran No. Bengkulu,A,4,Kota Bengkulu,Bengkulu,-3.792364000000000,102.254283000000000,rs
RSUD Bengkulu Tengah,"Jl. Raya Bengkulu - Kepahyang Km.34,5 Ds. Bajak I",A,D,Bengkulu Tengah,Bengkulu,-3.800650000000000,102.256203000000000,rs
RS Hana Charitas Arga Makmur,"Jl. IR. Sukarno No.12 Arga Makmur, Bengkulu Utara",A,D,Bengkulu Utara,Bengkulu,-2.666489000000000,101.344353000000000,rs
RSU Manna,"Jl. Fatmawati Soekarno 31,Manna",A,C,Bengkulu Selatan,Bengkulu,-3.800650000000000,102.256203000000000,rs
RSUD Tais Kab.Seluma,"Jl. Raya Bengkulu - Manna KM.64,Tais",A,D,Seluma,Bengkulu,-4.049086000000000,102.527925000000000,rs
RSUD Muaradua,Jl. Raya Ranau Desa Suka Jaya Kec.Muaradua,A,D,Ogan Komering Ulu Selatan,Sumatera Selatan,-4.797092000000000,103.383611000000000,rs
RSUD Kepahiang,"Jl. Kolonel Santoso No.325,Kab.Kepahiang",A,D,Kepahiang,Bengkulu,-3.643758000000000,102.573986000000000,rs
RSU Dr M Yunus Bengkulu,"Jl. Bayangkara S.Mulyo,Bengkulu",A,B,Bengkulu,Bengkulu,-3.833831000000000,102.313431000000000,rs
RS St Elizabeth Bantul,Ganjuran Kab Bantul Yogyakarta,A,,Bantul,DI Yogyakarta,-7.885550000000000,110.330022000000000,rs
RSU Panti Baktiningsih,"Klepu Sendangmulyo Minggir,Sleman",A,,Sleman,DI Yogyakarta,-7.756089000000000,110.245000000000000,rs
RSU Panti Rapih,Jl. Cik Ditiro 30 Yogyakarta,A,B,Kota Yogyakarta,DI Yogyakarta,-7.776339000000000,110.376000000000000,rs
RS St Yusup Boro,Boro Banjarasri Kulon Progo,A,,Kulon Progo,DI Yogyakarta,-7.826681000000000,110.164086000000000,rs
RSUP Dr. Sarjito,Jl. Kesehatan Sekip Yogyakarta,A,A,Sleman,DI Yogyakarta,-7.768511000000000,110.374000000000000,rs
RSU Permata Husada,jl.pleret-kotagede km-4,RSU,D,Bantul,DI Yogyakarta,-7.885550000000000,110.330022000000000,rs
RSUD Wates,Jl. Tentara Pelajar No. 1 Wates,A,C,Kulon Progo,DI Yogyakarta,-7.893206000000000,110.127822000000000,rs
RS Islam Yogyakarta PDHI,"Jl. Solo Km 12,5 Kalasan Yogya",A,D,Sleman,DI Yogyakarta,-7.776886000000000,110.457056000000000,rs
RSU Kharisma Paramedika,"Jl. Khudori No.34, Wates, Kulon Progo",A,,DI Yogyakarta,DI Yogyakarta,-7.893206000000000,110.127822000000000,rs
RSU Rachma Husada,Jl. Parantritis Km.16 Gerselo Patalan Jetis Bantul,A,,DI Yogyakarta,DI Yogyakarta,-7.909600000000000,110.352264000000000,rs
RSU Rajawali Citra,"Jl. Pleret Km.2,5, Banjardadap Potorono Banguntapan Bantul",A,,DI Yogyakarta,DI Yogyakarta,-7.885550000000000,110.330022000000000,rs
RSU Queen Latifa,Jl. Ring Road Barat - Mlangi - Nogotirto - Sleman,A,,DI Yogyakarta,DI Yogyakarta,-7.696006000000000,110.345825000000000,rs
RS Condong Catur,"Jl. Manggis No.6, Gempol, Condong Catur Sleman",A,,DI Yogyakarta,DI Yogyakarta,-7.696006000000000,110.345825000000000,rs
RS Puri Husada Yogyakarta,Jl. Palagan Tentara Pelajar No.67 Km.11 Rejodani Ngaglik Sleman,A,,DI Yogyakarta,DI Yogyakarta,-7.705728000000000,110.386306000000000,rs
RSUD Prambanan,Jl. Prambanan Piyungan Km.6 Sumber Harjo Prambanan Sleman,A,D,DI Yogyakarta,DI Yogyakarta,-7.814464000000000,110.482036000000000,rs
RS PKU Muhammadiyah,"Jl. Ronggowarsito 130,Surakarta",A,C,Surakarta,Jawa Tengah,-7.800600000000000,110.362000000000000,rs
RSKB Rizki Amalia Medika,Jl. Brosot - Wates Km.5 Jogahan Bumirejo Lendah Kulon Progo,A,,Kulon Progo,DI Yogyakarta,-7.912131000000000,110.202939000000000,rs
RSUD Penembahan Senopati,Jl. Dr. Wahidin SH Bantul,A,B,Bantul,DI Yogyakarta,-7.892725000000000,110.337742000000000,rs
RS PKU Muhammadiyah Bantul,Jl. Jenderal Sudirman 124 Bantul,O,C,Bantul,DI Yogyakarta,-7.886867000000000,110.330214000000000,rs
RSIA Ummi Khasanah,Jl. Pemuda Ds Gandekan Bantul,O,,Bantul,DI Yogyakarta,-7.878825000000000,110.331269000000000,rs
RS Khusus Bedah Nur Hidayah,"Jl. Imogiri Timur Km. 11,5 Trimulyo Jetis Bantul",K,,Bantul,DI Yogyakarta,-7.891339000000000,110.385794000000000,rs
RSUD Wonosari,Jl. Taman Bakti Wonosari,A,C,Gunung Kidul,DI Yogyakarta,-7.962050000000000,110.603000000000000,rs
RS Nur Rohmah,"Ds.Jamburejo,Ds.Bandung,Kec.Playen,Kab.Gunungkidul",A,,Gunung Kidul,DI Yogyakarta,-7.938303000000000,110.575753000000000,rs
RSUD Sleman,Jl. Bhayangkara 48 Sleman,A,B,Sleman,DI Yogyakarta,-7.687569000000000,110.342000000000000,rs
RS Jiwa Ghrasia/Lalijiwa pakem,Jl. Kaliurang No. 17 Yogyakarta,B,A,Sleman,DI Yogyakarta,-7.688728000000000,110.418733000000000,rs
RSK Bedah An-Nur,"Jl. Samirono Baru No.14-16,Sleman",K,,Sleman,DI Yogyakarta,-7.777183000000000,110.384367000000000,rs
RS Panti Rini,"Jl. Solo Km 13,2, Sleman",A,,Sleman,DI Yogyakarta,-7.771761000000000,110.467000000000000,rs
RS Lokapala,Jl. Pemuda 1 Sleman Yogyakarta,A,,Sleman,DI Yogyakarta,-7.778044000000000,110.415519000000000,rs
RS Panti Nugroho,"Jl. Kaliurang Km.17 Pakem,Sleman",A,,Sleman,DI Yogyakarta,-7.669028000000000,110.417492000000000,rs
RSK Bedah Dharma Husada,Jl. Yogya-Wonosari Sleman Yogya,K,,Sleman,DI Yogyakarta,-7.855453000000000,110.497022000000000,rs
RS Ibu dan Anak Sakina Idaman,"Jl. Nyi Condrolukito,Blunyah Gede 60,Sleman",O,C,Sleman,DI Yogyakarta,-7.769550000000000,110.368431000000000,rs
RS Islam Hidayatullah,"Jl. Veteran No.184, Yogyakarta",A,,Yogyakarta,DI Yogyakarta,-7.815406000000000,110.387797000000000,rs
Rumkit DKT Dr. Soetarto/Tk. III Yogyakarta,Jl. Juwadi 19 Yogyakarta,A,3,Yogyakarta,DI Yogyakarta,-7.785750000000000,110.376642000000000,rs
RS PKU Muhammadiyah Yogya,Jl. K.H. Ahmad Dahlan 20 Yogyakarta,A,C,Yogyakarta,DI Yogyakarta,-7.800600000000000,110.362000000000000,rs
RS Bethesda Yogyakarta,Jl. Jen Sudirman 70 Yogyakarta,A,B,Yogyakarta,DI Yogyakarta,-7.783611000000000,110.377000000000000,rs
RS Dr S Harjolukito,Lanud Adisucipto Yogyakarta,A,2,Yogyakarta,DI Yogyakarta,-7.790572000000000,110.410642000000000,rs
RS Jiwa Puri Nirmala,Jl. Jayaningprangan No.13 Yogyakarta,B,,Yogyakarta,DI Yogyakarta,-7.801044000000000,110.376825000000000,rs
RS Mata Dr. Yap,Jl. Cik Ditiro 7 Yogyakarta,D,,Yogyakarta,DI Yogyakarta,-7.780011000000000,110.375000000000000,rs
RSK Bedah Patmasuri,Lapangan Krapyak Yogyakarta,K,C,Yogyakarta,DI Yogyakarta,-7.828408000000000,110.360283000000000,rs
RSUD Kota Yogyakarta,Jl. Wirosaban No. 1 Yogyakarta,A,B,Yogyakarta,DI Yogyakarta,-7.825861000000000,110.378000000000000,rs
RSB Bhakti Ibu,Jl. Golo No.20 Yogyakarta,C,,Yogyakarta,DI Yogyakarta,-7.818278000000000,110.383983000000000,rs
RSK Bedah Soedirman,Jl. Sidobali UH II/402 Muja-Muju Yogyakarta,K,D,Yogyakarta,DI Yogyakarta,-7.797286000000000,110.394039000000000,rs
RSK P.Dalam Husada Tama,Jl. Wiratama 4 Yogyakarta,J,,Yogyakarta,DI Yogyakarta,-7.792467000000000,110.353075000000000,rs
RSK THT Sari Asih,Jl. Tirtodipuran No. 38 Yogya,M,,Yogyakarta,DI Yogyakarta,-7.788281000000000,110.372050000000000,rs
RSK Anak Empat Lima,Jl. Patangpuluhan No.35 Yogyakarta,P,,Yogyakarta,DI Yogyakarta,-7.807447000000000,110.347558000000000,rs
RSK THT Prof R Oepomo,Jl. Suryomentaraman 298 A Yogya,M,,Yogyakarta,DI Yogyakarta,-7.808250000000000,110.367128000000000,rs
RSIA Permata Bunda,Jl. Ngeksigondo 56 Yogyakarta,O,,Yogyakarta,DI Yogyakarta,-7.819036000000000,110.395708000000000,rs
RSGM Univ.Gajah Mada,Jl. Sekip Utara Yogyakarta,T,,Yogyakarta,DI Yogyakarta,-7.797117000000000,110.368669000000000,rs
RS Happy Land Medical Centre,"Jl. Ipda Tut Harsono No.53,Timoho Yogyakarta",A,,Yogyakarta,DI Yogyakarta,-7.790475000000000,110.393536000000000,rs
Rumah Sakit &quot;JIH&quot;,Jalan Ring Road Utara no. 160 Condongcatur Depok,A,B,Sleman,DI Yogyakarta,-7.759047000000000,110.403003000000000,rs
RSUD Otanaha Gorontalo,"Jl. Usman Isa, Gorontalo",A,D,Gorontalo,Gorontalo,0.552511000000000,123.065497000000000,rs
RS Islam Gorontalo,"Jl. KH. Agus Salim No.50, Gorontalo",A,,gorontalo,Gorontalo,0.565767000000000,123.047461000000000,rs
RSUD Tombulilato,Kabupaten Bine Bolango,A,D,Bone,Gorontalo,0.552536000000000,123.081511000000000,rs
RSUD Pohuwato,Jl. Teratai Desa Botubilotahu Gorontalo,A,D,Pohuwato,Gorontalo,0.517647000000000,121.732883000000000,rs
RSU Dr M Mohammad Dunda,Jl. A Yani Limboto Gorontalo,A,C,Boalemo,Gorontalo,0.701342000000000,122.265389000000000,rs
RS Kusta Toto,Toto Kec Kabila Kab Gorontalo,G,,Boalemo,Gorontalo,0.701342000000000,122.265389000000000,rs
RSUD Tani dan Nelayan,"Jl.Letjen Ahmad Yani Ds.Lamu Kec.Tilamuta,Kab.Boalemo",A,D,Boalemo,Gorontalo,0.701342000000000,122.265389000000000,rs
RSU Prof Dr H Aloei Saboe,Jl. Sultan Batutihe No. 7 Gorontalo,A,B,Gorontalo,Gorontalo,0.555200000000000,123.085769000000000,rs
RSU May.H.A. Thalib/Sungai Penuh,Jl. Basuki Rahmat,A,C,Kerinci,Jambi,-2.070419000000000,101.367831000000000,rs
RSUD Hamadjid Batoe BT Hari/ Muara Bulian,"Jl. Dr. Sri Sudewi,Muara Bulian",A,C,Batang Hari,Jambi,-1.890811000000000,102.997342000000000,rs
Rumkit Tk IV Dr. Bratanata Unang Jambi,"Jl. Raden Mattaher 33,Jambi",TNI AD,4,,Jambi,-1.591744000000000,103.618533000000000,rs
RSUD H. Hanafi/Muara Bungo,"Jl. Teuku Umar 88,Muaro Bungo",A,C,Bungo,Jambi,-1.509428000000000,101.960617000000000,rs
RS Budhi Graha,"Jl. Dr. Setia Budi 5,Jambi",A,D,,Jambi,-1.485183000000000,102.438058000000000,rs
RS Santa Theresia,"Jl. Dr. Sutomo No.19,Jambi",A,D,Jambi,Jambi,-1.485183000000000,102.438058000000000,rs
RS Asia Medika Jambi,"Jl. Soekarno - Hatta Palmerah,Jambi",A,,Jambi,Jambi,-1.485183000000000,102.438058000000000,rs
RSU KH. Daud Arif,"Jl. Syarif Hidayatullah,Kuala Tungkal",A,C,Tanjung Jabung Barat,Jambi,-1.132839000000000,103.062419000000000,rs
RSUD Sungai Bahar,Ds. Suka Makmur Kecamatan Sungai Bahar,A,D,jambi,Jambi,-1.858228000000000,103.550133000000000,rs
RS Mayang Medical Centre,"Jl. Ir.H. Juanda No.56 Simp III Sipin, Jambi",A,D,Jambi,Jambi,-1.630422000000000,103.550969000000000,rs
RS PTP VIII Kayu Aro,Kayu Aro Sei Penuh Kab.Kerinci,A,,Kerinci,Jambi,-1.912514000000000,101.305647000000000,rs
RSK Bedah Yayasan Bundo,"Jl. Pancasila 5, Sungai Penuh",K,,Kerinci,Jambi,-2.073025000000000,101.412375000000000,rs
RSUD Sultan Taha Saifudin,"Jl. Lintas Tebo-Bungo Km 4,Jambi",A,C,Tebo,Jambi,-1.484036000000000,102.276222000000000,rs
RSUD Kolonel Abundjani/Bangko,Lapangan Jambi Bajubang,A,C,Sarolangun Bangko,Jambi,-2.069014000000000,102.276275000000000,rs
RS Pertamina Bajubang,Lapangan Jambi Bajubang,A,,Sarolangun Bangko,Jambi,-1.587600000000000,103.618597000000000,rs
RSUD Prof.DR.H.M.Chatib Quzwain,"Jl. Lintas Sumatera Km.09 Desa Bukit,Sarolangun",A,C,Sarolangun Bangko,Jambi,-2.344406000000000,102.684717000000000,rs
RSUD Muaro Jambi,Jl. Lintas Timur,A,C,Muaro Jambi,Jambi,-1.703128000000000,103.821625000000000,rs
RSUD Nurdin Hamzah,"Jl. Keramas Muara,Sabak Barat",A,C,Tanjung Jabung Timur,Jambi,-1.136461000000000,104.007567000000000,rs
Rumkit Bhayangkara Jambi,"Jl. Raden Mathaher No.3,Jambi",A,4,Jambi,Jambi,-1.591744000000000,103.618533000000000,rs
RS Jiwa Jambi,"Jl. Dr. Purwadi Km.9,5,Jambi",B,B,Jambi,Jambi,-1.618597000000000,103.554150000000000,rs
RSUD H. Abdul Manap Kota Jambi,Jl. SK.Rd.Syahbuddin Kec.Kota Baru Jambi,A,D,Jambi,Jambi,-1.650011000000000,103.625472000000000,rs
RSU Raden Mattaher Jambi,"Jl. Letjen Suprapto 31,Jambi",A,B,,Jambi,-1.613925000000000,103.583714000000000,rs
Rumkit Tk II Dustira Cimahi,Jl. Rumah Sakit No.1 Cimahi,A,2,Bandung,Jawa Barat,-6.886111000000000,107.535567000000000,rs
RSUD Karawang,"Jl. Galuh Mas Raya No.1,Karawang",A,B,Karawang,Jawa Barat,-6.257053000000000,107.322856000000000,rs
RSU Santosa Bandung Internasional Hospital,"Jl. Kebon Jati No.38,Bandung",A,B,Kota Bandung,Jawa Barat,-6.918497000000000,107.598161000000000,rs
RS Bhakti Yudha,Jl. Raya Sawangan No. 2A Depok,A,C,Bogor,Jawa Barat,-6.397375000000000,106.806075000000000,rs
RS Mitra Keluarga Cibubur,"Jl. Alternatif Transyogi, Cibubur",A,C,Kota Bekasi,Jawa Barat,-6.383819000000000,106.933450000000000,rs
RS Puri Cinere,"Jl. Maribaya No.1 Puri Cinere,Depok",Swasta,B,Bogor,Jawa Barat,-6.321850000000000,106.782000000000000,rs
RSUD Kota Bandung/Ujung Berung,Jl. Rumah Sakit 22 Bandung,A,C,Kota Bandung,Jawa Barat,-6.915342000000000,107.698672000000000,rs
RS Harapan Depok,"Jl. Pemuda No.10,Depok Bogor",A,D,Bogor,Jawa Barat,-6.402731000000000,106.820000000000000,rs
RSU Meilia,"Jl. Alternatif Cibubur - Cilenungsi,Cimanggis, Depok",A,B,Bogor,Jawa Barat,-6.376261000000000,106.902000000000000,rs
RS St. Borromeus,Jl. Ir. H.Juanda No.100 Bandung,A,,Kota Bandung,Jawa Barat,-6.893981000000000,107.613000000000000,rs
RSIA Tedja,Jl. RE. Martadinata 97 Bandung,O,,Kota Bandung,Jawa Barat,-6.905753000000000,107.620006000000000,rs
RSUD Jampang Kulon,"Jl. Cibarusah No.1 Jampang Kulon,Kab.Sukabumi",A,D,Sukabumi,Jawa Barat,-6.919600000000000,106.927200000000000,rs
RSU Cianjur,Jl. Rumah Sakit No.1 Cianjur,A,B,Cianjur,Jawa Barat,-6.812192000000000,107.141036000000000,rs
RS Siloam Glenegles,Jl. MH Thamrin Kav.105 Bekasi,A,C,Bekasi,Jawa Barat,-6.331439000000000,107.135000000000000,rs
RS KCK Pindad,Jl. Jend Gatot Subroto Bandung,Umum,D,Kota Bandung,Jawa Barat,-6.925456000000000,107.631350000000000,rs
RSK Bedah Bina Sehat,Jl. Raya Dayeuh Kolot No.325 Bandung,K,D,Kota Bandung,Jawa Barat,-6.986089000000000,107.624000000000000,rs
RS Karya Husada,Jl. Jend. A.Yani No.89 Cikampek,A,C,Karawang,Jawa Barat,-6.401350000000000,107.444000000000000,rs
RS Mata Cicendo,Jl. Cicendo No.4 Bandung,D,A,Kota Bandung,Jawa Barat,-6.909900000000000,107.604000000000000,rs
RSIA &quot;Melinda Hospital&quot;,"Jl. Pajajaran No.46 Kel Pasirkaliki,Kota Bandung",O,,Kota Bandung,Jawa Barat,-6.906814000000000,107.603361000000000,rs
RSB Muhammadiyah Kodya Cirebon,Jl. Dr. W.Sudirohusodo Cirebon,Khusus Bersalin,D,Kota Cirebon,Jawa Barat,-6.716667000000000,108.566667000000000,rs
RSU Pandeglang,Jln.Raya Labuan KM 5 Cikoneng,A,C,Pandeglang,Banten,-7.317750000000000,108.281906000000000,rs
RSUD Gunung Jati,Jl. Kesambi No.56 Cirebon,Badan Layanan Daerah,B,Kota Cirebon,Jawa Barat,-6.731181000000000,108.555886000000000,rs
RSK Bedah Budi Asta,Jl. Kalitanjung No.51 Cirebon,Swata,D,Kota Cirebon,Jawa Barat,-6.747719000000000,108.535000000000000,rs
RS Mitra Keluarga Depok,"Jl. Margonda Raya, Jawa Barat",A,C,,Jawa Barat,-6.394406000000000,106.823867000000000,rs
RS Pelabuhan Cirebon,Jl. Sisingamangaraja No.45 Cirebon,Swasta,C,Kota Cirebon,Jawa Barat,-6.713447000000000,108.567300000000000,rs
RSB Putera Bahagia,Jl. Ciremai Raya Cirebon,RSU,C,Kota Cirebon,Jawa Barat,-6.716667000000000,108.566667000000000,rs
Rumkit Tk III Ciremai Cirebon,Jl. Kesambi 237 Cirebon,A,3,Kota Cirebon,Jawa Barat,-6.737986000000000,108.549700000000000,rs
RS Budi Luhur,Kebon Pelok Harjamukti Cirebon,Umum,D,Kota Cirebon,Jawa Barat,-6.763033000000000,108.531078000000000,rs
RSUD Tasikmalaya,"Jl. Rancamaya Singaparna, Tasikmalaya",A,D,,Jawa Barat,-7.332606000000000,108.225456000000000,rs
RS Advent Bandung,Jl. Cihampelas 161 Bandung,A,B,Kota Bandung,Jawa Barat,-6.892069000000000,107.604000000000000,rs
RSK Bedah Budi Kasih,Jl. Raya Majalengka-Kadipaten Km.7,K,,Majalengka,Jawa Barat,-6.765569000000000,108.167464000000000,rs
RS Bina Husada,Jl. Mayor Oking No.101 Km 01 Cibinong - Bogor,A,C,Bogor,Jawa Barat,-6.473133000000000,106.863339000000000,rs
RSU Bakhti Medicare,"Jl. Raya Siliwangi No.186B, Cicurug - Sukabumi",A,A,,Jawa Barat,-6.778083000000000,106.786481000000000,rs
RSU Ciawi,Jl. Raya Puncak 479 Ciawi Bogor,A,B,Bogor,Jawa Barat,-6.653889000000000,106.873819000000000,rs
RSUD Indramayu,Jl. Rumah Sakit No. 1 Indramayu,A,B,Indramayu,Jawa Barat,-6.392694000000000,108.287544000000000,rs
RS Islam Tasikmalaya,Jl. Rancamaya Blok B-2 Cikunten,A,,Tasikmalaya,Jawa Barat,-7.346100000000000,108.119947000000000,rs
RSUD Bayu Asih,Jl. Veteran No. 39 Purwakarta,A,C,Purwakarta,Jawa Barat,-6.525947000000000,107.447672000000000,rs
RSU Cibinong,Jl. KSR Dadi Kusmayadi No. 27 Bogor,A,B,Kab Bogor,Jawa Barat,-6.473292000000000,106.831211000000000,rs
RSUD Waled,"Jl. Kesehatan No. 4 Waled, Cirebon",A,B,Cirebon,Jawa Barat,-6.914228000000000,108.717822000000000,rs
RSUD Bekasi,Jl. Pramuka No. 55 Bekasi,A,B,KOTA BEKASI,Jawa Barat,-6.268111000000000,107.082497000000000,rs
RSU Mitra Keluarga Bekasi Barat,Jl. Raya A Yani Bekasi,A,,KOTA BEKASI,Jawa Barat,-6.240947000000000,106.992736000000000,rs
RSIA Permata Cibubur,"Jl. Alternatif Cibubur - Cilenungsi No. 6A, Kec. Jati Sampurna, Bekasi",O,,Bekasi,Jawa Barat,-6.375661000000000,106.911000000000000,rs
RS PMI Bogor,Jl. Raya Pajajaran No. 80 Bogor,A,,Kota Bogor,Jawa Barat,-6.573958000000000,106.827203000000000,rs
RS Azra,"Jl. Raya Pajajaran No.219, Bogor",A,,Kota Bogor,Jawa Barat,-6.579033000000000,106.807489000000000,rs
RS Kebonjati,Jl. Kebonjati 152 Bandung,A,C,Bandung,Jawa Barat,-6.916086000000000,107.596258000000000,rs
RS Bungsu,Jl. Veteran No. 6 Bandung,A,,Bandung,Jawa Barat,-6.918519000000000,107.613000000000000,rs
RS Permata Medical Center,Jl Raya Panyindangan Wetan,A,D,Indramayu,Jawa Barat,-6.392694000000000,108.287544000000000,rs
RSU Betha Medika,"Jl. Raya Cisaat No.595, Sukabumi",A,,Sukabumi,Jawa Barat,-6.905872000000000,106.871750000000000,rs
RS Al - Arif,"Jl. R.E. Martadinata No.158 B, Baregdeg - Ciamis",A,,Ciamis,Jawa Barat,-6.444683000000000,106.846250000000000,rs
RS Juanda Kuningan,"Jl. Ir. H. Juanda No. 107, Kuningan",A,,Kuningan,Jawa Barat,-6.973214000000000,108.491236000000000,rs
Rumkit Bhayangkara Indramayu,"Jl. Raya Pantura Km.73-75, Losarang Indramayu",A,4,Indramayu,Jawa Barat,-6.382319000000000,108.151636000000000,rs
RS Efarina Etaham,"Jl. Bungursari No.1, Purwakarta",A,B,Purwakarta,Jawa Barat,-6.488683000000000,107.477250000000000,rs
RS Dewi Sri,Jl. Arif Rahman Hakim Karawang,A,,Karawang,Jawa Barat,-6.304214000000000,107.297756000000000,rs
RSU Lamaran Medical Center,"Jl. Syech Quro No.14, Palumbonsari - Lamaran Karawang",A,,Karawang,Jawa Barat,-6.308367000000000,107.320936000000000,rs
RS Sentosa,"Jl. Palhlawan No. 60, Duren Jaya Bekasi",A,,KOTA BEKASI,Jawa Barat,-6.242769000000000,107.026000000000000,rs
RS Permata Bekasi,"Jl. Legenda Raya No.9 RT.001 Rw.011 Mustika Jaya, Bekasi",A,,KOTA BEKASI,Jawa Barat,-6.277694000000000,107.044203000000000,rs
RS Medirossa Cikarang,"Jl. Industri Tegal Gede No.09, Cikarang Selatan Bekasi",D,,Bekasi,Jawa Barat,-6.298819000000000,107.145000000000000,rs
RS Kartika Husada,"Jl. Raya Mangunjaya No.07 Kp.Rukem,Tambun - Bekasi",A,,Bekasi,Jawa Barat,-6.244592000000000,107.064625000000000,rs
RS Karya Medika II,Jl. Sultan Hasanuddin No.63 Kec. Tambun Selatan,A,,Bekasi,Jawa Barat,-6.264219000000000,107.068000000000000,rs
RSIA Melania,"Jl. Pahlawan No.91, Kota Bogor",O,,Bogor,Jawa Barat,-6.611417000000000,106.800692000000000,rs
RS Kartika Medical Center,"Jl. Jenderal Ahmad Yani No.18 A , Sukabumi",A,,Sukabumi,Jawa Barat,-6.922156000000000,106.927228000000000,rs
RSB Klinik Bahagia,"Jl. Pasundan No.93, Sukabumi",C,,Sukabumi,Jawa Barat,-6.924286000000000,106.925669000000000,rs
RSIA Karunia Bunda,"Jl. Raya Jatiwaringin No.133, Pd Gede Bekasi",O,-,Bekasi,Jawa Barat,-6.275850000000000,106.913000000000000,rs
RSIA Masmitra Jatimakmur,"Jl. Kelurahan Jati Makmur No.40, Pondok Gede Kota Bekasi",A,-,Bekasi,Jawa Barat,-6.285186000000000,106.926606000000000,rs
RSB Juwita,"Jl. M. Hasibuan No.78, Bekasi Timur",C,,Bekasi,Jawa Barat,-6.252042000000000,107.001981000000000,rs
RS Sentra Medika,Jl. Raya Bogor KM. Cisalak - Depok,A,-,Depok,Jawa Barat,-6.390831000000000,106.865000000000000,rs
RS Mitra Anugrah Lestari,"Jl. Cibaligo No.76, Cimahi",A,,Cimahi,Jawa Barat,-6.900622000000000,107.555842000000000,rs
RS Paru Dr. Goenawan Partowidigdo Cisarua,Jl. Raya Puncak Cisarua Bogor,F,A,Bogor,Jawa Barat,-6.687447000000000,106.939044000000000,rs
RS Tugu Ibu,Jl. Raya Bogor Km 29 Cimanggis - Depok,A,C,Bogor,Jawa Barat,-6.356561000000000,106.860000000000000,rs
RS Gunung Salak,Jl. Cibungbulang Leuwiliang,A,,Bogor,Jawa Barat,-6.572306000000000,106.665006000000000,rs
RSIA Hermina Depok,Jl. Raya Siliwngi No. 50 Pancoran Mas Depok,O,,Bogor,Jawa Barat,-6.399917000000000,106.825125000000000,rs
RSIA Citra Insani,Jl. Raya Parung Bogor No.242 Bogor,O,,Bogor,Jawa Barat,-6.484819000000000,106.735264000000000,rs
RSIA Tumbuh Kembang,Jl. Raya Bogor Km.31 No.23 Bogor,O,,Bogor,Jawa Barat,-6.371686000000000,106.861439000000000,rs
RSIA Mary Cileungsih Hijau,Jl. Raya Narogong Cileungsi Bogor,O,,Bogor,Jawa Barat,-6.399747000000000,106.969478000000000,rs
RSB Tunas Jaya Cibinong,Jl. Kelurahan Pabuaran No.24 Cibinong,C,,Bogor,Jawa Barat,-6.448192000000000,106.851928000000000,rs
RSK Bedah Plastik Aibee Aesthetic Center,Jl. Pasir Angin Gadog Ciawi Bogor,K,,Bogor,Jawa Barat,-6.649044000000000,106.865175000000000,rs
RSU Bunda Margonda,Jl. Margonda Raya KM 3 RT.02/03,A,,Bogor,Jawa Barat,-6.380842000000000,106.830556000000000,rs
RSU MH. Thamrin,"Jl. Raya Narogong Km.16, Limus Nunggal Cileungsi,Bogor",A,,Bogor,Jawa Barat,-6.432275000000000,106.949039000000000,rs
RS Islam Bogor,"Jl. Perdana Bogor No.22,Kedung Badak - Bogor",A,,Bogor,Jawa Barat,-6.558344000000000,106.791867000000000,rs
RSU Sekarwangi,Jl. Siliwangi Cibadak Sukabumi,A,C,Sukabumi,Jawa Barat,-6.894764000000000,106.786000000000000,rs
RS Islam Sukabumi,Jl. Cibolang Cisaat Sukabumi,A,,Sukabumi,Jawa Barat,-6.915528000000000,106.931872000000000,rs
RSU Pelabuhan Ratu,Jl. Rumah Sakit Pelabuhan Ratu,A,C,Sukabumi,Jawa Barat,-6.992372000000000,106.557292000000000,rs
RSU &quot;Hermina&quot;,"Jl. Jl. R.A. Kosasih Cimahpar Sukaraja,Kab. Sukabumi",A,,Sukabumi,Jawa Barat,-6.919403000000000,106.954544000000000,rs
RSB Al-Afiah,Jl. Siti Jenab 49 Cianjur,C,,Cianjur,Jawa Barat,-6.821583000000000,107.138964000000000,rs
RSUD Cimacan,"Jl. Raya Cimacan No.17, Cianjur",A,D,Cianjur,Jawa Barat,-6.720447000000000,107.031808000000000,rs
RSU Majalaya,Jl. Cipaku No.87 Paseh Sukabumi,A,C,Bandung,Jawa Barat,-7.048658000000000,107.772278000000000,rs
RSU Cibabat,Jl. Jend. H. Amir Machmud No. 140,A,B,Bandung,Jawa Barat,-6.879650000000000,107.550836000000000,rs
RS Jiwa Cimahi,Jl. Kolonel Masturi Cimahi,B,B,Bandung,Jawa Barat,-6.810542000000000,107.563956000000000,rs
RS Max I Salhutera,Kec Ciwidey Kab Bandung,A,,Bandung,Jawa Barat,-6.914675000000000,107.670764000000000,rs
RS Mitra Kasih,Jl. Raya Cibabat No.341 Cimahi,A,,Bandung,Jawa Barat,-6.884378000000000,107.552908000000000,rs
RS Islam Al Ihsan,Jl. Bale Endah Kab Bandung,A,B,Bandung,Jawa Barat,-7.008100000000000,107.624000000000000,rs
RSUD Soreang,Jl. Alun-Alun Utara Soreang,A,C,Bandung,Jawa Barat,-7.026042000000000,107.517144000000000,rs
RSUD Dr. Slamet,Jl. Rumah Sakit No.10 Garut,A,B,Garut,Jawa Barat,-7.219706000000000,107.897131000000000,rs
Rumkit Tk IV Guntur Garut,Jl. Bratayuda 101 Garut,A,4,Garut,Jawa Barat,-7.222578000000000,107.911128000000000,rs
RSU Tasikmalaya,Jl. Rumah Sakit 33 Tasikmalaya,A,B,Tasikmalaya,Jawa Barat,-7.332544000000000,108.224933000000000,rs
RSB Pamela,Jl. Tentara Pelajar Tasikmalaya,C,,Tasikmalaya,Jawa Barat,-7.330981000000000,108.222583000000000,rs
RS Jasa Kartini,Jl. Sarianingrat 2 Tasikmalaya,A,,Tasikmalaya,Jawa Barat,-7.326289000000000,108.222461000000000,rs
RS Prasetya Bunda,"Jl. Ir.H. Juanda No.1,Tasikmalaya",A,,Kota Tasikmalaya,Jawa Barat,-7.305178000000000,108.204906000000000,rs
RSUD Ciamis,Jl. Rumah Sakit No.76 Ciamis,A,C,Ciamis,Jawa Barat,-7.329803000000000,108.359325000000000,rs
RSUD Banjar,Jl. Rumah Sakit No. 5 Banjar,A,B,Ciamis,Jawa Barat,-7.369864000000000,108.572550000000000,rs
RS Nirmala,"Jl. Raya Ciamis - Kawali KM.5,Petirhilir",A,,Ciamis,Jawa Barat,-7.305894000000000,108.359936000000000,rs
RS Permata Bunda,Jl. Mr. Iwa Kusumasomantri No.1 Ciamis,A,,Ciamis,Jawa Barat,-7.331278000000000,108.362344000000000,rs
RSUD Kuningan,Jl. Sudirman No. 68 Kuningan,A,B,Kuningan,Jawa Barat,-6.982614000000000,108.487425000000000,rs
RS Wijaya Kusumah,Jl. RE Martadinata 172 Kuningan,A,C,Kuningan,Jawa Barat,-6.970511000000000,108.506492000000000,rs
RS Sekar Kamulyan,"Jl. Raya Cigugur Kuningan,Jakbar",A,,Kuningan,Jawa Barat,-6.970139000000000,108.456033000000000,rs
RS Pertamina Klayan,Jl. Raya Klayan Cirebon,A,,Cirebon,Jawa Barat,-6.685775000000000,108.548833000000000,rs
RSTP Sidawangi,Jl. Sumber-Mandirancan Cirebon,F,C,Cirebon,Jawa Barat,-6.750111000000000,108.524942000000000,rs
RSUD Arjawinangun,Jl. Pahlawan No. 38 Arjawiangun,A,C,Cirebon,Jawa Barat,-6.652844000000000,108.411908000000000,rs
RSK Bedah Mitra Plumbon,Jl. Raya Plumbon Km.I,A,,Cirebon,Jawa Barat,-6.701706000000000,108.476617000000000,rs
RSUD Majalengka,Jl. Kesehatan No.82 Majalengka,A,C,Majalengka,Jawa Barat,-6.833375000000000,108.233258000000000,rs
RSUD Cideres,Jl. Raya Cideres 180 Majalengka,A,C,Majalengka,Jawa Barat,-6.757503000000000,108.196117000000000,rs
RSUD Sumedang,Jl. Palasari No. 80 Sumedang,A,B,Majalengka,Jawa Barat,-6.858028000000000,107.921072000000000,rs
RS Pakuwon,Jl. Dewi Sartika No. 17 Sumedang,A,,Majalengka,Jawa Barat,-6.857083000000000,107.923756000000000,rs
RS Islam Zam Zam,Jl. Letnan Joni Jatibarang,A,,Indramayu,Jawa Barat,-6.482019000000000,108.307031000000000,rs
RSUD Pantura M.A.Sentot Patrol,"Jl. Raya Patrol Km.50,Indramayu",A,D,Indramayu,Jawa Barat,-6.829183000000000,107.702533000000000,rs
RSUD Subang,Jl. Palasari No. 80 Sumedang,A,B,Subang,Jawa Barat,-6.814481000000000,107.949183000000000,rs
RS PTP VIII Subang,Jl. Otista No.1 Subang,A,,Subang,Jawa Barat,-6.568036000000000,107.762481000000000,rs
RS Lanu Kalijati,Lanud Kalijati Subang,A,4,Subang,Jawa Barat,-6.529267000000000,107.694408000000000,rs
RS Dit Lis PO Jatiluhur,Jatiluhur Kab Purwakarta,A,,Purwakarta,Jawa Barat,-6.509758000000000,107.403375000000000,rs
RSU Bayukarta,Jl. Kertabumi No.44 Karawang,A,,Karawang,Jawa Barat,-6.314722000000000,107.317236000000000,rs
RS Islam Karawang,"Jl. Pangkal Perjuangan KM.2,Karawang",A,,Karawang,Jawa Barat,-6.281950000000000,107.283497000000000,rs
RS Saraswati,"Jl. Jend Ahmad Yani No.27,Cikampek,Kab.Karawang",A,,Karawang,Jawa Barat,-6.354103000000000,107.459633000000000,rs
RS Delima Asih Sisma Medika,"Jl. Wirasaba No.54,Johar-Karawang",A,,Karawang,Jawa Barat,-6.315200000000000,107.316000000000000,rs
RSB Dr. Djoko Pramono,"Jl. Panatayuda I No.35, Karawang",C,,Karawang,Jawa Barat,-6.306842000000000,107.305600000000000,rs
RSIA Citra Sari Husada,"Jl. Raya Kosambi-Telaga Sari Km.3 Klari,Karawang",O,,Karawang,Jawa Barat,-6.349928000000000,107.377497000000000,rs
RS AQMA,"Jl. Raya Ciselang Cikampek Utara,Kab.Karawang",A,,Karawang,Jawa Barat,-6.374214000000000,107.458006000000000,rs
RS C i t o,Jl. Arteri Tol Karawang Barat Teluk jambe Karawang,A,,Karawang,Jawa Barat,-6.304144000000000,107.277994000000000,rs
RSU Mekar Sari Bekasi,Jl. Mekar Sari No. 1 Bekasi,A,,KOTA BEKASI,Jawa Barat,-6.232814000000000,107.010725000000000,rs
RS Budi Lestari,Jl. KH. Noer Ali No. 2,A,,KOTA BEKASI,Jawa Barat,-6.247956000000000,106.981325000000000,rs
RS Jati Rahayu,"Jl. Raya Hankam No. 17 Pondok Gede, Kota Bekasi",A,,KOTA BEKASI,Jawa Barat,-6.296233000000000,106.921158000000000,rs
RS Bhakti Husada,Jl. By Pass Cikarang Bekasi,A,,KOTA BEKASI,Jawa Barat,-6.266269000000000,107.141311000000000,rs
RSIA Seto Hasbadi,Jl. Raya Seroja 19 Bekasi Utara,O,,KOTA BEKASI,Jawa Barat,-6.202011000000000,106.988722000000000,rs
RS Karya Medika,Jl. Raya Cibitung Bekasi,A,,KOTA BEKASI,Jawa Barat,-6.264219000000000,107.068000000000000,rs
RSIA Hermina Bekasi,Jl. Kemakmuran No.39 Margataya Bekasi,O,,KOTA BEKASI,Jawa Barat,-6.241489000000000,106.994558000000000,rs
RS Annisa,Jl. Cikarang Baru No.31 Bekasi,A,,KOTA BEKASI,Jawa Barat,-6.273236000000000,107.173831000000000,rs
RS Bhakti Kartini,Jl. R.A. Kartini No.11 Bekasi,A,,KOTA BEKASI,Jawa Barat,-6.247894000000000,107.001556000000000,rs
RS Medika,Jl. Raya Industri Pasirgombong Cikarang,A,C,KOTA BEKASI,Jawa Barat,-6.259333000000000,107.171975000000000,rs
RS Rawa Lumbu,Jl. Dasa Darma 20-23 Bekasi,A,,KOTA BEKASI,Jawa Barat,-6.280597000000000,106.998714000000000,rs
RS Hosana Medica,"Jl. Ruko Thamrin Lippo RT.08/04 Blok C3/3A,D2,Cikarang",A,,KOTA BEKASI,Jawa Barat,-6.328886000000000,107.128869000000000,rs
RSIA Bella,"Jl. Ir.H.Juanda No.141,Bekasi",O,,KOTA BEKASI,Jawa Barat,-6.246861000000000,107.011000000000000,rs
RS Graha Juanda,"Jl. IR.H.Juanda No.326,Bekasi Timur",A,,Bekasi,Jawa Barat,-6.252100000000000,107.030000000000000,rs
RS Ananda,"Jl. Sultan Agung No.173,Kec.Medan Satria - Bekasi",A,B,Bekasi,Jawa Barat,-6.210731000000000,106.977000000000000,rs
RSIA Anna,"Jl. Raya Pekayon Jaya No.36,Kel.Jaka Setia,Bekasi",O,,Bekasi,Jawa Barat,-6.274919000000000,106.977000000000000,rs
RS Medika Galaxi,"Jl. Gardenia Raya Selatan BA No.11Rt.05 Rw.17 Kel.Jaka Setia,Bekasi Selatan",A,,Bekasi,Jawa Barat,-6.268389000000000,106.972000000000000,rs
RSUD Kab.Bekasi,"Jl. Teuku Umar Cibitung,Bekasi",A,C,Bekasi,Jawa Barat,-6.266789000000000,107.082000000000000,rs
RS Citra Harapan,Jl.Raya Harapan Indah Blok 3-5 Kota Bekasi,A,C,Bekasi,Jawa Barat,-6.185328000000000,106.977367000000000,rs
RSIA Jati Sampurna,"Jl. Studio ANTV Rt.03/07 Kel.Jati Raden,Bekasi",O,,Bekasi,Jawa Barat,-6.375661000000000,106.911000000000000,rs
RS St Elisabeth,"Jl. Raya Narogong 202 KM.5,Kemang Pratama,Bekasi",A,,Bekasi,Jawa Barat,-6.277369000000000,106.991000000000000,rs
RS Islam Dr.Subki Abdulkadir,"Jl. R.A. Kartini No.66,Bekasi",A,C,Bekasi,Jawa Barat,-6.249814000000000,106.999928000000000,rs
RS Hosana Medica Bekasi,"Jl. Pramuka No.12 Rt.004/Rw002 Kel.Sepanjang Jaya Kec.Rawalumbu,Bekasi",A,,Bekasi,Jawa Barat,-6.269564000000000,106.998917000000000,rs
RS Hermina Grand Wisata,Jl. Festival Boulevard Blok J A1 No.1 Lambang Sari Tambun Selatan Bekasi,A,,Bekasi,Jawa Barat,-6.276039000000000,107.043792000000000,rs
Rumkit Tk IV Salak Bogor,Jl. Jend Sudirman No. 8 Bogor,A,4,Kota Bogor,Jawa Barat,-6.587328000000000,106.796911000000000,rs
RS Lanud Atang Sanjaya,"Jl. Sarijo No. 1, Semplak",A,3,Kota Bogor,Jawa Barat,-6.544467000000000,106.762339000000000,rs
RSJ Dr. H. Marzoeki Mahdi,Jl. Dr. Semeru No.114 Bogor,B,A,Kota Bogor,Jawa Barat,-6.589422000000000,106.793078000000000,rs
RS Karya Bhakti,Jl. Dr. Semeru 120 Bogor,A,,Kota Bogor,Jawa Barat,-6.580342000000000,106.777958000000000,rs
RSIA Hermina Bogor,"Jl. Ring Road Bogor Utara , Bogor",O,,Kota Bogor,Jawa Barat,-6.556142000000000,106.777494000000000,rs
RS Bogor Medical Center,"Jl. Pajajaran Indah V No.97, Bogor",A,,Kota Bogor,Jawa Barat,-6.607697000000000,106.810800000000000,rs
RSIA Trimitra,"Jl. Raya Jakarta Bogor Km.43, Cibonong",O,,Kota Bogor,Jawa Barat,-6.474383000000000,106.847319000000000,rs
RSUD R Syamsudin SH,Jl. Rumah Sakit No. 1 Sukabumi,A,B,Kota Sukabumi,Jawa Barat,-6.914967000000000,106.934547000000000,rs
RS Secapa Polri,Jl. Bhayangkara No. 166 Sukabumi,A,4,Kota Sukabumi,Jawa Barat,-6.911142000000000,106.924819000000000,rs
RSIA Ridogalih,Jl. Gudang No. 24 Sukabumi,O,,Kota Sukabumi,Jawa Barat,-6.921878000000000,106.934264000000000,rs
RS Assyifa Sukabumi,Jl. Jend Sudirman 27 Sukabumi,A,,Kota Sukabumi,Jawa Barat,-6.918994000000000,106.916961000000000,rs
RSU Dr Hasan Sadikin,Jl. Pasteur 38 Bandung,A,A,Kota Bandung,Jawa Barat,-6.899186000000000,107.598269000000000,rs
RS Sartika Asih,Jl. Mooh. Toha No. 369 Bandung,A,4,Kota Bandung,Jawa Barat,-6.956344000000000,107.612114000000000,rs
RS Pusat AU Dr M Salamun,Jl. Ciumbuleiut 203 Bandung,A,2,Kota Bandung,Jawa Barat,-6.864889000000000,107.605000000000000,rs
RS Immanuel Bandung,Jl. Kopo 161 Bandung,A,,Kota Bandung,Jawa Barat,-6.935450000000000,107.596000000000000,rs
RS St Yusup Bandung,Jl. Cikutra No. 7 Bandung,A,,Kota Bandung,Jawa Barat,-6.906950000000000,107.643825000000000,rs
RSU Muhammadiyah Bandung,Jl. K.H. Ahmad Dahlan 53 Bandung,A,,Kota Bandung,Jawa Barat,-6.933550000000000,107.623000000000000,rs
RSU Rajawali,Jl. Rajawali No.38 Bandung,A,,Kota Bandung,Jawa Barat,-6.912550000000000,107.573000000000000,rs
RS PTP VIII Yung Huhn,Jl. Ir. H. Juanda No. 107 Bandung,A,,Kota Bandung,Jawa Barat,-6.887056000000000,107.615717000000000,rs
RS Lanu Sulaiman,Jl. Terusan Kopo Margahayu Bdg,A,4,Kota Bandung,Jawa Barat,-6.944933000000000,107.660489000000000,rs
RSB Limijati,"Jl. LLRE Martadinata No.39,Bandung",C,,Kota Bandung,Jawa Barat,-6.906544000000000,107.613814000000000,rs
RSU Tk IV Sariningsih Bandung,Jl. LL RE Martadinata 9 Bandung,A,4,Kota Bandung,Jawa Barat,-6.907231000000000,107.613867000000000,rs
RS Jiwa Bandung,Jl. LLRE Martadinata No.11 Bandung,B,A,Kota Bandung,Jawa Barat,-6.883944000000000,107.594247000000000,rs
RSK Ginjal NY RA Habibie,Jl. Tubagus Ismail 46 Bandung,R,,Kota Bandung,Jawa Barat,-6.885364000000000,107.619628000000000,rs
RSGM FKG Univ.Pajajaran,Jl. Sekeloa No. 1 Bandung,T,,Kota Bandung,Jawa Barat,-6.888811000000000,107.618581000000000,rs
RSB Emma Poeradiredja,"Jl. Sumatera No.46 - 48,Bandung",C,,Kota Bandung,Jawa Barat,-6.912986000000000,107.613875000000000,rs
RSU A M C,"Jl. Raya Cileunyi Rancaekek,Bandung",A,,Kota Bandung,Jawa Barat,-6.953358000000000,107.766783000000000,rs
RSIA Hermina Pasteur,"Jl. DR. Djundjunan No.107, Bandung",O,,Kota Bandung,Jawa Barat,-6.895614000000000,107.588508000000000,rs
RSB Panti Abdi Dharma,"Jl. Pulasaren No.7,Cirebon",C,,Kota Cirebon,Jawa Barat,-6.723811000000000,108.566881000000000,rs
RS Islam Siti Fatimah,Jl. Brigjen Dharsono. 26 Cirebon,A,,Kota Cirebon,Jawa Barat,-6.716167000000000,108.568142000000000,rs
RSIA Sumber Kasih,Jl. Siliwangi No.135 Cirebon,O,C,Kota Cirebon,Jawa Barat,-6.709039000000000,108.559592000000000,rs
RS Tangkil,Jl. Sunan Gunung Jati Cirebon,A,,Kota Cirebon,Jawa Barat,-6.691633000000000,108.550686000000000,rs
RSUD Kota Depok,"Jl. Raya Muchtar No.99,Sawangan Depok",A,C,Depok,Jawa Barat,-6.177869000000000,106.796756000000000,rs
RS Simpangan Depok,"Jl. Raya Bogor Km.36,Sukamaju Sukmajaya Depok",A,,Depok,Jawa Barat,-6.408589000000000,106.861000000000000,rs
RSU Hasanah Graha Afiah,Jl. Raden Saleh No.42 (Studio Alam TVRI) Depok,A,,Depok,Jawa Barat,-6.402353000000000,106.838161000000000,rs
RSUD Leuwiliang,Jl. Raya Cibeber - Leuwiliang Bogor,A,C,,Jawa Barat,-6.570575000000000,106.625178000000000,rs
RS Dr. R. Soeprapto Cepu,"Jl. Ronggolawe No. 50,Cepu",A,C,Blora,Jawa Tengah,-7.148539000000000,111.594775000000000,rs
RSU Dr. H.Soewondo Kendal,"Jl. Laut No. 21,Kendal",RS Pemkab Kendal,B,Kendal,Jawa Tengah,-6.920664000000000,110.196672000000000,rs
RSUD Sragen,"Jl. Raya Sukowati No.534,Sragen",A,B,Sragen,Jawa Tengah,-7.418544000000000,111.039189000000000,rs
RS Dr. R. Soetijono Blora,"Jl. Dr Sutomo No. 42,Blora",A,C,Blora,Jawa Tengah,-6.971139000000000,111.421167000000000,rs
RSU JATI HUSADA,"Jl. Raya Solo - Tawangmangu KM 10,3 Jati, Jateng",A,D,Karanganyar,Jawa Tengah,-7.573961000000000,110.916539000000000,rs
RSUD Majenang,Jl. Dr. Soetomo No. 54 Majenang,A,C,Cilacap,Jawa Tengah,-7.729342000000000,109.021356000000000,rs
RSU Banjarnegara,Jl. Jen Sudirman No.42 Banjarnegara,Umum,C,Banjarnegara,Jawa Tengah,-7.402586000000000,109.615453000000000,rs
RS Islam Wonosobo,"Jl. Mayjend Bambang S Mendolo,Wonosobo",A,C,Wonosobo,Jawa Tengah,-7.368678000000000,109.927419000000000,rs
RS Dr.Oen Solo Baru,Komplek Perumahan Solo Baru Kec.Grogol Sukoharjo,A,C,Sukoharjo,Jawa Tengah,-7.648350000000000,110.855292000000000,rs
RS Mardi Lestari Sragen,"Jl. Rokan No.8,Sragen",A,,Sragen,Jawa Tengah,-7.428089000000000,111.017633000000000,rs
RSUD RAA Soewondo,"Jl. Dr Soesanto 114,Pati",A,B,Pati,Jawa Tengah,-6.738436000000000,111.043364000000000,rs
RSI PKU Muhammadiyah Pekajangan,"Jl. Raya Ambokembang No.42-44,Pekalongan",A,C,Pekalongan,Jawa Tengah,-7.042467000000000,109.624228000000000,rs
RSU Dr. M Ashasi Pemalang,"Jl. Gatot Subroto No.41,Pemalang",A,C,Pemalang,Jawa Tengah,-6.910964000000000,109.382814000000000,rs
RS Islam PKU Muhammadiyah,Jl. Singkil Km.5 Kab.Tegal,A,C,Tegal,Jawa Tengah,-6.866667000000000,109.133333000000000,rs
RS Brayat Minulya,Jl. Dr. Setiabudi Surakarta,A,,Kota Surakarta,Jawa Tengah,-7.552711000000000,110.814000000000000,rs
RSUD Banyudono,Jl. Raya Solo - Boyolali KM.10 Kuwiran Kec.Banyudono Kab.Boyolali,RSU,D,Boyolali,Jawa Tengah,-7.431564000000000,110.688408000000000,rs
RSU Dr. Kariadi,"Jl. Dr. Soetomo No.16,Semarang",A,A,Kota Semarang,Jawa Tengah,-6.994611000000000,110.407000000000000,rs
RSU Dr. R.Soedjati Soemodiardjo,"Jl. D.I Panjaitan 36,Purwodadi",A,B,Grobogan,Jawa Tengah,-7.083203000000000,110.914797000000000,rs
RSUD Pekalongan,"Jl. Veteran 31,Pekalongan",RS Pemkab Pekalongan,B,Pekalongan,Jawa Tengah,-6.882886000000000,109.669997000000000,rs
RS Ibu dan Anak &#39; Aisyiyah &#39;,"Jl. Mayjend Sutoyo 113, Purworejo",O,0,Purworejo,Jawa Tengah,-7.712914000000000,110.016597000000000,rs
RSUD Gemolong Kabupaten Sragen,jl.DR Soetomo No 792,A,D,Sragen,Jawa Tengah,-7.397033000000000,110.826653000000000,rs
RSU Cilacap,Jl. Gatot Subroto 28 Cilacap,A,B,Cilacap,Jawa Tengah,-7.717258000000000,109.015144000000000,rs
RSUD Pandan Arang Boyolali,"Jl. Kantil No. 14, Boyolali",A,C,Boyolali,Jawa Tengah,-7.532997000000000,110.590514000000000,rs
RSUP Dr.Suraji Tirtonegoro Klaten,"Jl. Dr. Soeraji T No.1,Klaten",A,B,Klaten,Jawa Tengah,-7.715178000000000,110.588147000000000,rs
RSUD Dr. Soediran MS Wonogiri,"Jl. Jend A Yani No. 40,Wonogiri",A,B,Wonogiri,Jawa Tengah,-7.813744000000000,110.923897000000000,rs
RS Budi Rahayu,"Jl. Barito No. 5,Pekalongan",A,Madya,Kota Pekalongan,Jawa Tengah,-6.882886000000000,109.669997000000000,rs
RS Santa Maria Pemalang,"Jl. Pemuda No. 24,Pemalang",A,C,Pemalang,Jawa Tengah,-6.872342000000000,109.360211000000000,rs
RSIA Bahagia,"Jl. A Rachman Saleh No.71,Semarang",O,,Kota Semarang,Jawa Tengah,-6.997872000000000,110.379783000000000,rs
RS Islam Fatimah,Jl. Ir.H.Juanda No.20 Cilacap,A,C,Cilacap,Jawa Tengah,-7.692150000000000,109.024000000000000,rs
RSUD Djojonegoro Temanggung,"Jl. Dr. Sutomo No.67,Temanggung",A,C,Temanggung,Jawa Tengah,-7.315014000000000,110.178617000000000,rs
RS Sultan Agung Semarang,"Jl. Raya Kaligawe Km.4,Semarang",A,B,Kota Semarang,Jawa Tengah,-6.955619000000000,110.461000000000000,rs
RSU Purwogondo,"Jl. Puring Km.8, Kuwarasan Kebumen",Umum,,Kebumen,Jawa Tengah,-7.671208000000000,109.660708000000000,rs
RS Khusus Bedah Karima Utama,"Jl. Amarta 8-10 Kartasura Ds.Ngabean Kartasura, Sukoharjo",Bedah,,Sukoharjo,Jawa Tengah,-7.400447000000000,109.793242000000000,rs
RSIA &quot;Dian Pertiwi&quot;,"Jl. Lawu Papahan, Tasikmadu Karanganyar",Ibu Anak,,Karanganyar,Jawa Tengah,-7.605706000000000,110.975025000000000,rs
RS Keluarga Sehat,"Jl. P. Sudirman No.9, Mrgorejo - Pati",A,,Jateng,Jawa Tengah,-6.751461000000000,111.032922000000000,rs
RSU Dr. H.RM Soeselo W,"Jl. Dr. Sutomo No.63,Slawi",A,B,Jateng,Jawa Tengah,-6.983511000000000,109.140497000000000,rs
RS Permata Medika,"Jl. Moch Ichsan No.93 - 97, Ngaliyah Semarang",A,C,Jateng,Jawa Tengah,-6.966667000000000,110.416667000000000,rs
RS Pertamina Cilacap,"Jl. Dr.Setiabudi Tegal Katilayu, Cilacap",A,,Cilacap,Jawa Tengah,-7.702478000000000,109.041519000000000,rs
RSU Emmanuel,Jl. Raya Klampok Banjarnegara,A,,Banjarnegara,Jawa Tengah,-7.379436000000000,109.616317000000000,rs
RS PKU Muhammadiyah Sruweng,Jl. Raya Sruweng No.5 Sruweng Kebumen,A,,Kebumen,Jawa Tengah,-7.663006000000000,109.609369000000000,rs
RSU Wonosobo,"Jl. Rumah Sakit No.1,Wonosobo",A,C,Wonosobo,Jawa Tengah,-7.351400000000000,109.905483000000000,rs
RSU Marga Husada,"Jl. Letjen S.Parman No. 4 Selogiri,Wonogiri",A,D,Wonogiri,Jawa Tengah,-7.789589000000000,110.897683000000000,rs
RSO Prof Dr. R.Soeharso,Jl. A Yani Pabelan Surakarta,I,,Surakarta,Jawa Tengah,-7.557550000000000,110.774000000000000,rs
RSU Triharsi,"Jl. Monginsidi No.82,Surakarta",A,,Surakarta,Jawa Tengah,-7.557411000000000,110.826000000000000,rs
RS Puri Asih,"Jl. Sudirman No.169,Salatiga",A,D,Salatiga,Jawa Tengah,-7.338542000000000,110.507858000000000,rs
RS Akabri Pol Semarang,"Jl. Majapahit No.140,Semarang",A,4,Kota Semarang,Jawa Tengah,-7.009611000000000,110.467603000000000,rs
RSB Bunda Semarang,"Jl. Brigjen Katamso No.8,Semarang",C,,Kota Semarang,Jawa Tengah,-6.995017000000000,110.433419000000000,rs
RS Islam Harapan Anda,"Jl. Ababil No.42,Tegal",A,C,Kota Tegal,Jawa Tengah,-6.877181000000000,109.131000000000000,rs
RSK Bedah Orthopedi,JL Suparjo Rustam No. 99 Sokaraja Kab. Banyumas,I,,Banyumas,Jawa Tengah,-7.454411000000000,109.284058000000000,rs
RSIA Amanah,Jl Raya Kebokura No.37 Kec Sumpiuh Kab Banyumas,O,C,Banyumas,Jawa Tengah,-7.613278000000000,109.359686000000000,rs
RSIA Bunda Arif,Jl. Dr.Gumbreg No.927A Mersi Purwokerto Kab.Banyumas,O,,Banyumas,Jawa Tengah,-7.528394000000000,109.294533000000000,rs
RSK Bedah Jatiwinangun,"Jl. Jatiwinangun No.54, Purwokerto",I,,Purwokerto,Jawa Tengah,-7.416978000000000,109.244569000000000,rs
RS Jiwa dan Narkoba &quot; H.Mustajab&quot;,"Jl. Raya Bungkanel - Karanganyar,Purbalingga",B,-,Purbalingga,Jawa Tengah,-7.308022000000000,109.422997000000000,rs
RS Islam Banjarnegara,Jl. Raya Bawang Banjarnegara,A,,Banjarnegara,Jawa Tengah,-7.401417000000000,109.616108000000000,rs
RSB Annisa,Jl. Gatot Subroto 31 A Cilacap,C,,Cilacap,Jawa Tengah,-7.716847000000000,109.014717000000000,rs
RSAB Aprilia,Jl. Gatot Subroto 95 Cilacap,O,,Cilacap,Jawa Tengah,-7.708397000000000,109.019283000000000,rs
RSUD Banyumas,Jl. Rumah Sakit No.1 Banyumas,A,B,Banyumas,Jawa Tengah,-7.530239000000000,109.292000000000000,rs
RSUD Prof Dr. M Soekarjo,Jl. Dr Gumbreg No. 1 Purwokerto,A,B,Banyumas,Jawa Tengah,-7.431653000000000,109.247444000000000,rs
RS Santa Elizabeth,Jl. Gatot Subroto 44 Purwokerto,A,,Banyumas,Jawa Tengah,-7.525458000000000,109.293714000000000,rs
RS Islam Purwokerto,Jl. H Masyhusri Purwokerto,A,C,Banyumas,Jawa Tengah,-6.877161000000000,109.131000000000000,rs
RSIA Hidayah Purwokerto,Jl. Supriyadi No. 22 Purwokerto,O,D,Banyumas,Jawa Tengah,-7.426667000000000,109.258056000000000,rs
RSU Bunda,Jl. Pramuka No. 249 Purwokerto,A,,Banyumas,Jawa Tengah,-7.528572000000000,109.294922000000000,rs
RSIA Ananda,Jl. Pemuda No. 30 Purwokerto,O,,Banyumas,Jawa Tengah,-7.417161000000000,109.221128000000000,rs
RSIA Amelia,Jl. Banyumas Klampok 1 Banyumas,O,,Banyumas,Jawa Tengah,-7.536742000000000,109.294081000000000,rs
RS Sinar Kasih,Jl. Martadireja II Purwokerto,A,,Banyumas,Jawa Tengah,-7.428519000000000,109.255164000000000,rs
RSUD Ajibarang,"Jl. Raya Pancasan No.1,Ajibarang Banyumas",A,D,Banyumas,Jawa Tengah,-7.403339000000000,109.095569000000000,rs
RSU Wishnu Husada,"Jl. Raya Notog Mt.200,Patikraja - Banyumas",A,,Banyumas,Jawa Tengah,-7.493419000000000,109.216183000000000,rs
RSK Bedah Wiradadi Husada,"Jl. Menteri Supeno No. 25,Sokaraja-Banyumas",A,D,Banyumas,Jawa Tengah,-7.415625000000000,109.245586000000000,rs
RSK Bedah Siaga Medika Banyumas,Jl. Pramuka No.55 Banyumas,K,,Banyumas,Jawa Tengah,-7.524589000000000,109.293197000000000,rs
RSUD Purbalinnga,Jl. Tentara Pelajar Purbalingga,A,C,Purbalingga,Jawa Tengah,-7.384631000000000,109.362000000000000,rs
RS Nirmala,"Jl. Letnan Yusuf Babakan, Kalimanah Purbalingga",A,C,Purbalingga,Jawa Tengah,-7.387144000000000,109.342717000000000,rs
RSU Harapan Ibu,"Jl. May.Jend.Soengkono KM.1,Purbalingga",A,,Purbalingga,Jawa Tengah,-7.390356000000000,109.361328000000000,rs
RSUD Kebumen,Jl. Rumah Sakit No.13 Kebumen,A,C,Kebumen,Jawa Tengah,-7.695256000000000,109.662672000000000,rs
RS Palang Biro Gombong,Jl. Kartini 37 Gombong Kebumen,A,C,Kebumen,Jawa Tengah,-7.606314000000000,109.516075000000000,rs
RSU PKU Muhamadiyah Gombong,Jl. Yos Sudarso 461 Gombong Kebumen,A,C,Kebumen,Jawa Tengah,-7.608847000000000,109.502256000000000,rs
RSIA Dewi Queen,"Jl. Kutoarjo No.60,Kebumen",O,,Kebumen,Jawa Tengah,-7.688392000000000,109.676025000000000,rs
RSK Anak Wijayakusuma,"Jl. Gelatik No.1,Kebumen",P,,Kebumen,Jawa Tengah,-7.671208000000000,109.660708000000000,rs
RS Purbowangi,Jl. Yos Sudarso Barat Gombong,A,,Kebumen,Jawa Tengah,-7.609989000000000,109.486000000000000,rs
RSUD Saras Husada Purworejo,Jl. Jen Sudirman No.60 Purworejo,A,B,Purworejo,Jawa Tengah,-7.719617000000000,109.996475000000000,rs
RS Panti Waluyo Yakkum Purworejo,Jl. Ahmad Yani No. 21 Purworejo,A,,Purworejo,Jawa Tengah,-7.712775000000000,110.016747000000000,rs
RSU PKU Muhammadiyah Purworejo,"Jl. Brigjend Katamso No.144-A, Purworejo",A,,Purworejo,Jawa Tengah,-7.731522000000000,110.002497000000000,rs
RS Palang Biru Kutoarjo,"Jl. Marditomo No.17,Kutoarjo,Kab.Purworejo",A,,Purworejo,Jawa Tengah,-7.722369000000000,109.908928000000000,rs
RSIA Adina,"Jl. P Ronggolawe No.24,Wonosobo",O,,Wonosobo,Jawa Tengah,-7.351400000000000,109.905483000000000,rs
RSUD Muntilan Kab. Magelang,Jl. Kartini No.13 Muntilan,A,C,Magelang,Jawa Tengah,-7.584111000000000,110.290814000000000,rs
RSI Al-Amin,"Jl. Raya Boyolali-Solo, Boyolali",A,,Boyolali,Jawa Tengah,-7.565097000000000,110.620219000000000,rs
RS Dr. Oen Sawit,"Ds Keteguhan,Sawit,Boyolali",A,,Boyolali,Jawa Tengah,-7.590278000000000,110.869722000000000,rs
RS PKU Aisyiyah Boyolali,Jl. Pasar Sapi Baru Singkil - Karanggeneng - Boyolali,A,,Boyolali,Jawa Tengah,-7.518297000000000,110.607722000000000,rs
RS Umi Barokah,"Jl.Prof.DR.Soeharso No.6 Tegal Rejo,Boyolali",A,,Boyolali,Jawa Tengah,-7.515544000000000,110.595211000000000,rs
RS Karanggede Sisma Medika,"Jl. Raya Karanggede - Solo KM.1, Boyolali",A,,Boyolali,Jawa Tengah,-7.565097000000000,110.620219000000000,rs
RSUD Simo,"Jl. Kebon Ijo Ds.Simo Kec.Simo, Boyolali",A,D,Boyolali,Jawa Tengah,-7.437128000000000,110.675594000000000,rs
RS Jiwa Dr.R.M.Soedjarwadi Klaten,"Jl. Ki Pandanaran Km.2,Klaten",B,B,Klaten,Jawa Tengah,-7.736994000000000,110.590647000000000,rs
RSIA Aisyiah,"Jl. Pramuka No. 10,Klaten",O,,Klaten,Jawa Tengah,-7.710911000000000,110.597731000000000,rs
RS Cakra Husada,"Jl. Merbabu No. 7,Klaten",A,,Klaten,Jawa Tengah,-7.709108000000000,110.594656000000000,rs
RSUD Sujoharjo,"Jl. Dr Muwardi 71,Sukoharjo",A,B,Sukoharjo,Jawa Tengah,-7.680761000000000,110.852244000000000,rs
RSU Nirmala Suri,"Jl. Raya Solo Sukoharjo Km.9, Sukoharjo",A,,Sukoharjo,Jawa Tengah,-7.653356000000000,110.835203000000000,rs
RS Muhammadiyah Wonogiri,"Jl. Lama Nambangan Selogiri, Wonogiri",A,,Wonogiri,Jawa Tengah,-7.759542000000000,110.883703000000000,rs
RS Medika Mulya,"Jl. Raya Wonogiri-Ngadirojo KM.5,Wonogiri",A,C,Wonogiri,Jawa Tengah,-7.766950000000000,110.994214000000000,rs
RS Amal Sehat,"Jl. Ngerjopuro RT.02/RW.03,Slogohimo Wonogiri",A,,Wonogiri,Jawa Tengah,-7.814147000000000,110.923983000000000,rs
RSUD Karanganyar,Jl. Yos Sudarso Karanganyar,A,C,Karanganyar,Jawa Tengah,-7.596503000000000,110.950956000000000,rs
RS Lanuma Adisumarmo,Lanuma Adisumarmo Surakarta,A,3,Karanganyar,Jawa Tengah,-7.531408000000000,110.738372000000000,rs
RS PKU Muhammadiyah K.A,Papahan Tasikmadu Karanganyar,A,C,Karanganyar,Jawa Tengah,-7.611417000000000,110.939392000000000,rs
RSU Amal Sehat Sragen,"Jl. Veteran No.35,Sragen",A,C,Sragen,Jawa Tengah,-7.431178000000000,111.024553000000000,rs
RSIA Assalam,"Jl. Gatot Subroto KM.1,5,Sragen",O,C,Sragen,Jawa Tengah,-7.398722000000000,110.828281000000000,rs
RS Panti Rahayu,"Jl. R Suprapto No.6,Purwodadi",A,C,Grobogan,Jawa Tengah,-7.083614000000000,110.914997000000000,rs
RS Muhammadiyah Gubug,"Jl. Letjen Suprapro No.12,Purwodadi",A,,Grobogan,Jawa Tengah,-7.060669000000000,110.667008000000000,rs
RS PPT Migas Cepu,"Jl. Diponegoro No.9,Cepu",A,,Blora,Jawa Tengah,-7.142564000000000,111.593692000000000,rs
RSB Reksodiputro,"Jl. Reksodiputro No.57,Blora",C,,Blora,Jawa Tengah,-6.971019000000000,111.425333000000000,rs
RS PKU Muhammadiyah Cepu,"Jl. Ronggolawe No.137,Cepu",A,,Blora,Jawa Tengah,-6.971972000000000,111.451256000000000,rs
Rumkitban Blora,"Jl. Dr. Sutomo No.45, Blora",A,4,Blora,Jawa Tengah,-6.966692000000000,111.418683000000000,rs
RS Kristen Tayu,"Jl. Diponegoro 56,Tayu Pati",A,C,Pati,Jawa Tengah,-6.748572000000000,111.036742000000000,rs
RSK THT Bina Waluya,"Jl. Dr Susanto No.113,Pati",M,,Pati,Jawa Tengah,-6.754781000000000,111.044842000000000,rs
RS Islam Pati,"Jl. Raya Pati-Tayu KM.18,Waturroyo Pati",A,C,Pati,Jawa Tengah,-6.604497000000000,111.053108000000000,rs
RS Mitra Bangsa Pati,"Jl. Kol.Sugiyono No.75,Pati",A,C,Pati,Jawa Tengah,-6.745539000000000,111.030156000000000,rs
RSUD Kayen Pati,Jl. Rumah Sakit No.1 Kayen Pati,A,D,Pati,Jawa Tengah,-6.894711000000000,110.985861000000000,rs
Rumkinban Pati,Jl. P. Sudirman No.77 Pati,A,3,Pati,Jawa Tengah,-6.751461000000000,111.032922000000000,rs
RSUD Kudus,"Jl. Dr. Lukmonohadi No.19,Kudus",A,B,Kudus,Jawa Tengah,-6.819756000000000,110.835958000000000,rs
RS Mardi Rahayu,"Jl. AKBP R Agil 110,Kudus",A,,Kudus,Jawa Tengah,-6.830056000000000,110.831275000000000,rs
RSU Islam Sunan Kudus,"Jl. Kudus Permai No.1,Kudus",A,C,Kudus,Jawa Tengah,-6.798694000000000,110.814936000000000,rs
RSB Permata Hati,"Jl. Nisemito No.28,Kudus",C,,Kudus,Jawa Tengah,-6.808108000000000,110.842322000000000,rs
Rumkitban Kudus,"Jl. P. Sudirman No.64, Kudus",A,4,Kudus,Jawa Tengah,-6.805353000000000,110.849997000000000,rs
RSU R.A. Kartini,Jl. K.H. Wahid Hasyim Jepara,A,B,Jepara,Jawa Tengah,-6.597322000000000,110.674894000000000,rs
RS Kusta Kelet Donorejo,Kelet Kec Kaling Kab.Jepara,G,C,Jepara,Jawa Tengah,-6.495911000000000,110.901714000000000,rs
RS Islam Jepara,"Jl. Jepara-Bangsri KM.3,Jepara",A,,Jepara,Jawa Tengah,-6.577367000000000,110.682194000000000,rs
RS Graha Husada,"Jl. MH.Thamrin No.14,Jepara",A,,Jepara,Jawa Tengah,-6.596347000000000,110.671228000000000,rs
RSU Bhakti Karya Husada,"Jl. Sultan Fatah No. 669/50,Demak",A,C,Demak,Jawa Tengah,-6.899572000000000,110.633450000000000,rs
RSB Dewi Sekartaji,"Jl. Raya Mranggen No.78,Demak",C,,Demak,Jawa Tengah,-7.026250000000000,110.517725000000000,rs
RS Islam NU Demak,"Jl. Jogoloyo No.9,Demak",A,,Demak,Jawa Tengah,-6.919058000000000,110.638781000000000,rs
RSUD Ambarawa,"Jl. Kartini No.10, Ambarawa",A,C,Semarang,Jawa Tengah,-6.956403000000000,110.422019000000000,rs
RSUD Ungaran,"Jl. Diponegoro 125,Ungaran",A,C,Semarang,Jawa Tengah,-7.134375000000000,110.404172000000000,rs
RSU Bina Kasih,"Jl. Naryo Atmajan 24,Ambarawa",A,,Semarang,Jawa Tengah,-7.271928000000000,110.378200000000000,rs
RS Ngesti Waluyo,"Jl. Pahlawan Parakan,Temanggung",A,C,Temanggung,Jawa Tengah,-7.286283000000000,110.115750000000000,rs
RSIA Amal Bakti,Ds Teriangun Brebes,O,,Brebes,Jawa Tengah,-6.856022000000000,109.011261000000000,rs
RS Siti Asiyah,Jl. Pasar Wage Bumiayu Brebes,A,,Brebes,Jawa Tengah,-7.244058000000000,109.006503000000000,rs
RS Islam Siti Aminah,Jl. Raya 155 Bumiayu Brebes,A,,Brebes,Jawa Tengah,-7.257086000000000,109.007386000000000,rs
RSU Dedy Jaya,"Jl. Ahmad Yani No.57,Brebes",A,C,Brebes,Jawa Tengah,-6.942558000000000,108.923344000000000,rs
RS Bhakti Asih,"Jl. P. Diponegoro No.125,Pesantunan Brebes",A,C,Brebes,Jawa Tengah,-6.864658000000000,109.006403000000000,rs
Rumkit Tk II Dr. Soedjono,"Jl. Urip Sumoharjo 48, Magelang",A,2,Kota Magelang,Jawa Tengah,-7.468350000000000,110.226806000000000,rs
RSJ. Prof.Dr. Soerojo Magelang,"Jl. A Yani 169,Magelang",B,A,Kota Magelang,Jawa Tengah,-7.441422000000000,110.225867000000000,rs
RSU Lestari Raharja,"Jl. Sutopo No.5,Magelang",A,,Kota Magelang,Jawa Tengah,-7.479042000000000,110.216342000000000,rs
RSB Gladiool,"Jl. Kenanga No.6,Magelang",C,,Kota Magelang,Jawa Tengah,-7.482133000000000,110.215486000000000,rs
RS Jiwa Budi Asih,"Jl. Urip Sumoharjo 91,Magelang",B,,Kota Magelang,Jawa Tengah,-7.473547000000000,110.228542000000000,rs
RS Jiwa Dharma Kusuma,"Jl. A Yani No. 417,Magelang",B,,Kota Magelang,Jawa Tengah,-7.458439000000000,110.222369000000000,rs
RS Harapan,"Jl. Senopati No.11,Magelang",A,,Kota Magelang,Jawa Tengah,-7.479636000000000,110.217375000000000,rs
RS Islam Magelang,"Jl. Jeruk No.4 A , Kota Magelang",A,,Kota Magelang,Jawa Tengah,-7.457736000000000,110.225631000000000,rs
RSU Dr. Moewardi Surakarta,"Jl. Kol Sutarto 132,Surakarta",A,A,Surakarta,Jawa Tengah,-7.535222000000000,110.837303000000000,rs
Rumkit Tk IV Slamet Riyadi Surakarta,"Jl. Slamet Riyadi 321,Surakarta",A,4,Surakarta,Jawa Tengah,-7.566569000000000,110.809939000000000,rs
RS Jiwa Surakarta,"Jl. K.H. Dewantoro 80,Surakarta",B,A,Surakarta,Jawa Tengah,-7.557150000000000,110.863000000000000,rs
RSU Panti Waluyo,"Jl. Jen A Yani No.1,Surakarta",A,C,Surakarta,Jawa Tengah,-7.559925000000000,110.790625000000000,rs
RS Islam Kustati,"Jl. Kapt.Mulyadi No.249,Surakarta",A,C,Surakarta,Jawa Tengah,-7.580975000000000,110.830975000000000,rs
RSU Kasih Ibu,"Jl. Slamet Riyadi 404,Surakarta",A,C,Surakarta,Jawa Tengah,-7.563189000000000,110.802000000000000,rs
RS Islam Surakarta,"Jl. Ahmad Yani, Kertasura, Pabelan,Sukoharjo",A,,Surakarta,Jawa Tengah,-7.558947000000000,110.770942000000000,rs
RS Jiwa Tathya Puri,"Jl. Kapt.Mulyadi 174,Surakarta",B,,Surakarta,Jawa Tengah,-7.558633000000000,110.829139000000000,rs
RSK THT Dr. Soeharso JD,"Jl. Kepatihan Wetan, Surakarta",M,,Surakarta,Jawa Tengah,-7.563647000000000,110.831789000000000,rs
RS Jiwa dan Syaraf Puri Waluyo Surakarta,"Jl. Slamet Riyadi,Surakarta",B,,Surakarta,Jawa Tengah,-7.565731000000000,110.808000000000000,rs
RSUD Kota Surakarta,"Jl. P.Lumban Tobing No.10,Surakarta",A,D,Surakarta,Jawa Tengah,-7.564219000000000,110.825847000000000,rs
Rumkit Tk. IV Salatiga,Jl. Dr Muwardi Salatiga,A,4,Salatiga,Jawa Tengah,-7.558939000000000,110.842000000000000,rs
RSK THT Syifaa Rohmani,"Jl. Osamaliki No.26 A,Salatiga",M,,Salatiga,Jawa Tengah,-7.330156000000000,110.495911000000000,rs
Rumkit Tk.III Bhakti Wira Tamtama Smg,"Jl. Dr. Sutomo No.17,Semarang",A,3,Kota Semarang,Jawa Tengah,-6.987119000000000,110.407958000000000,rs
RSU Panti Wilasa I,"Jl. Citarum 98,Semarang",A,,Kota Semarang,Jawa Tengah,-6.973158000000000,110.434483000000000,rs
RS Jiwa Dr. Amino Gondohutomo,"Jl. Brigjen Sudiarto,Semarang",B,A,Kota Semarang,Jawa Tengah,-7.009886000000000,110.466917000000000,rs
RSIA Mardi Waluyo,"Jl. Pandanaran No.24,Semarang",O,,Kota Semarang,Jawa Tengah,-6.986989000000000,110.415600000000000,rs
RS Panti Wilasa II,"Jl. Dr. Cipto 50,Semarang",A,C,Kota Semarang,Jawa Tengah,-6.975261000000000,110.435381000000000,rs
RSB Anugerah,"Jl. Kalisari Baru No.5-7,Semarang",C,,Kota Semarang,Jawa Tengah,-6.992450000000000,110.405000000000000,rs
RSK THT Wira Husada,Jl. Tentara Pelajar Semarang,M,,Kota Semarang,Jawa Tengah,-7.009333000000000,110.436575000000000,rs
RSK THT Dharma Usadha,Jl. Kalimas Raya Semarang,M,,Kota Semarang,Jawa Tengah,-7.052767000000000,110.329767000000000,rs
RSB Gunung Sawo I,"Jl. Gunung Sawo No.21,Semarang",C,,Kota Semarang,Jawa Tengah,-6.995361000000000,110.406844000000000,rs
RS Jiwa Puri Asih,Jl. Sompok No. 18 Semarang,B,,Kota Semarang,Jawa Tengah,-7.004367000000000,110.436972000000000,rs
RS Banyumanik,"Jl. Bina Remaja Srondol No.61,Semarang",A,,Kota Semarang,Jawa Tengah,-7.051550000000000,110.416553000000000,rs
RSUD Kota Semarang,"Jl. Fatmawati Raya No.1,Semarang",A,B,Kota Semarang,Jawa Tengah,-7.037419000000000,110.464264000000000,rs
RSB Kusuma,"Jl. Bugangan Raya 5,Semarang",C,,Kota Semarang,Jawa Tengah,-6.975086000000000,110.437225000000000,rs
RSB Permata Sari,"Jl. Gunung Pati No. 1,Semarang",C,,Kota Semarang,Jawa Tengah,-7.086961000000000,110.311819000000000,rs
RS Siti Khodijah,"Jl. Bandung No.39-47,Pekalongan",A,,Kota Pekalongan,Jawa Tengah,-6.886833000000000,109.676717000000000,rs
RSK THT Puri Usadha,"Jl. Benfawan 34,Pekalongan",M,,Kota Pekalongan,Jawa Tengah,-6.899728000000000,109.386325000000000,rs
RS Karomah Holistic,"Jl. Gajah Mada Barat No.124,Pekalongan",A,,Kota Pekalongan,Jawa Tengah,-6.889619000000000,109.652489000000000,rs
RSUD Kardinah,"Jl. KS Tubun No.4,Tegal",A,B,Kota Tegal,Jawa Tengah,-6.884636000000000,109.135753000000000,rs
RS Mitra Siaga,"Jl. Pala Raya No.54,Tegal",A,C,Kota Tegal,Jawa Tengah,-6.861606000000000,109.163781000000000,rs
Rumkit Tk.IV Tegal,Jl. Raya Pagongan Tegal,A,4,Kota Tegal,Jawa Tengah,-6.911778000000000,109.134489000000000,rs
RSK THT Trunorejo,"Jl. Dukuh I No.25,Tegal",M,,Kota Tegal,Jawa Tengah,-6.945067000000000,109.129733000000000,rs
RSIA Kasih Ibu Tegal,"Jl. Sultan Agung 32,Tegal",O,,Kota Tegal,Jawa Tengah,-6.883722000000000,109.136042000000000,rs
RSIA Bethesda Lempuyang,Jl. Raya Hayam Wuruk 6 Yogya,O,,Yogyakarta,DI Yogyakarta,-7.796497000000000,110.039814000000000,rs
RSU Asy-Syifa Sambi,"Jl. Raya Bangak-Simo Km 7, Sambi, Boyolali",A,0,,Jawa Tengah,-7.517292000000000,110.593442000000000,rs
RSIA Restu Ibu,"Bendungan Desa Pilangsari Kec. Ngrampal, Sragen",O,0,,Jawa Tengah,-7.428089000000000,111.017633000000000,rs
RS Islam Arafah,"Jl. Raya Rembang - Lasem Km.5 Tritunggal, Rembang",A,0,,Jawa Tengah,-6.704172000000000,111.342033000000000,rs
RSU Nurussyifa,"Jl. Kudus - Pati Km.10 Jekulo, Kudus",A,D,,Jawa Tengah,-6.804783000000000,110.873117000000000,rs
RSU Mitra Keluarga Tegal,"Jl. Sipelem No.4, Tegal",A,C,,Jawa Tengah,-6.864436000000000,109.120889000000000,rs
RSK Bedah Onkologi,"Jl. Galaxy Bumi Permai Blok A2 No.7,Surabaya",K,C,Kota Surabaya,Jawa Timur,-7.290786000000000,112.789378000000000,rs
RSU &quot;Kanjuruhan&quot;Kepanjen,"Jl. Panji No. 100 Kepanjen, Malang",A,B,Malang,Jawa Timur,-8.140542000000000,112.570850000000000,rs
RS Kristen Mojowarno,"Jl. Merdeka No.59 Mojowarno, Jombang",A,C,Jombang,Jawa Timur,-7.538658000000000,112.243683000000000,rs
RS Panti Waluya Sawahan,"Jl. Nusakambangan No.56, Malang",A,C,Kota Malang,Jawa Timur,-7.988000000000000,112.626442000000000,rs
RS Darmo,"Jl. Raya Darmo 90,Surabaya",A,,Kota Surabaya,Jawa Timur,-7.287342000000000,112.739097000000000,rs
RSUD Lawang,"Jl. RA Kartini 5, Lawang Kab. Malang",A,D,Malang,Jawa Timur,-7.839828000000000,112.676147000000000,rs
RS Wijaya Kusuma,Jl. A. Yani No.149 Lumajang,A,,Lumajang,Jawa Timur,-7.872264000000000,112.523419000000000,rs
RSUD Genteng,"Jl. Hasanudin No.98,Genteng",A,C,Banyuwangi,Jawa Timur,-8.364050000000000,114.147772000000000,rs
RSUD Sumberrejo,"Jl. Raya No.231 Sumberrejo,Bojonegoro",A,D,Bojonegoro,Jawa Timur,-7.142939000000000,111.898283000000000,rs
RSUD Kab. Sampang,"Jl. Rajawali No. 10, Sampang",A,C,Sampang,Jawa Timur,-7.151122000000000,113.267686000000000,rs
RSU Mardi Waluyo,"Jl. Kalimantan 113, Kota Blitar",A,,Kota Blitar,Jawa Timur,-8.072881000000000,112.166497000000000,rs
RS Adi Husada Hapsari,Jl. Kapasari No. 97-101 Surabaya,A,C,,Jawa Timur,-7.247047000000000,112.751025000000000,rs
Premier Surabaya,Jl. Ninden Intan Barat Sby,A,B,,Jawa Timur,-7.304794000000000,112.765089000000000,rs
RSK Anak & P.Dalam Banyuwangi,Jl. Basuki Rachmat Banyuwangi,P,C,Banyuwangi,Jawa Timur,-8.198561000000000,114.375061000000000,rs
RSU Bala Keselamatan,"Jl. A.Yani 91 Turen , Kab.Malang",A,,Malang,Jawa Timur,-8.163433000000000,112.693947000000000,rs
RS Budi Rahayu,Jl. Jend.A Yani 18 Blitar,A,C,Kota Blitar,Jawa Timur,-8.099739000000000,112.172000000000000,rs
RSUD Ibnu Sina Kab. Gresik,"Jl. Dr. W Sudiro Husodo No.243 B, Gresik",A,B,Gresik,Jawa Timur,-7.161781000000000,112.651425000000000,rs
RS Mardi Waluyo,"Jl. Raya Kalianget No.1, Kab Sumenep",RSI Garam Kalianget,RSU,Sumenep,Jawa Timur,-7.054886000000000,113.940383000000000,rs
RS Mata Undaan,Jl. Undaan Kulon 19 Surabaya,Khusus Mata,B,Kota Surabaya,Jawa Timur,-7.254439000000000,112.743000000000000,rs
RS Al-irsyad,Jl. KH.Mansyur 210 Surabaya,A,C,Kota Surabaya,Jawa Timur,-7.227969000000000,112.741000000000000,rs
RSU Dr. Soedomo Trenggalek,Jl. Dr Soetomo No. 2 Trenggalek,A,C,Trenggalek,Jawa Timur,-7.626433000000000,111.524125000000000,rs
RS PHC,Jl. Prapat Kurung selatan no 1,RSU,B,Kota Surabaya,Jawa Timur,-7.265278000000000,112.742500000000000,rs
RSUD Kab. Jombang,"Jl. KHW Hasyim 52, Jombang",A,B,Jombang,Jawa Timur,-7.537539000000000,112.230817000000000,rs
RSU Dr. R Koesma Tuban,"Jl. Dr W S Husodo No.800, Tuban",A,B,Tuban,Jawa Timur,-6.899583000000000,112.046169000000000,rs
RSU An-Nisaa,"Jl. Suparyono Timur No.1,Bajang Talun-Blitar",RSU,D,Kota Blitar,Jawa Timur,-8.090083000000000,112.288258000000000,rs
RSUD Bhakti Dharma Husada,"Jl. Raya Kendung No.115-117, Surabaya",A,C,Kota Surabaya,Jawa Timur,-7.253378000000000,112.634922000000000,rs
RS PT Semen Gresik,Jl. R A Kartini No. 280 Gresik,A,C,Gresik,Jawa Timur,-7.165831000000000,112.642000000000000,rs
RSK Bedah Dina L,"Jl. Hayam Wuruk No.90,Kediri",K,,Kota Kediri,Jawa Timur,-7.816894000000000,112.011397000000000,rs
RSU Haji Surabaya,Jl. Manyar Kertoadi Surabaya,A,B,Surabaya,Jawa Timur,-7.282331000000000,112.779583000000000,rs
"RSUD kab, Pacitan",Jl. Jen A Yani No. 51 Pacitan,A,C,Pacitan,Jawa Timur,-8.201250000000000,111.102042000000000,rs
RSU Blambangan,Jl. Istiqlah No. 49 Banyuwangi,A,C,Banyuwangi,Jawa Timur,-8.236286000000000,114.358239000000000,rs
RSUD dr. Abdoer Rahem Situbondo,Jl. Anggrek No. 68 Situbondo,A,C,Situbondo,Jawa Timur,-7.702981000000000,114.014769000000000,rs
RSU Dr. R. Sosodoro Djatikoesoemo,"Jl. Dr Wahidin No.40, Bojonegoro",A,B,Bojonegoro,Jawa Timur,-7.142939000000000,111.898283000000000,rs
RS Anwar Medika,"Dsn. Semawut RT.10/RW.04, Ds Balongbendo Kec.Balongbendo, Sidoarjo",A,,Jatim,Jawa Timur,-7.412169000000000,112.561086000000000,rs
RS Bedah Dan Kandungan Unipdu Medika,"Jl. Raya Peterongan Jogoroto Km.0.5, Jombang",A,,Jatim,Jawa Timur,-7.537539000000000,112.230817000000000,rs
RS Islam Surabaya Jemursari,"Jl. Jemursai 51 - 57, Surabaya",A,B,Surabaya,Jawa Timur,-7.322719000000000,112.740000000000000,rs
RS Aisyiah Ponorogo,"Jl. Dr Sutomo 18 - 24, Ponorogo",A,,Ponorogo,Jawa Timur,-7.872197000000000,111.461308000000000,rs
RS PTPN X Jember,Jl. Bedadung No.2 Jember,A,,Jember,Jawa Timur,-8.260300000000000,113.670411000000000,rs
RS Syuhada Haji,Jl. Mojo No.12 Pakunden-Blitar,A,-,Kota Blitar,Jawa Timur,-8.083575000000000,112.138075000000000,rs
Rumkit Tk.III Baladika Husada Jember,Jl. PB Sudirman No. 49 Jember,A,III,Jember,Jawa Timur,-8.260300000000000,113.670411000000000,rs
RS William Booth,"Jl. Let Jen S Parman 5,Semarang",A,C,Kota Semarang,Jawa Tengah,-7.290450000000000,112.736656000000000,rs
RSUD Dr. Harjono S Ponorogo,Jl. Ciptomangunkusumo Ponorogo,A,B,Ponorogo,Jawa Timur,-7.854103000000000,111.468539000000000,rs
RS Darmayu,Jl. Dr. Soetomo 44 Ponorogo,A,,Ponorogo,Jawa Timur,-7.868450000000000,111.473000000000000,rs
RS Aisyiah Diponegoro,Jl. Diponegoro No.50 Ponorogo,A,,Ponorogo,Jawa Timur,-7.866358000000000,111.463847000000000,rs
RS Griya Waluya,Jl. Sultan Agung 68 Ponorogo,A,,Ponorogo,Jawa Timur,-7.872275000000000,111.461258000000000,rs
RS Budi Asih Trenggalek,Jl. Mayjen Sungkono Trenggalek,A,,Trenggalek,Jawa Timur,-8.056225000000000,111.697717000000000,rs
RS Mardi Mulia,Jl. Sutomo 19 Trenggalek,A,,Trenggalek,Jawa Timur,-8.058044000000000,111.704814000000000,rs
RSUD Dr Iskak Tulungagung,"Jl. Dr. W Sudirohusudo, Tulungagung",A,B,Tulungagung,Jawa Timur,-8.060617000000000,111.907617000000000,rs
RSU Islam Orpeha,Jl. KHR Abdul Fatah Tulungagung,A,C,Tulungagung,Jawa Timur,-8.052603000000000,111.883119000000000,rs
RSUD Ngudi Waluyo Wlingi,Jl. Dr. Sucipto No.5 Wlingi,A,B,Blitar,Jawa Timur,-8.083800000000000,112.315564000000000,rs
RSU Pare,"Jl. Pahlawan Kusuma Bangsa No.1, Pare",A,B,Kediri,Jawa Timur,-7.759758000000000,112.175981000000000,rs
RS PTP XXI Toeloengredjo,Jl. A Yani No. 25 Pare Kediri,A,,Kediri,Jawa Timur,-7.765064000000000,112.196872000000000,rs
RS Amelia,Jl. Pahlawan No.25A Pare Kediri,A,,Kediri,Jawa Timur,-7.761606000000000,112.180461000000000,rs
RS Baptis Batu,"Jl. Raya Tlekung No.I, Malang",A,,Malang,Jawa Timur,-7.884817000000000,112.529808000000000,rs
RSU Dr. Haryoto Lumajang,"Jl. Basuki Rahmat No.5, Lumajang",A,B,Lumajang,Jawa Timur,-8.122275000000000,113.227775000000000,rs
RS PTP XXIV Jatiroto,Jl. Sudirman Jatiroto Lumajang,A,,Lumajang,Jawa Timur,-8.116108000000000,113.319586000000000,rs
RSU Dr. Soebandi,"Jl. Dr. Soebandi No.124, Jember",A,B,Jember,Jawa Timur,-8.156189000000000,113.715394000000000,rs
RSTP Jember,Jl. Nusa Indah No. 28 Jember,F,B,Jember,Jawa Timur,-8.160664000000000,113.700508000000000,rs
RS Utama Husada,"Jl. Manggar No.134 Tegalsari, Ambulu Jember",A,C,Jember,Jawa Timur,-8.160853000000000,113.695003000000000,rs
RSGM Universitas Jember,Jl. Kalimantan No. 37 Jember,T,,Jember,Jawa Timur,-8.176375000000000,113.714136000000000,rs
RSUD Kalisat Kab.Jember,Jl. M.H.Thamrin No.31 Jember,A,D,Jember,Jawa Timur,-8.201456000000000,113.671978000000000,rs
RSUD Balung,"Jl. Rambipuji 19, Balung Jember",A,C,Jember,Jawa Timur,-8.271042000000000,113.539303000000000,rs
RS Islam Fatimah,Jl. Jember 25 Kabat Banyuwangi,A,,Banyuwangi,Jawa Timur,-8.261633000000000,114.334050000000000,rs
RSIA Bunda,Jl. Adisucipto 9 Banyuwangi,O,,Banyuwangi,Jawa Timur,-8.231872000000000,114.362389000000000,rs
RSK Bedah Yasmin,Jl. Letkol Istiqlah Banyuwangi,K,,Banyuwangi,Jawa Timur,-8.225639000000000,114.370481000000000,rs
RS Nahdlatul Ulama Banyuwangi,"Jl. Raya Mangir,Rogojampi - Banyuwangi",A,,Banyuwangi,Jawa Timur,-8.337369000000000,114.272564000000000,rs
RSUD Dr. H.Koesnadi,Jl. Piere Tendean Bondowoso,A,B,Bondowoso,Jawa Timur,-8.215011000000000,114.377456000000000,rs
RS Elizabeth PTP Nusantara XI,Jl. WR Supratman 2A Situbondo,A,,Situbondo,Jawa Timur,-7.704206000000000,114.015383000000000,rs
RSU Waluyo Jati Kraksaan,Jl. Dr Sutomo No. 1 Kraksaan,A,C,Probolinggo,Jawa Timur,-7.761831000000000,113.437403000000000,rs
RS Graha Sehat,Jl. Raya Panglima Sudirman No.2,A,,Probolinggo,Jawa Timur,-7.755953000000000,113.439517000000000,rs
RS Islam Masyitoh Bangil,Jl. A.Yani No.6 Bangil Jatim,A,,Pasuruan,Jawa Timur,-7.604736000000000,112.818731000000000,rs
RSUD Bangil,Jl. Raci - Bangil,A,C,Pasuruan,Jawa Timur,-7.608378000000000,112.830525000000000,rs
RSIA Panca Dharma,Jl. Raya 14A Pandaan Sukorejo,O,,Pasuruan,Jawa Timur,-7.677544000000000,112.645936000000000,rs
RS Panca Dharma,Jl. Raya 14 Sukorejo Pasuruan,A,,Pasuruan,Jawa Timur,-7.677544000000000,112.645936000000000,rs
RSUD Sidoarjo,Jl. Mojopahit No.667 Sidoarjo,A,B,Sidoarjo,Jawa Timur,-7.465256000000000,112.715656000000000,rs
RSU Siti Khodijah,Jl. Pahlawan Sepanjang Sidoarjo,A,,Sidoarjo,Jawa Timur,-7.449119000000000,112.707406000000000,rs
RS Pusdik Polri Porong,Pusdik Sabhara Porong,A,4,Sidoarjo,Jawa Timur,-7.538544000000000,112.700381000000000,rs
RS Delta Surya,Jl. Pahlawan Sidoarjo,A,,Sidoarjo,Jawa Timur,-7.448194000000000,112.702169000000000,rs
RS Islam Siti Hajar,Jl. Raden Patah No. 70 Sidoarjo,A,,Sidoarjo,Jawa Timur,-7.457442000000000,112.722081000000000,rs
RSAB Jasem,Jl. Samanhudi No.85A Sidoarjo,O,,Sidoarjo,Jawa Timur,-7.459322000000000,112.721708000000000,rs
RS Kusta Sumberglagah,Sumberglagah Pacet Mojokerto,G,C,Mojokerto,Jawa Timur,-7.661517000000000,112.537225000000000,rs
RSU Prof Dr Soekandar,Jl. Hayam Wuruk 25 Mojosari,A,B,Mojokerto,Jawa Timur,-7.462764000000000,112.435042000000000,rs
RS Emma,Jl. Raya Ijen No.67 Mojokerto,A,,Mojokerto,Jawa Timur,-7.472875000000000,112.431003000000000,rs
RSAB Muslimat,Jl. U Sumohardjo 32-34 Jombang,O,D,Jombang,Jawa Timur,-7.560772000000000,112.228969000000000,rs
RS Islam Jombang,Jl. Brig. Kretarto 22 A Jombang,A,,Jombang,Jawa Timur,-7.530833000000000,112.237500000000000,rs
RSUD Nganjuk,"Jl. Dr. Sutomo 62, Nganjuk",A,B,Nganjuk,Jawa Timur,-7.661178000000000,111.872347000000000,rs
RSU Kertosono,Jl. Supriadi No. 29 Kertosono.,A,C,Nganjuk,Jawa Timur,-7.592636000000000,112.125847000000000,rs
RS Satiti,Jl. Lonsep No. 3 Kertosono.,A,,Nganjuk,Jawa Timur,-7.602122000000000,112.089656000000000,rs
RSTP Dungus,"Jl. Raya Dungus - Wungu, Madiun",F,C,Madiun,Jawa Timur,-7.665542000000000,111.580989000000000,rs
RSUD Panti Waluyo,Jl. A Yani Km 2 Caruban Madiun,A,C,Madiun,Jawa Timur,-7.538814000000000,111.655694000000000,rs
RSU Dr. Saydiman Magetan,Jl. Pahlawan No.2 Magetan,A,C,Magetan,Jawa Timur,-7.652836000000000,111.334919000000000,rs
RSU Dr. Soeroto Ngawi,"Jl. Dr Wahidin 27, Ngawi",A,C,Ngawi,Jawa Timur,-7.392681000000000,111.445000000000000,rs
RSAB Aisyiah Bojonegoro,Jl. Hasyim Asyari 17 Bojonegoro,O,,Bojonegoro,Jawa Timur,-7.156667000000000,111.872433000000000,rs
RS Muhamadiyah Sumberejo,Jl. Raya Sumberrejo Bojonegoro,A,,Bojonegoro,Jawa Timur,-7.176078000000000,112.004608000000000,rs
RSUD Padangan,"Jl. Dr. Soetomo No.02 Padangan,Bojonegoro",A,D,Bojonegoro,Jawa Timur,-7.160639000000000,111.633514000000000,rs
RS Kusta Nganget,Pos Jojogan Bojonegoro Tuban,G,,Tuban,Jawa Timur,-6.901672000000000,112.050367000000000,rs
RS Medika Mulia Tuban,Jl. Mojopahit 699 Tuban,A,,Tuban,Jawa Timur,-6.916997000000000,112.049222000000000,rs
RSAB Muhammadiyah,Jl. Diponegoro No.1 Tuban,O,,Tuban,Jawa Timur,-6.898561000000000,112.044503000000000,rs
RS Islam Nashrul Ummah,Jl. Merpati No.62 Lamongan,A,,Lamongan,Jawa Timur,-7.116342000000000,112.419656000000000,rs
RS Muhammadiyah Lamongan,Jl. Jaksa Agung Suprapto Lamongan,A,,Lamongan,Jawa Timur,-7.106139000000000,112.387883000000000,rs
RSIA Nyai Ageng Pinatih,Jl. KH Abd Karim 76-78 Gresik,O,,Gresik,Jawa Timur,-7.156886000000000,112.652131000000000,rs
RS Jiwa Aditama,Jl. Raya Bunder Gresik,B,,Gresik,Jawa Timur,-7.175744000000000,112.582814000000000,rs
RS Petrokimia Gresik,Jl. Jen Ahmad Yani 69 Gresik,A,,Gresik,Jawa Timur,-7.156844000000000,112.640033000000000,rs
RSUD Syarifah Ambarni Rato Ebuh,Jl. Pemuda Kaffa No. 9 Bangkalan,A,B,Bangkalan,Jawa Timur,-7.029261000000000,112.759269000000000,rs
RS AL Batuporon,Jl. Mawar Madura Kab Bangkalan,A,4,Bangkalan,Jawa Timur,-7.025739000000000,112.751478000000000,rs
RSUD Pamekasan,"Jl. Raya Panglegur No.4, Pamekasan",A,B,Pamekasan,Jawa Timur,-7.183369000000000,113.479278000000000,rs
RSB & Peny.Dalam Larasati,Jl. Mandilaras No.74 Pamekasan,C,,Pamekasan,Jawa Timur,-7.155106000000000,113.481844000000000,rs
RSU Muh Anwar Sumenep,Jl. Dr Cipto No. 42 Sumenep,A,C,Sumenep,Jawa Timur,-7.015333000000000,113.863728000000000,rs
RSU Gambiran,Jl. KH Wahid Hasyim 64 Kediri,A,B,Kota Kediri,Jawa Timur,-7.815950000000000,112.005000000000000,rs
Rumkit Tk.IV Kediri,"Jl. Mayjen SungkoNo. 44, Kediri",A,4,Kota Kediri,Jawa Timur,-7.451931000000000,112.447556000000000,rs
RS Bhayangkara Kediri,Jl. Kombes Pol Duryat 17 Kediri,A,3,Kota Kediri,Jawa Timur,-7.812461000000000,112.017814000000000,rs
RS Baptis Kediri,Jl. Mauni 1-7 Kediri,A,,Kota Kediri,Jawa Timur,-7.827011000000000,112.032000000000000,rs
RS Kusta Kediri,"Jl. Veteran No. 48, Kediri",G,B,Kota Kediri,Jawa Timur,-7.811458000000000,111.997175000000000,rs
RSB Nirmala Kediri,Jl. Jaksa Agung Suprapto No.5 Kediri,C,,Kota Kediri,Jawa Timur,-7.779842000000000,111.999289000000000,rs
RSIA Muhammadiyah Kediri,"Jl. Achmad Dahlan No.39,Kediri",O,,Kota Kediri,Jawa Timur,-7.802172000000000,112.002208000000000,rs
RS Islam Al-Arafah,"Jl. Raung 190,Kediri",A,,Kota Kediri,Jawa Timur,-7.831653000000000,111.995344000000000,rs
RSIA Aminah,"Jl. Veteran No.12,Blitar",O,,Kota Blitar,Jawa Timur,-8.100189000000000,112.168000000000000,rs
Rumkit Tk.II Dr. Soepraoen,"Jl. Sodanco Supriyadi No.22,Malang",A,2,Kota Malang,Jawa Timur,-8.095014000000000,112.174803000000000,rs
RS Panti Nirmala,Jl. Kebalen Wetan N0.2-8 Malang,A,,Kota Malang,Jawa Timur,-7.991394000000000,112.637431000000000,rs
RS PTPN XI Lavalete,Jl. WR Supratman 10 Malang,A,,Kota Malang,Jawa Timur,-7.798761000000000,112.636058000000000,rs
RSU Marsudi Waluyo,Jl. Raya Mondoroko Km. 9 Singosari Malang,A,C,Kota Malang,Jawa Timur,-7.905725000000000,112.655511000000000,rs
RS LPK Malang,Jl. Asahan No.7 Malang,A,,Kota Malang,Jawa Timur,-7.959889000000000,112.637519000000000,rs
RS Lanuma Abdul Saleh,"Jl. Dr. M. Munir No.18, Malang",A,4,Kota Malang,Jawa Timur,-7.952064000000000,112.675889000000000,rs
RS Islam Gondang Legi,Jl. Hayam Wuruk 66 Gondang Legi Malang,A,,Kota Malang,Jawa Timur,-8.170653000000000,112.639958000000000,rs
RS Islam Aisyiyah Malang,Jl. Sulawesi No. 6 Malang,A,,Kota Malang,Jawa Timur,-7.988733000000000,112.625453000000000,rs
RS Islam Malang,Jl. M. T. Haryono No. 139 Malang,A,C,Kota Malang,Jawa Timur,-7.940269000000000,112.608694000000000,rs
RS Sumber Sentosa,Jl. Kebonsari No. 221 Malang,A,,Kota Malang,Jawa Timur,-8.003153000000000,112.761892000000000,rs
RSU Dr. Moh Saleh Probolinggo,Jl. Panjaitan No.65 Probolinggo,A,B,Kota Probolinggo,Jawa Timur,-7.748950000000000,113.210325000000000,rs
RS Dharma Husada,Jl. Sukarno Hatta Probolinggo,A,,Kota Probolinggo,Jawa Timur,-7.753839000000000,113.198042000000000,rs
RS Wonolangan,Jl. Raya Dringun Probolinggo,A,,Kota Probolinggo,Jawa Timur,-7.761522000000000,113.234208000000000,rs
RSUD Tongas,"Jl. Raya Tongas No. 229,Probolinggo",A,D,Kota Probolinggo,Jawa Timur,-7.735419000000000,113.119506000000000,rs
RSU Dr. R.Soedarsono Pasuruan,Jl. Dr Wahidin Sudirohusodo No. 1-4 Pasuruan,A,C,Kota Pasuruan,Jawa Timur,-7.664211000000000,112.899000000000000,rs
RSU Dr. Wahidin S Husodo,Jl. Gajah Mada 100 Mojokerto,A,C,Mojokerto,Jawa Timur,-7.465089000000000,112.437092000000000,rs
Rumkitban Mojokerto,Jl. R Wijaya 58 Mojokerto,A,4,Mojokerto,Jawa Timur,-7.481619000000000,112.438081000000000,rs
RS PTP XXI_XXII Gatoel,Jl. R Wijaya No.56 Mojokerto,A,,Mojokerto,Jawa Timur,-7.480597000000000,112.433325000000000,rs
RS Reksa Waluya,"Jl. Mojopahit 422, Mojokerto",A,,Mojokerto,Jawa Timur,-7.477733000000000,112.431750000000000,rs
RS Hasanah Muhammadiyah,Jl. HOS Cokroaminoto No. 26-28 Mojokerto,A,,Mojokerto,Jawa Timur,-7.468447000000000,112.435886000000000,rs
RS Islam Sakinah,Jl. RA Basuni No.12 Mojokerto,A,C,Mojokerto,Jawa Timur,-7.496261000000000,112.424000000000000,rs
RSUD RA.Basoeni,"Jl. Raya Gedeg No.17,Kab.Mojokerto",A,C,Mojokerto,Jawa Timur,-7.455994000000000,112.409794000000000,rs
RSU Dr. Soedono Madiun,"Jl. Dr. Soetomo 59, Madiun",A,B,Kota Madiun,Jawa Timur,-7.626433000000000,111.524125000000000,rs
RS Santa Clara,Jl. Biliton No. 15 Madiun,A,,Kota Madiun,Jawa Timur,-7.621417000000000,111.523992000000000,rs
RS Rumkit Tk.IV Madiun,Jl. Pahlawan No. 79 Madiun,A,4,Kota Madiun,Jawa Timur,-7.623031000000000,111.522011000000000,rs
RS Lanuma Iswahyudi,Lanud Iswahyudi Magetan,A,3,Kota Madiun,Jawa Timur,-7.611972000000000,111.439250000000000,rs
RS Islam Siti Aisyah,Jl. Mayjen SungkoNo. 38 - 40 Madiun,A,,Kota Madiun,Jawa Timur,-7.632469000000000,111.512258000000000,rs
RSUD Kota Madiun,"Jl. Campursari No.12,Madiun",A,C,Kota Madiun,Jawa Timur,-7.626594000000000,111.522278000000000,rs
RSU Dr. Soetomo,Jl. Prof Dr. Moestopo Surabaya,A,A,Surabaya,Jawa Timur,-7.266681000000000,112.758222000000000,rs
RS Al Dr Ramelan,Jl. Gadung No. 1 Surabaya,A,1,Surabaya,Jawa Timur,-7.308367000000000,112.737981000000000,rs
RS William Booth,"Jl. Diponegoro 34,Surabaya",A,,Surabaya,Jawa Timur,-7.290969000000000,112.737000000000000,rs
RS Adi Husada Pusat,"Jl. Undaan Wetan 40-44,Surabaya",A,,Surabaya,Jawa Timur,-7.251831000000000,112.746000000000000,rs
RS Griya Husada Surabaya,"Jl. Dukuh Pakis No.2,Surabaya",A,,Surabaya,Jawa Timur,-7.293461000000000,112.708322000000000,rs
RS Al Tanjung Perak,"Jl. Laksda M.Nazir No.56,Surabaya",A,3,Surabaya,Jawa Timur,-7.212456000000000,112.724331000000000,rs
RS Islam Surabaya,Jl. Jend A Yani 2-4 Surabaya,A,C,Surabaya,Jawa Timur,-7.323511000000000,112.740706000000000,rs
"Rumkit Tk III Brawijaya,Sby",Jl. Kesatrian No.17 Surabaya,A,3,Surabaya,Jawa Timur,-7.297850000000000,112.725183000000000,rs
RS AL Pal Surabaya,Jl. Taruna 66-68 Ujung Surabaya,A,4,Surabaya,Jawa Timur,-7.207358000000000,112.740486000000000,rs
RS AL Gunungsari,Jl. Golf No. 1 Surabaya,A,3,Surabaya,Jawa Timur,-7.305853000000000,112.712728000000000,rs
RS AL Juanda,"Jl. Bachtiar Yahya No.1,Juanda,Surabaya",A,4,Surabaya,Jawa Timur,-7.276589000000000,112.737281000000000,rs
RS TNI AU Soemitro,Jl. Serayu 17 Surabaya,A,4,Surabaya,Jawa Timur,-7.291472000000000,112.740767000000000,rs
RS AL Kodikal,Jl. Morokrembangan Surabaya,A,4,Surabaya,Jawa Timur,-7.305697000000000,112.741489000000000,rs
RS Jiwa Menur,Jl. Menur 120 Surabaya,B,A,Surabaya,Jawa Timur,-7.286750000000000,112.762000000000000,rs
RSIA I.B.I. Surabaya,Jl. Dupak 15A Surabaya,O,,Surabaya,Jawa Timur,-7.245861000000000,112.726000000000000,rs
RSIA Siti Aisyiah,Jl. Pacar Keling No.15A Surabaya,O,C,Surabaya,Jawa Timur,-7.259139000000000,112.757000000000000,rs
RSB Adi Guna,Jl. Alun-alun Rangkah 1-3 Surabaya,C,,Surabaya,Jawa Timur,-7.249481000000000,112.765000000000000,rs
RS Husada Utama,Jl. Prof Dr Moestopo 31-33-35 Surabaya,A,,Surabaya,Jawa Timur,-7.265533000000000,112.756314000000000,rs
RSUD Dr. Mohamad Soewandhie,Jl. Tambakrejo 45-47 Surabaya,A,B,Surabaya,Jawa Timur,-7.246131000000000,112.758000000000000,rs
RS Mitra Keluarga Surabaya,Jl. Satelit Indah II Surabaya,A,,Surabaya,Jawa Timur,-7.266869000000000,112.691000000000000,rs
RSB Pura Raharja,Jl. Puncang Adi No.12 Surabaya,C,,Surabaya,Jawa Timur,-7.282781000000000,112.752000000000000,rs
RS Gotong Royong,Jl. Medokan Semampir Indah Sby,A,,Surabaya,Jawa Timur,-7.307619000000000,112.787000000000000,rs
RSK Bedah Bhakti Rahayu,Jl. Ketintang Madya I/16 Surabaya,K,,Surabaya,Jawa Timur,-7.320594000000000,112.721794000000000,rs
RSGM FKG Univ.Erlangga,Jl. Prof Dr Moestopo 47 Sby,T,,Surabaya,Jawa Timur,-7.264681000000000,112.757000000000000,rs
RSGM Hang Tuah Surabaya,FKG Hang Tuah Surabaya,T,,Surabaya,Jawa Timur,-7.290911000000000,112.792803000000000,rs
RS Islam Darus Syifa,"Jl. Raya Benowo No.5,Surabaya",A,C,Surabaya,Jawa Timur,-7.235381000000000,112.613000000000000,rs
RS Bhayangkara H.S.Samsoeri Mertojoso,"Jl. Achmad Yani No.16,Surabaya",A,4,Surabaya,Jawa Timur,-7.340028000000000,112.700261000000000,rs
RSUD Landak,Jl. Pemuda Ngabang,A,D,Landak,Kalimantan Barat,-7.042153000000000,112.896797000000000,rs
RSU Bunda Surabaya,,A,,,Jawa Timur,-7.227969000000000,112.741000000000000,rs
RSUD Kab.Bengkayang,Jl. Sanggau Ledo No.20 Bengkayang,A,D,Bengkayang,Kalimantan Barat,-0.278781000000000,111.475286000000000,rs
RSU Dr Rubini Mempawah,Jl. Dr Rubini Mempawah,A,C,Pontianak,Kalimantan Barat,-0.022522000000000,109.330308000000000,rs
RSU Sanggau,Jl. Jend Sudirman Sanggau,A,C,Sanggau,Kalimantan Barat,0.119275000000000,110.597297000000000,rs
RS PTPN XIII Parindu,Binjai Kec.Tayan Hulu Sanggau,A,,Sanggau,Kalimantan Barat,0.119275000000000,110.597297000000000,rs
RSU Dr. Agusdjam Ketapang,Jl. Panjaitan No.1 Ketapang,A,C,Ketapang,Kalimantan Barat,-1.859097000000000,109.971900000000000,rs
RSUD Kasongan,"Jl. Rumah Sakit No.1,Kasongan",A,C,,Kalimantan Tengah,-1.681489000000000,113.382353000000000,rs
RSUD Dr Murjani Sampit,Jl. H M Arsyad No. 65 Sampit,A,B,,Kalimantan Tengah,-2.540014000000000,112.952069000000000,rs
RSUD Dr H Soemarno S,Jl. Tambun Bungai Kuala Kapuas,A,C,Kapuas,Kalimantan Tengah,-3.002806000000000,114.391022000000000,rs
RSUD Poso,Jl. Jen.Sudirman No.33 Poso,A,C,Poso,Sulawesi Tengah,-0.200000000000000,113.500000000000000,rs
RSU Muara Teweh,Jl. Yetro Sinseng Muara Teweh,A,C,Barito Utara,Kalimantan Tengah,-1.433333000000000,114.450000000000000,rs
RSUD Sukamara,"Jl. Tjilik Riwut KM 5,5 Sukamara",A,D,Sukamara,Kalimantan Tengah,-2.716667000000000,111.183333000000000,rs
RSUD Balangan,"Jl. Lingkar Timur Km.1,7 Paringin Kab.Balangan",A,D,Balangan,Kalimantan Selatan,-2.321589000000000,112.746394000000000,rs
RS PTP XII Bakti Husada,Krikilan Glenmore Banyuwangi,A,,Banyuwangi,Jawa Timur,-8.308055000000000,114.014331000000000,rs
RSUD Sultan Imanuddin,Jl. St Syahrir 17 Pangkalan Bun,A,C,Waringin Barat,Kalimantan Tengah,-1.681489000000000,113.382353000000000,rs
RSUD Kuala Kurun,Jl. Cilik Riwut No.43 Kuala Kurun Kalteng,A,D,Kapuas,Kalimantan Tengah,-1.681486000000000,113.382353000000000,rs
RSUD Buntok,"Jl. Patianom No.6, Buntok",A,C,Barito Selatan,Kalimantan Tengah,-1.744833000000000,114.821800000000000,rs
RSUD Tamiang Layang,Jl. Nansarunai Tamiang Layang,A,D,Barito Selatan,Kalimantan Tengah,-1.681489000000000,113.382353000000000,rs
RSUD Puruk Cahu,"Jl. A. Yani No. 497, Puruk Cahu",A,D,Barito Utara,Kalimantan Tengah,-1.681489000000000,113.382353000000000,rs
RSUD Lamandau,"Jl. Tjilik Riwut No.11,Nanga Bulik",A,D,Lamandau,Kalimantan Tengah,-1.681489000000000,113.382353000000000,rs
RSUD Kuala Pembuang,"Jl. A.Yani No.30,Kuala Pembuang",A,D,Seruyan,Kalimantan Tengah,-2.529681000000000,112.956189000000000,rs
RSUD Pulang Pisau,"Jl. Pemda No. 107, Pulang Pisau",A,D,Pulang Pisau,Kalimantan Tengah,-1.681489000000000,113.382353000000000,rs
RSUD Dr Doris Sylvanus,Jl. Tambun Bungai No.4 Palangkaraya,A,B,Palangka Raya,Kalimantan Tengah,-1.593422000000000,113.231489000000000,rs
Rumkit Tk.IV Palangkaraya,Jl. Diponegoro Palangkaraya,A,4,Palangka Raya,Kalimantan Tengah,-1.593422000000000,113.231489000000000,rs
RSJ Sambang Lihum,Jl. Purwosari Km 4 Tamban Kab Batola,B,A,Barito Kuala,Kalimantan Selatan,-0.789275000000000,113.921000000000000,rs
RSUD Abdul Aziz/Marabahan,"Jl. Jend Sudirman No.10,Marabahan",A,C,Barito Kuala,Kalimantan Selatan,-0.789275000000000,113.921000000000000,rs
RSUD Tarakan,"Jl. P. Irian Tengah,Tarakan",A,B,Tarakan,Kalimantan Timur,3.276089000000000,117.619400000000000,rs
RSUD Sangatta,Jl. Cut Nyak Dien No.1 Kutai Timur,A,C,Kutai Timur,Kalimantan Timur,0.520861000000000,117.435481000000000,rs
RS Dirgahayu,Jl. Merbabu No.40 Samarinda,A,,,Kalimantan Timur,-0.502183000000000,117.153800000000000,rs
RSUD Kab. Nunukan,Jl. Sei Fatimah,A,D,Nunukan,Kalimantan Timur,4.142586000000000,117.648803000000000,rs
RS Islam Samarinda,"Jl. Gurami No.18,Samarinda",A,,Samarinda,Kalimantan Timur,-0.502183000000000,117.153800000000000,rs
RS Bergerak Kab.Malinau,Langgap-Malinau Selatan,A,D,malinau,Kalimantan Timur,3.584222000000000,116.647797000000000,rs
RSUD Kab. Malinau,Jl. Raya Respen Tubu Kec. Malinau Utara Kab. Malinau,A,D,Malinau,Kalimantan Timur,3.584222000000000,116.647797000000000,rs
Rumkit Bhayangkara Balikpapan,"Jl. Jend. Sudirman No.14, Balikpapan",A,4,Balikpapan,Kalimantan Timur,-1.265386000000000,116.831200000000000,rs
RS Jiwa Atmamahusada Mahakam/Samarinda,Jl.Kakap No.23 Samarinda,B,B,Samarinda,Kalimantan Timur,-0.502183000000000,117.153800000000000,rs
RSUD Kota Bontang,"Jl. S. Parman No.01, Kota Bontang",A,B,Bontang,Kalimantan Timur,0.135597000000000,117.498597000000000,rs
RS Restu Ibu,"Jl. Proklamasi No.31,Padang",A,,Padang,Sumatera Barat,-1.271439000000000,116.837003000000000,rs
RSUD H Boejasin Pelaihari,Jl. Hadji Boejasin No.68 Kab. Tanah Laut,A,C,Tanah Laut,Kalimantan Selatan,3.354681000000000,117.596539000000000,rs
RSUD Panglima Sebaya,Jl. Ciptomangunkusumo No.2 T Grogot,A,C,Pasir,Kalimantan Timur,-1.971347000000000,116.228797000000000,rs
RSUD AM Parikesit Tenggarong,Jl. Imam Bonjol Tenggarong,A,B,Kutai Barat,Kalimantan Timur,-0.417325000000000,116.981400000000000,rs
RS Kusta Tenggarong,Jl. Tanjung Kupang Tenggarong,G,,Kutai Barat,Kalimantan Timur,-0.417325000000000,116.981400000000000,rs
RS Harapan Insan Sendawar,Jl. Mawar Desa Sendawar Kutai,A,C,Kutai Barat,Kalimantan Timur,-0.417325000000000,116.981400000000000,rs
RSUD Aji Batara Agung Dewa Sakti,Jl. Balikpapan - Handil II Samboja,A,C,Kutai Barat,Kalimantan Timur,-0.896722000000000,116.937103000000000,rs
RS St Yosef Tering,"Tering Baru, Kab.Kutai",A,,Kutai Kertanegara,Kalimantan Timur,-0.476011000000000,117.051258000000000,rs
RSUD Tanjung Selor,Jl. Cendrawasih Tanjung.Selor,A,C,Kutai Timur,Kalimantan Timur,2.850000000000000,117.366667000000000,rs
RSU Dr. Abd.Rivai Berau,Jl. Pulau Panjang No.275 Tanjung Redeb,A,C,Berau,Kalimantan Timur,2.162331000000000,117.696203000000000,rs
RS Pertamina Bunyu,Jl.Serdang P.Bunyu,A,,Bulongan,Kalimantan Timur,3.519144000000000,117.819419000000000,rs
RSUD Kab.Penajam Paser Utara,Jl. Propinsi Km.09 Kab.Penajam Paser Utara,A,C,Penajam Paser Utara,Kalimantan Timur,1.640631000000000,116.419389000000000,rs
RS Pertamina Balikpapan,Jl. Jend Sudirman Balikpapan,A,,Balikpapan,Kalimantan Timur,-1.274083000000000,116.852569000000000,rs
Rumkit Tk.III Dr R Hardjanto,Jl. Tanjungpura I Balikpapan,A,3,Balikpapan,Kalimantan Timur,-1.269889000000000,116.858000000000000,rs
RS PT ITCI,Jl. Rumah Sakit Balikpapan,A,,Balikpapan,Kalimantan Timur,-1.265386000000000,116.831200000000000,rs
RS Fatima Saumlaki,Jl.Komplek Misi Saumlaki Maluku Tenggara Barat,A,D,Maluku Tenggara,Maluku,-3.238461000000000,130.145272000000000,rs
RS St Yusuph Elat,Kei Besar Kab Maluku Tenggara,A,D,Maluku Tenggara,Maluku,-3.238461000000000,130.145272000000000,rs
RSK Bedah Bakti Rahayu,Jl. Ahmad Yani Ambon,Umum,D,Kota Ambon,Maluku,-3.706894000000000,128.162603000000000,rs
RSU Piru,jln. Arteri Piru,A,D,Seram Bagian Barat,Maluku,-3.238461000000000,130.145272000000000,rs
RSU Dr M Haulussy Ambon,Jl. Dr Kayadoe Ambon,A,B,Ambon,Maluku,-3.706894000000000,128.162603000000000,rs
RSU Tual,Jl. Merdeka Ohoijang Tual,A,C,Maluku Tenggara,Maluku,-5.637719000000000,132.662239000000000,rs
RS Hati Kudus Langgur,Langgur Kab.Maluku Tenggara,A,,Maluku Tenggara,Maluku,-5.666667000000000,132.716661000000000,rs
RSU Namlea,Jl. Anggrek Namlea Buru Utara,A,D,Maluku Tengah,Maluku,-3.233397000000000,127.085900000000000,rs
RSUD Cendrawasih Dobo,"Jl. Depnaker Km.6,Kepulauan Aru",A,D,Kepulauan Aru,Maluku,-6.000000000000000,134.500000000000000,rs
RSUD Kab.Seram Bagian Timur (Bula),"Jl. Wailola No.11-12 Bula,Kab.Seram Bag.Timur",A,D,Seram Bagian Timur,Maluku,-3.109681000000000,130.498506000000000,rs
Rumkit Tk.III JA. Latumeten,"Jl. Dr Tamaela No.2,Ambon",A,3,Ambon,Maluku,-3.656069000000000,128.166419000000000,rs
RS AL Ambon,Daeral 9 Halong Ambon,A,4,Ambon,Maluku,-3.626403000000000,128.217719000000000,rs
RS Lanu Patimura,Lanu Pattimura Ambon,A,4,Ambon,Maluku,-3.704997000000000,128.088881000000000,rs
RSKD Ambon,Jl. Laksdya Leo Wattimena Ambon,B,B,Ambon,Maluku,-3.656069000000000,128.166419000000000,rs
RS Hative,Tantui Ambon,A,,Ambon,Maluku,-3.656069000000000,128.166419000000000,rs
RS GPM Ambon,Jl. Anthonie Rhebok Ambon,A,,Ambon,Maluku,-3.656069000000000,128.166419000000000,rs
RS Al Fatah,Jl.Sultan Babullah 2 Ambon,A,,Ambon,Maluku,-3.701075000000000,128.175114000000000,rs
RS Islam Bina Warga,"Jl. Pemuda No.131 Keluarahan Toboleu, Ternate",A,D,Kota Madya Ternate,Maluku Utara,0.788067000000000,127.377156000000000,rs
RS Medika Harifalm Ternate,"Jl. Zainal Abidin Syah No.25, Ternate",A,D,Kota Ternate,Maluku Utara,0.788067000000000,127.377156000000000,rs
RSU Kota Tidore Kepulauan,Jl. Sultan mansyur No 11 Indonesiana Tidore maluku Utara,A,C,Kota Tidore Kpulauan,Maluku Utara,0.683333000000000,127.400000000000000,rs
RSUD Maba,Jl. Trans Halmahera Kota maba,A,D,Halmahera Timur,Maluku Utara,0.600000000000000,127.866667000000000,rs
RSUD Weda,"Jl. Raya Weda, Kab. Halmahera Tengah",A,D,Halmahera tengah,Maluku Utara,0.624608000000000,127.917347000000000,rs
RSUD Kab. Pulau Morotai,Jl. Puskesmas No.5 Desa Yayasan,A,D,mOROTAI,Maluku Utara,2.287261000000000,128.514317000000000,rs
RSU Daerah Tobelo,Jl. Lanbouw Samsungi Tobelo Halmahera Utara,A,C,Halmahera Barat,Maluku Utara,0.600000000000000,127.866667000000000,rs
RSUD Jailolo,"Jl.Raya Acango-Jailolo,Halmahera Barat",A,D,Halmahera Barat,Maluku Utara,1.070792000000000,127.465203000000000,rs
RS Bergerak Kab.Halmahera Utara,,A,D,Halmahera Barat,Maluku Utara,0.600000000000000,127.866667000000000,rs
RS Lanu Morotai,Morotai Kab Maluku Utara,A,4,Halmahera Tengah,Maluku Utara,2.365667000000000,128.400836000000000,rs
RSUD Sanana,"Jln. Dr. Sibarani - Falahu, Kep. Sula",A,D,Kepulauan Sula,Maluku Utara,-2.233700000000000,125.936994000000000,rs
RSU Ternate,Jl. Tanah Tinggi Ternate,A,B,Ternate,Maluku Utara,0.788067000000000,127.377156000000000,rs
Rumkit Tk.IV Ternate,"Jl. Ais Nasution No.2, Ternate",A,4,Ternate,Maluku Utara,0.788067000000000,127.377156000000000,rs
RSU Dharma Ibu Ternate,"Jl. Pahlawan Revolusi No.5, Ternate",A,,Ternate,Maluku Utara,0.788067000000000,127.377156000000000,rs
RSUD Patut Patuh Patju,"Jl. H. Lalu Anggrat BA No. 2, Gerung",A,C,Lombok Barat,Nusa Tenggara Barat,-8.691361000000000,116.112100000000000,rs
RSU Dr R Sudjono,Jl. Prof M Yamin SHNo.55 Selong,A,C,Lombok Timur,Nusa Tenggara Barat,-8.583647000000000,116.550581000000000,rs
RSU Mataram,"Jl. Pejanggik No.6, Mataram",A,B,Mataram,Nusa Tenggara Barat,-8.582411000000000,116.112000000000000,rs
RSUD Kota Mataram,Jl. Bung Karna Pagutan Mataram,A,D,Mataram,Nusa Tenggara Barat,-8.581825000000000,116.106833000000000,rs
RSU Praya,Jl. Basuki Rahmat No. 11 Praya,A,C,Lombok Tengah,Nusa Tenggara Barat,-8.710367000000000,116.272397000000000,rs
RS Islam Yatofa,"Jl. Raya Bodak,Praya Lombok Tengah",A,,Lombok Tengah,Nusa Tenggara Barat,-8.694622000000000,116.277708000000000,rs
RS Kusta Sepolong,Sepolong Kab Lombok Timur,G,,Lombok Timur,Nusa Tenggara Barat,-8.513447000000000,116.560986000000000,rs
RSU Sumbawa Besar,Jl. Garuda No. 5 Sumbawa Besar,A,C,Sumbawa,Nusa Tenggara Barat,-8.504042000000000,117.428497000000000,rs
RSU Dompu,"Jl. Kesehatan No. 1 Dompu, NTB",A,C,Dompu,Nusa Tenggara Barat,-8.545436000000000,118.445800000000000,rs
RSU Raba,Jl. Langsat No. 1 Raba Kab Bima,A,C,Bima,Nusa Tenggara Barat,-8.460567000000000,118.727403000000000,rs
RS Kusta Panda,Panda Kec Belo Kab Bima,G,,Bima,Nusa Tenggara Barat,-8.460567000000000,118.727403000000000,rs
Rumkit Tk.IV Wira Bhakti Mataram,Jl. Cokroaminoto 7 Mataram,A,4,Mataram,Nusa Tenggara Barat,-8.582158000000000,116.108761000000000,rs
RS Islam Siti Hajar,Jl. Catur Warga Mataram,A,,Mataram,Nusa Tenggara Barat,-8.585761000000000,116.112742000000000,rs
RS Sint Antonius Ampenan,Jl. Koperasi 61 Ampenan,A,,Mataram,Nusa Tenggara Barat,-8.568617000000000,116.084089000000000,rs
RS Jiwa Mataram,Jl. A Yani 1 Selagalas Mataram,B,B,Mataram,Nusa Tenggara Barat,-8.576531000000000,116.145764000000000,rs
RS Bhayangkara Mataram,"Jl. Langko No.64,Mataram",A,4,Mataram,Nusa Tenggara Barat,-8.580564000000000,116.092764000000000,rs
RS Risa Sentra Medika,"Jl. Pejanggik No.115 Cakranegara,Mataram",A,,Mataram,Nusa Tenggara Barat,-8.583992000000000,116.113433000000000,rs
RS ST Rafael Cancar,"Cancar Ruteng,Kab.Manggarai",A,D,Manggarai,Nusa Tenggara Timur,-8.657383000000000,121.079369000000000,rs
RSU Dr TC Hillers Maumere,Jl. Kesehatan Maumere,A,C,Sikka,Nusa Tenggara Timur,-8.620842000000000,122.207703000000000,rs
RS St Elizabeth Lela,"Lela Maumerem,Kab.Sikka",A,,Sikka,Nusa Tenggara Timur,-8.657383000000000,121.079369000000000,rs
RSU Soe,Jl. Boegenville No.7 Soe - Timor Tengah Selatan,A,D,Timor Tengah Selatan,Nusa Tenggara Timur,-9.696447000000000,124.481181000000000,rs
RS Lendemoripa,Jl. El Tari No.2 Waikabubak,A,D,Sumba Barat,Nusa Tenggara Timur,-9.409536000000000,119.245992000000000,rs
RS Kristen Lindimara,"Jl. Prof.DR WZ. Johannes No.6,Waingapu",A,D,Sumba Timur,Nusa Tenggara Timur,-9.662806000000000,120.266900000000000,rs
RSUD Naibonat,"Jl. Timor Raya KM.37 Oelamasi, Kupang",A,C,Kab Kupang,Nusa Tenggara Timur,-10.184300000000000,123.594853000000000,rs
RS Bukit Lewoleba,"Lewoleba, Lembata NTT",A,-,Flores Timur,Nusa Tenggara Timur,-8.657383000000000,121.079369000000000,rs
RSUD Kota Kupang,Jl. Timor Raya Pasir Panjang,A,C,Kupang,Nusa Tenggara Timur,-10.184300000000000,123.594853000000000,rs
RSUD Rote Ndao Ba&#39;a,"Jl. Busa langga, Kab Kupang",A,D,Kupang,Nusa Tenggara Timur,-10.184300000000000,123.594853000000000,rs
RSUD Dr. P.P Magretti Saumlaki,Jl. Ir. Soekarno - Poros Utama,A,D,Maluku Tenggara,Maluku,-8.730128000000000,120.737783000000000,rs
RS Karitas Weetabula,"Weetebula,Kab.Sumba Barat",A,,Sumba Barat,Nusa Tenggara Timur,-8.657383000000000,121.079369000000000,rs
RSU Waikabubak,"Jl. Adhyaksa Km-IV,Sumba Barat",A,C,Sumba Barat,Nusa Tenggara Timur,-8.657383000000000,121.079369000000000,rs
RSUD Waingapu,"Jl. Adam Malik No.54, Hambala Waingapu",A,D,Sumba Timur,Nusa Tenggara Timur,-9.662806000000000,120.266900000000000,rs
RSU Imanuel Sumba,"Jl. Nangka No.4,Waingapu-Sumba Timur",A,,Sumba Timur,Nusa Tenggara Timur,-9.662806000000000,120.266900000000000,rs
RSUD Kefamenanu,Jl. Letjen Suprapto Kefamenanu,A,D,Timor Tengah Utara,Nusa Tenggara Timur,-9.437953000000000,124.471297000000000,rs
RSUD Belu,Jl. Dr Sutomo No. II Atambua,A,C,Belu,Nusa Tenggara Timur,-9.101069000000000,124.891000000000000,rs
RS Marianum Halilolik,"Jl. Paroki Roh Kudus, Kab.Belu",A,,Belu,Nusa Tenggara Timur,-9.101069000000000,124.891000000000000,rs
RS Sito Husada,"Jl. KH.Dewantara No.15,Atambua Belu",A,,Belu,Nusa Tenggara Timur,-9.333333000000000,124.900000000000000,rs
RS Penyangga Perbatasan Betun,Jl. Sukabihanawa Desa Kamanasa Kec.Malaka Tengah,A,D,Belu,Nusa Tenggara Timur,-9.101069000000000,124.891000000000000,rs
RSUD Alor,Jl. Dr Sutomo Kalabahi Kab Alor,A,D,Alor,Nusa Tenggara Timur,-8.250000000000000,124.750000000000000,rs
RS Bergerak Kab.Alor,,A,D,Alor,Nusa Tenggara Timur,-8.250000000000000,124.750000000000000,rs
RSU Larantuka,"Jl. Moh Hatta No.19,Kab.Flores Timur",A,D,Flores Timur,Nusa Tenggara Timur,-8.346411000000000,122.979169000000000,rs
RS Kusta Lembata,Lembata Kab Flores Timur,G,,Flores Timur,Nusa Tenggara Timur,-8.657383000000000,121.079369000000000,rs
RSUD Lewoleba,"Jl.Trans Lembata No.1,Lewoleba,Lembata",A,D,Flores Timur,Nusa Tenggara Timur,-8.373692000000000,123.400025000000000,rs
RSUD Ende,Jl. Prof Dr. WZ.Johanes Ende,A,C,Ende,Nusa Tenggara Timur,-8.854053000000000,121.654197000000000,rs
RS St Antonius Jopu,"Jopu Wolowaru, Ende- Flores",A,,Ende,Nusa Tenggara Timur,-8.854053000000000,121.654197000000000,rs
RSU Bajawa,"Jl. Diponegoro No. 5, Bajawa",A,D,Ngada,Nusa Tenggara Timur,-8.792325000000000,120.960603000000000,rs
RSU Ruteng,"Jl. Diponegoro No.16,Kab Manggarai",A,D,Manggarai,Nusa Tenggara Timur,-8.614364000000000,120.466500000000000,rs
RSU Prof Dr WZ Johanes,Jl. Dr Moch Hatta No. 19 Kupang,A,B,Kupang,Nusa Tenggara Timur,-10.184300000000000,123.594853000000000,rs
RS Tk.IV Wirasakti Kupang,"Jl. Dr.DR.Moch Hatta No.3,Kupang",A,4,Kupang,Nusa Tenggara Timur,-10.184300000000000,123.594853000000000,rs
RS Bhayangkara,Jl. Nangka No. 54 Kupang,A,4,Kupang,Nusa Tenggara Timur,-10.184300000000000,123.594853000000000,rs
RSU St. Gabriel Kewapante Sikka,Kewapante Kabupaten Sikka,A,0,,Nusa Tenggara Timur,-8.740206000000000,122.188797000000000,rs
RSU Oksibil,jl. Poros Kabiding No. 2 Oksibil,A,D,ASMAT,Papua,-5.080178000000000,140.635803000000000,rs
RSU Merauke,Jl. SukarjowirjopraNo.to Merauke,A,C,Merauke,Papua,-8.495994000000000,140.394500000000000,rs
RS Mitra Masy.Timika,"Jl.SP2-SP5 Timika, Mimika",A,,Mimika,Papua,-4.531389000000000,136.888333000000000,rs
RS Kusta Merauke,Jl. Garuda Mopa Merauke,G,,Merauke,Papua,-8.495994000000000,140.394500000000000,rs
RSU Wamena,Jl. Trikora Wamena,A,D,Merauke,Papua,-4.098333000000000,138.951661000000000,rs
RSUD Paniai,"Jl. Raya Madi KM.7,Paniai Timur",A,D,Paniai,Papua,-4.354503000000000,139.365314000000000,rs
RS Efata Angguruk,Angguruk Kab Jayawijaya,A,,Puncak Jaya,Papua,-4.083611000000000,137.184722000000000,rs
RS Immanuel,Kec Mulia Kab Puncak Jaya,A,,Puncak Jaya,Papua,-4.083611000000000,137.184722000000000,rs
RSU Serui,Jl. Dr Sam Ratulangi Serui,A,D,Pemkab Yapen Waropen,Papua,-1.878014000000000,136.236664000000000,rs
RSUD Kab. Mimika,Jl. Yos Sudarso Kab. Mimika,A,D,Mimika,Papua,-4.354503000000000,139.365314000000000,rs
RS Bergerak Kab.Boven Digoel,,A,D,Boven Digoel,Papua,-6.083333000000000,140.283333000000000,rs
RSUD Kab.Keerom,"Jl. Bhayangkara,Kp. Asyaman,Distrik Arso,Kab.Keerom",A,D,Keerom,Papua,-4.354503000000000,139.365314000000000,rs
RS Jiwa Abepura,Jl. Kesehatan II Abepura,B,C,Jayapura,Papua,-2.606119000000000,140.669000000000000,rs
RSUD Mulia,"Jl. Papua, Pruleme, Distrik Mulia Kabupaten Puncak Jaya",A,D,,Papua,-4.083611000000000,137.184722000000000,rs
RSUD Supiori,Jl. Raya Korido Marsram Supiori Timur - Supiori,A,D,,Papua,-0.750000000000000,135.500000000000000,rs
RSU Manokwari,Jl. Bhayangkara No.I Manokwari,A,C,Kaimana,Papua Barat,-3.660925000000000,133.774506000000000,rs
Rumkitban Manokwari,Jl. Brawijaya Kodim 1703 Manokwari,A,4,Kaimana,Papua Barat,-0.861522000000000,134.078797000000000,rs
RS AL Manokwari,Jl. Serma Suwandi MaNo.kwari,A,4,Kaimana,Papua Barat,-0.861522000000000,134.078797000000000,rs
RS Bergerak Waisai,,A,D,Teluk Wondama,Papua Barat,-1.336114000000000,133.174717000000000,rs
RSU SCHOLOO Keyen,Jl. Teminabuan - Ayamaru Kampung Keyen - Teminbauan,A,D,,Papua Barat,-1.450000000000000,132.016667000000000,rs
RSUD Siak,"Jl. Raja Kecik No.1 Kampung dalam,Siak Sri Indrapura",A,C,Siak,Riau,0.783256000000000,102.069800000000000,rs
RS Islam Ibnu Sina,"Jl. Melati No.60,Pekanbaru",A,c,,Riau,0.525631000000000,101.436500000000000,rs
"RSUD Arifin Achmad,Pekanbaru","Jl. Diponegoro No. 2, Pekanbaru",A,B,,Riau,0.520639000000000,101.452533000000000,rs
RSUD.Dr. R.M. Pratomo Bagansiapiapi,"Jl. Pahlawan No.13,Bagansiapiapi",A,C,Bengkalis,Riau,1.466544000000000,102.250906000000000,rs
RSAB Eria Bunda,"Jl. KH.Ahmad Dahlan No.163,Pekanbaru",O,,,Riau,0.512017000000000,101.438000000000000,rs
RSU Puri Husada Tembilahan,"Jl. Veteran 52,Hilir Tembilahan",A,C,Indragiri Hilir,Riau,-0.347106000000000,103.169197000000000,rs
RSIA Mutia Sari,Jl. Bathin Betuah No.1-A Simp.Padang Duri,O,,Bengkalis,Riau,1.466544000000000,102.250906000000000,rs
RS Tk IV Pekanbaru,"Jl. Kesehatan No. 2,Pekanbaru",A,4,Pekanbaru,Riau,0.533333000000000,101.450000000000000,rs
RS Awal Bros Pekanbaru,"Jl. Sudirman No.117,Pekanbaru",A,B,Pekanbaru,Riau,0.497103000000000,101.455800000000000,rs
RS Khusus Bedah & Kebidanan Syafira,"Jl. Jenderal Sudirman No.134, Pekanbaru",O,B,riau,Riau,0.504839000000000,101.452044000000000,rs
RSUD Kec.Mandau,"Jl. Stadion No.10 Duri,Bengkalis",A,D,Bengkalis,Riau,1.259619000000000,101.213097000000000,rs
RS Bina Kasih,"Jl. Samanhudi No.3-5,Pekanbaru",A,C,Pekanbaru,Riau,0.533333000000000,101.450000000000000,rs
RSU Bangkinang,"Jl. A Rahman Saleh,Bangkinang",A,C,Kampar,Riau,0.346164000000000,101.118903000000000,rs
RS Pertamina Dumai,"Jl. Raya Bukit Datuk,Dumai",A,C,,Riau,1.665742000000000,101.447600000000000,rs
RSUD Petala Bumi,"Jl. Dr. Soetomo No.65, Pekanbaru",A,C,,Riau,0.528850000000000,101.456000000000000,rs
RS Efarina Etaham,"Jl. Lintas Timur No.1, Pangkalan Kerinci - Riau",A,,Riau,Riau,0.262411000000000,101.661564000000000,rs
RS PT Chevron Pasific Indonesia,Jl. Komplek Merapi Duri Camp.PT Chevron Pasific Indonesia,A,,riau,Riau,0.516403000000000,101.447094000000000,rs
Rumkit Bhayangkara Dumai,"Jl. Hang Tuah No.1 Dumai, Bengkalis",A,,Bengkalis,Riau,1.466544000000000,102.250906000000000,rs
RS Eka Hospital Pekanbaru,"Jl. Soekarno- Hatta Km.6,5, Pekanbaru",A,,riau,Riau,0.482261000000000,101.418944000000000,rs
RSUD dr. Rasidin Padang,"Sei.Sapih Kec.Kuranji,Padang",A,C,Padang,Sumatera Barat,0.904914000000000,100.380161000000000,rs
RSUD Teluk Kuantan,Jl. Kesehatan No. 1 Sinambak,A,C,Kuantan Singingi,Riau,-0.531417000000000,101.564578000000000,rs
RSU Indrasari Rengat,Jl. Lintas Timur Sumatera Rengat,A,C,Indragiri Hulu,Riau,-0.394033000000000,102.441736000000000,rs
RSUD Selasih Riau,Kabupaten Pelalawan Propinsi Riau,A,C,Pelalawan,Riau,0.402944000000000,101.845281000000000,rs
RS PTPN V Kbn Sri Rokan,Pos Ujung Batu Tandan Kampar,A,,Kampar,Riau,0.508294000000000,101.441047000000000,rs
RS Tandun,Komplek PTPN V Tandun Kampar,A,,Kampar,Riau,0.627431000000000,100.606869000000000,rs
RS Ibnu Sina Bangkinang,"Jl. Prof.M. Yamin,SH No.16A Bangkinang",A,,Kampar,Riau,0.525631000000000,101.436500000000000,rs
RSUD Kab.Rokan Hulu,"Jl. Syekh Ismail, Pasir Pengarayan",A,C,Rokan Hulu,Riau,0.874447000000000,100.288467000000000,rs
RSU Bengkalis,"Jl. Kelapapati Tengah No.90, Bengkalis",A,D,Bengkalis,Riau,1.466544000000000,102.250906000000000,rs
RSUD Selat Panjang,"Jl. Dorak - Selatpanjang 28753,Bengkalis",A,D,Bengkalis,Riau,1.004664000000000,102.741828000000000,rs
RS Kepolisian Pekanbaru,"Jl. Kartini No.14,Pekanbaru",A,4,Pekanbaru,Riau,0.520058000000000,101.448872000000000,rs
RS PT Caltex Rumbai,Rumbai Pekanbaru,A,,Pekanbaru,Riau,0.629061000000000,101.426492000000000,rs
RS Santa Maria Pekanaru,"Jl. A.Yani 68,Pekanbaru",A,,Pekanbaru,Riau,0.528050000000000,101.443150000000000,rs
RS Jiwa Tampan,"Jl. H.R. Subrantas Km.12,5,Pekanbaru",B,A,Pekanbaru,Riau,0.464850000000000,101.382300000000000,rs
RS Yayasan Abdurrab,"Jl. Jen.Sudirman 410,Pekanbaru",A,,Pekanbaru,Riau,0.504622000000000,101.452328000000000,rs
RS Bhayangkara Pekanbaru,"Simpang Tiga,Pekanbaru",A,4,Pekanbaru,Riau,0.515722000000000,101.449617000000000,rs
RS Nusalima,"Jl. Ronggowarsito No.40,Pekanbaru",A,,Pekanbaru,Riau,0.512708000000000,101.461336000000000,rs
RSIA&quot;Andini&quot;,Jl. Tuanku Tambusai No.55 - Pekanbaru,O,,Pekanbaru,Riau,0.505772000000000,101.437147000000000,rs
RS Lancang Kuning,"Jl. Ronggowarsito Ujung No.5A,Pekanbaru",A,,Pekanbaru,Riau,0.512961000000000,101.464589000000000,rs
RSU Pekanbaru Medical Center,"Jl. Lenbaga Pemasyarakatan No.25, Gobah Pekanbaru",A,,Pekanbaru,Riau,0.514183000000000,101.458500000000000,rs
RSU Dumai,"Jl. Tanjung Jati No.4,Dumai",A,C,Dumai,Riau,1.674500000000000,101.455167000000000,rs
RS Putri Tujuh Dumai,"Jl. Yos Sudarso No.1,Dumai",A,,Dumai,Riau,1.677192000000000,101.470208000000000,rs
RSU Polewali,Jl. Dr Ratulangi 50 Polewali,A,C,Polewali Mandar,Sulawesi Barat,-3.388600000000000,119.220467000000000,rs
RSU Mamuju Utara,"Jl. Bukit Husada - Ako No. 10, Pasangakayu",A,D,Mamuju Utara,Sulawesi Barat,-1.341567000000000,119.381436000000000,rs
RSU lapangan Minake,Minake Kecamatan Tandukkalua - Mamasa,Rumah Sakit Umum,-,Mamasa,Sulawesi Barat,-2.941450000000000,119.377878000000000,rs
RS Banua Mamase,"Mamasa, Kab.Polmas",A,,Mamasa,Sulawesi Barat,-2.941450000000000,119.377878000000000,rs
RSU Majene,"Jl. Poros Majene, Mamuju",A,C,Majene,Sulawesi Barat,-3.029725000000000,118.906278000000000,rs
RSUD Mamuju,Jl. Kurungan Bassi Mamuju,A,D,Mamuju,Sulawesi Barat,-2.699189000000000,118.862114000000000,rs
RS Kusta Makassar,"Jl. P Kemerdekaan Km.14,Makassar",G,B,,Sulawesi Selatan,-5.143661000000000,119.426339000000000,rs
RS Akademis Jaury,Jl. Bulusaraung No. 57 Makassar,A,,,Sulawesi Selatan,-5.131281000000000,119.416000000000000,rs
RSUD Syekh Yusup Gowa,Jl. Dr. Wahidin HS No.48 Sungguminasa,A,B,Gowa,Sulawesi Selatan,-5.330683000000000,119.698425000000000,rs
RSU Palopo,Jl. Samiun No.2 Palopo,A,C,Luwu,Sulawesi Selatan,-3.159203000000000,120.244342000000000,rs
RSU Tenriawaru Bone,Jl. W.Sudirohusodo Watampone,A,B,Bone,Sulawesi Selatan,-4.688475000000000,120.049892000000000,rs
RSUD HA. Sulthan Daeng Radja,Jl. Serikaya No. 17 Bulukumba,A,C,Bulukumba,Sulawesi Selatan,-5.555578000000000,120.185725000000000,rs
RS PT Semen Tonasa,Jl. Beruang No.1 Komp PT Semen Tonasa Pangkep,A,,Pangkajene Kepulauan,Sulawesi Selatan,-4.869214000000000,119.590714000000000,rs
RSU Luramay,Jl. AP Pettarani E19 Makassar,A,C,,Sulawesi Selatan,-5.166344000000000,119.437239000000000,rs
RSU Prof.Dr. A Makkatutu,Jl. Teratai No.20 Bantaeng,A,C,Bantaeng,Sulawesi Selatan,-5.542697000000000,119.951131000000000,rs
RSU Enrekang,Jl. Jend Sudirman Enrekang,A,C,Enrekang,Sulawesi Selatan,-3.519414000000000,119.779428000000000,rs
RS Islam Faisal,"Jl. AP Pettarani E19,Makasar",A,,Makassar,Sulawesi Selatan,-5.163381000000000,119.433000000000000,rs
RSB St Fatimah,Jl. Gn Merapi No. 73 Makassar,O,B,Makassar,Sulawesi Selatan,-5.138953000000000,119.417350000000000,rs
RS Fatima Makale,Jl. Nusantara No.18 Makale Tator,A,C,Tana Toraja,Sulawesi Selatan,-3.416667000000000,119.916667000000000,rs
RSU Sinjai,Jl. Jend Sudirman No. 47 Sinjai,A,c,Sinjai,Sulawesi Selatan,-5.139817000000000,120.242817000000000,rs
RSU Nene Mallomo,Jl. Wolter Monginsidi Rappang,A,C,Sidenreng Rappang,Sulawesi Selatan,-3.920461000000000,119.807767000000000,rs
RSU Andi Jemma Masamba,"Jl. Sultan Hasanuddin No.23, Masamba Luwu Utara",A,C,Luwu,Sulawesi Selatan,-2.554306000000000,120.333747000000000,rs
RSIA Chaterine Booth,Jl. Arief Rate No.15 Makassar,O,B,Makassar,Sulawesi Selatan,-5.146044000000000,119.413256000000000,rs
RSUD Batara Guru,Jl. Tomakaka - Lebani Kab. Luwu,A,D,Luwu,Sulawesi Selatan,-3.159203000000000,120.244342000000000,rs
RSU Elim Rantepao,Jl. A.Yani No. 68 Rantepao,A,,Toraja,Sulawesi Selatan,-2.974022000000000,119.896583000000000,rs
RSIA Pertiwi Makasar,"Jl. Jend.Sudirman No.14, Makasar",O,B,Makasar,Sulawesi Selatan,-5.140600000000000,119.414597000000000,rs
RSU Selayar,Jl. Dr Wahidin S No. 23 Selayar,A,C,Selayar,Sulawesi Selatan,-6.000000000000000,120.500000000000000,rs
RSUD Lanto Daeng Pasewang/Jeneponto,Jl. Kesehatan No. 8 Bonto Sunggu,A,C,Jeneponto,Sulawesi Selatan,-5.554578000000000,119.673094000000000,rs
RSU H. Pajonga Dg.Ngale Takalar,"Jl. Incesuhsan No.1 Dg, Parani Takalar",A,C,Takalar,Sulawesi Selatan,-5.416250000000000,119.487567000000000,rs
RS Ibu dan Anak 165,"Jl. Ary Ginanjar No.1,Moncongloe Lappara",O,,Bone,Sulawesi Selatan,-2.083333000000000,120.216667000000000,rs
Rumkit Tk.IV Dr. M Yasin Bone,Jl. Jend Sudirman Watampone,A,4,Bone,Sulawesi Selatan,-4.538772000000000,120.324997000000000,rs
RSU Salewangeng Maros,Jl. Ujung Pandang KM 3 Maros,A,C,Maros,Sulawesi Selatan,-5.005839000000000,119.574306000000000,rs
RS Dr. Dody Saryoto,Lanu Hasanudin Maros,A,4,Maros,Sulawesi Selatan,-5.005839000000000,119.574306000000000,rs
RSU Pangkep,Jl. Sultan Hasanudin 7 Pangkajene,A,C,Pangkep,Sulawesi Selatan,-5.139708000000000,119.410081000000000,rs
RSU Barru,Jl. Lasawedi Kel.Coppo Kec.Barru Kab.Barru,A,D,Barru,Sulawesi Selatan,-4.418039000000000,119.690047000000000,rs
RSU Ajapange Soppeng,Jl. Samudra No.4 Watansoppeng,A,C,Barru,Sulawesi Selatan,-4.418039000000000,119.690047000000000,rs
RSU Lamadukeleng Sengkang,Jl. K.Chandra Kirana Sengkang,A,C,Wajo,Sulawesi Selatan,-4.148744000000000,120.039753000000000,rs
RSIA Rappang,Jl. Achmad Yani No. 1 Rappang,O,,Sidenreng Rappang,Sulawesi Selatan,-3.773897000000000,120.020297000000000,rs
RSU Lasinrang Pinrang,Jl. Macan No. 9 Pinrang,A,C,Pinrang,Sulawesi Selatan,-3.648350000000000,119.557167000000000,rs
RS PT INCO,"Soroako, Kab.Luwu",A,,Luwu,Sulawesi Selatan,-2.531806000000000,121.358003000000000,rs
RS Kusta Kalang Kalang,Jl. Dr Ratulangi Palopo,G,,Luwu,Sulawesi Selatan,-3.000000000000000,120.200000000000000,rs
RS At - Medika,Jl. Andi Djemma No. 9 Palopo,A,,Luwu,Sulawesi Selatan,-3.002739000000000,120.198000000000000,rs
RS Kusta Batulelleng,Jl. Taman Pahlawan Rantepao,G,,Tana Toraja,Sulawesi Selatan,-2.960772000000000,119.905192000000000,rs
RSU Lakipadada Tana Toraja,Jl. Pongtiku Mandetek Tana Toraja,A,C,Tana Toraja,Sulawesi Selatan,-2.992300000000000,119.885547000000000,rs
RSUD I Lagaligo,"Jl. Sangkuruwira,Kec.Wotu Kab.Luwu Timur",A,C,Luwu Timur,Sulawesi Selatan,-2.582553000000000,121.171039000000000,rs
RSU Labuang Baji,Jl. Dr. Ratulangi No.81 Makassar,A,B,Makassar,Sulawesi Selatan,-5.162981000000000,119.419000000000000,rs
Rumkit Tk.II Pelamonia,"Jl. Jend Sudirman No.27,Makassar",A,2,Makassar,Sulawesi Selatan,-5.134739000000000,119.413825000000000,rs
RS Kepolisian Bhayangkara,Jl. Letjen Mapaodang Makassar,A,3,Makassar,Sulawesi Selatan,-5.174581000000000,119.416000000000000,rs
RS Stella Maris,Jl. Somba Opu No.273 Makassar,A,,Makassar,Sulawesi Selatan,-5.144039000000000,119.409000000000000,rs
RS Lanal Makassar,Jl. Satando Makassar,A,4,Makassar,Sulawesi Selatan,-5.116314000000000,119.412808000000000,rs
RSB Wahyu,"Jl. Laccukang No.10,Makassar",C,,Makassar,Sulawesi Selatan,-5.133028000000000,119.428158000000000,rs
RSU Dr W Sudirohusodo UP,"Jl. P Kemerdekaan Km.11,Makasar",A,A,Makassar,Sulawesi Selatan,-5.106333000000000,119.510822000000000,rs
RS Hikmah,Jl. Yosef Latumahina No.1 Makassar,A,,Makassar,Sulawesi Selatan,-5.146150000000000,119.412003000000000,rs
RS 45 Makassar,Jl. U Sumoharjo Makassar,A,,Makassar,Sulawesi Selatan,-5.141589000000000,119.452000000000000,rs
RSU Haji Makassar,Jl. Dg. Ngeppe 14 Makassar,A,C,Makassar,Sulawesi Selatan,-5.179397000000000,119.415342000000000,rs
RS Grestelina,Jl. Hertasning Raya No.52 Makassar,A,,Makassar,Sulawesi Selatan,-5.158689000000000,119.437197000000000,rs
RSGM FKG Univ.Hasanudin,Jl. Perintis Kemerdekaan Mks,T,,Makassar,Sulawesi Selatan,-5.132411000000000,119.488000000000000,rs
RSUD Daya,"Jl. Perintis Kemerdekaan No. 14,Makasar",A,C,Makassar,Sulawesi Selatan,-5.106333000000000,119.510822000000000,rs
RS Fatima Pare-Pare,Jl. Ilham No.3 Pare-Pare,A,,Pare Pare,Sulawesi Selatan,-4.016667000000000,119.623611000000000,rs
RS Dim 1402 Pare-Pare,Jl. Karaeng Burane No.24 Pare Pare,A,4,Pare Pare,Sulawesi Selatan,-4.012386000000000,119.621872000000000,rs
RS Kusta Lauleng,Jl. P Pinrang Km 4 Pare Pare,G,,Pare Pare,Sulawesi Selatan,-3.999636000000000,119.634439000000000,rs
RSU Andi Makkasau Pare2,Jl. Nurussamawaty No.3 Pare-Pare,A,B,Pare Pare,Sulawesi Selatan,-4.016667000000000,119.623611000000000,rs
Rumkitban 07.08.05 Palopo,"Jl. Samiun, Palopo",A,0,,Sulawesi Selatan,-3.000000000000000,120.200000000000000,rs
RSUD Siwa,,A,,,Sulawesi Selatan,-3.712956000000000,120.419197000000000,rs
RSU Anuntaloko Parigi,Jl. Sis Al Jufri No.214 Parigi,A,C,Donggala,Sulawesi Tengah,-0.846275000000000,120.179711000000000,rs
RSUD Banggai,Jl. KM 7.Adean Kabupaten Banggai Kepulauan,A,C,Banggai,Sulawesi Tengah,-1.602811000000000,123.547803000000000,rs
Rumkit Bhayangkara Palu,"Jl. Lorong Suharso 1 No.30, Palu",A,4,Palu,Sulawesi Tengah,-0.898583000000000,119.850600000000000,rs
RSB Masyita,"Jl. Camba Jawayya No.24 Tello Baru, Makasar",C,C,Makasar,Sulawesi Selatan,-0.886700000000000,119.846711000000000,rs
RSU Prof.Dr. R.D Kandou Manado,"Jl. Raya Tanawangko No.56, Manado",A,B,Manado,Sulawesi Utara,1.493100000000000,124.841000000000000,rs
RSUD Kota Kotamobagu,Kelurahan Pobundayan Kecamatan Kotamobagu Selatan,A,D,Kotamobagu,Sulawesi Utara,0.734339000000000,124.308914000000000,rs
RS Islam Sitti Maryam,Jl. Pogindo Raya No.110 Tuminting Manado,A,,Manado,Sulawesi Utara,1.470889000000000,124.845461000000000,rs
RSU Ratatotok - Buyat,Dr. Vally Ch. H. Ratulangi (Plh),A,D,Pemkab Minahasa Tenggara,Sulawesi Utara,1.180311000000000,124.846978000000000,rs
RSUD Maria Walanda Maramis,Jl. Prof. Arnold Mononutu - Kel.Sarongsong II - Airmadidi,A,D,Minahasa Utara,Sulawesi Utara,1.410408000000000,124.972564000000000,rs
RSU Datoe Binangkang,Jl. Ade Irma Kotamubagu,A,C,Bolaang Mengondow,Sulawesi Utara,0.739658000000000,124.312056000000000,rs
RS Monompia,"Jl. A. Yani No.720,Kotamobagu Utara",A,,Bolaang Mengondow,Sulawesi Utara,0.739658000000000,124.312056000000000,rs
RSU Dr.Sam Ratulangi,Noogan Langowan Kab Minahasa,A,C,Minahasa,Sulawesi Utara,1.153392000000000,124.818258000000000,rs
RS Piveri,Jl. Raya Kawangkoan Minahasa,A,,Minahasa,Sulawesi Utara,1.153392000000000,124.818258000000000,rs
RS Bethesda GMIM Tomohon,Jl. Raya Tomohon,A,C,Minahasa,Sulawesi Utara,1.324569000000000,124.827950000000000,rs
RS Siloam GMIM Sonder,Kolongan Atas Sonder Minahasa,A,,Minahasa,Sulawesi Utara,1.153392000000000,124.818258000000000,rs
RS Gunung Maria,Jl. Sejahtera No. 282 Tomohon,A,,Minahasa,Sulawesi Utara,1.324569000000000,124.827950000000000,rs
RS Hermina,Lembean Minahasa,A,,Minahasa,Sulawesi Utara,1.206389000000000,124.916111000000000,rs
RS Budi Setia,Kayowas Jaga I Langowan Barat Minahasa,A,,Minahasa,Sulawesi Utara,1.152231000000000,124.837883000000000,rs
RS Cantia Tamposabaru,Tompasobaru Minahasa,A,,Minahasa,Sulawesi Utara,0.884453000000000,124.473036000000000,rs
RS Tonsea,Airmadidi Kab Minahasa,A,,Minahasa,Sulawesi Utara,1.402489000000000,124.959397000000000,rs
RS Kalooran,Buyungan Amurang Minahasa,A,,Minahasa,Sulawesi Utara,1.180342000000000,124.569297000000000,rs
RS Bergerak Kab.Kep.Talaud,,A,D,Kepulauan Talaud,Sulawesi Utara,4.092000000000000,126.768000000000000,rs
RS TK.Teling Manado,"Jl. 14 Februari Telling Atas,Manado",A,3,Manado,Sulawesi Utara,1.465019000000000,124.851000000000000,rs
RS Jiwa Manado,Jl. Bethesda 77 Manado,B,A,Manado,Sulawesi Utara,1.463533000000000,124.833811000000000,rs
RS Pancaran Kasih,Jl. Dr. Sam Ratulangi XIII,A,,Manado,Sulawesi Utara,1.478969000000000,124.836000000000000,rs
RS Bhayangkara Manado,"Jl. Sam Ratulangi No.154,Manado",A,4,Manado,Sulawesi Utara,1.455314000000000,124.837225000000000,rs
RS Permata Bunda,"Jl. Pingkan Matindas, Dendengan dalam,Manado",A,,Manado,Sulawesi Utara,1.493061000000000,124.841000000000000,rs
RS Advent Manado,"Jl. 14 Februari Telling Atas,Manado",A,,Manado,Sulawesi Utara,1.465019000000000,124.853778000000000,rs
RS AL Bitung,Jl. Yos Sudarso No. 26 Bitung,A,4,Bitung,Sulawesi Utara,1.444917000000000,125.186369000000000,rs
RSU Bitung,Jl. SH Sarundayang Kota Bitung,A,C,Bitung,Sulawesi Utara,1.455353000000000,125.204697000000000,rs
RS Ibnu Sina Padang Panjang,"Jl. Sukarno. Hatta,Padang Panjang",A,D,Sumbawa Barat,Sumatera Barat,-0.460908000000000,100.400492000000000,rs
RSU Sungai Dareh,"Jl. LTS Sumatera KM 2, P. Punjung",A,C,Dharmas Raya,Sumatera Barat,-0.930275000000000,101.451661000000000,rs
RS Jiwa Puti Bungsu,"Jl. H.Agus Salim No.36,Padang",RS Jiwa,D,Kota Padang,Sumatera Barat,-0.945628000000000,100.369125000000000,rs
RS PT Semen Padang,"Komp.PT Semen Indarung,Padang",RSU,D,Kota Padang,Sumatera Barat,-0.956061000000000,100.469000000000000,rs
RS Islam Ibnu Sina,Ds.Simpang Ampat Kab.Pasaman,A,D,Pasaman,Sumatera Barat,0.070925000000000,99.820267000000000,rs
RS Ibnu Sina Bukittinggi,"Jl. Belakang Balok,Bukittinggi",A,C,Bukittinggi,Sumatera Barat,-0.266950000000000,100.383478000000000,rs
RSUD Dr Adnaan WD,"Jl. AIS Nasution 25,Payakumbuh",A,C,Payakumbuh,Sumatera Barat,-0.233333000000000,100.633333000000000,rs
RSU Sawah Lunto,"Jl. Kartini No.18,Sawah Lunto",A,C,Sawah Lunto,Sumatera Barat,-0.666667000000000,100.783333000000000,rs
RSU Lubuk Basung,"Jl. M.Hatta Padang Baru,Lubuk Basung",A,C,Agam,Sumatera Barat,-0.254550000000000,100.172492000000000,rs
RSB An-Nisa,"Jl. Pemuda No.18,Padang",C,c,Padang,Sumatera Barat,-0.947014000000000,100.355031000000000,rs
RSU Dr. M.Jamil,Jl. Perintis Kemerdekaan Padang,A,B,Padang,Sumatera Barat,-0.888378000000000,100.362778000000000,rs
RSUD Lukas Hilisimaetano,Kabupaten Nias Selatan,A,D,Nias Selatan,Sumatera Utara,-1.122097000000000,98.748117000000000,rs
RSUD Kep. Mentawai,Jl. Raya Tuapejat KM.9 - Sipora Utara,A,C,Mentawai,Sumatera Barat,-2.061022000000000,99.591047000000000,rs
RSU Muara Labuh,"Jl. Raya Km.1,Muara Labuh Solok",A,D,Solok,Sumatera Barat,-1.302492000000000,101.046592000000000,rs
"RSUD Arosuka,Solok","Jl. Lintas Sumatera Aro Suka Solok,Kab.Solok",A,C,Solok,Sumatera Barat,-0.803028000000000,100.644403000000000,rs
RSU Prof Dr M.A Hanafiah,Jl. Bundo Kandung Batusangkar,A,C,Tanah Datar,Sumatera Barat,-0.459639000000000,100.590600000000000,rs
RSU Pariaman,"Jl. Prof M Yamin SH,Pariaman",A,C,Padang Pariaman,Sumatera Barat,-0.626975000000000,100.130650000000000,rs
RSU Suliki,"Jl. Tan Malaka No.1, Kec.Suliki",A,D,Limapuluh Kota,Sumatera Barat,-0.945711000000000,100.364653000000000,rs
RSU Lubuk Sikaping,"Jl. Jen Sudirman No.33,Lubuk Sikaping",A,C,Pasaman,Sumatera Barat,-0.135597000000000,100.168431000000000,rs
RSUD Pasaman Barat,Pemkab. Pasaman Barat,A,C,Pasaman Barat,Sumatera Barat,0.045683000000000,99.818158000000000,rs
Rumkit Tk III Reksodiwiryo Padang,"Jl. Dr Wahidin No.1,Padang",A,3,Padang,Sumatera Barat,-0.950636000000000,100.371786000000000,rs
RS Yos Sudarso,"Jl. Situjuh No. 1,Padang",A,,Padang,Sumatera Barat,-0.936247000000000,100.362000000000000,rs
RS Islam IIbnu Sina,"Jl. Gajah Mada,Padang",A,C,Padang,Sumatera Barat,-0.920744000000000,100.367375000000000,rs
RS Aisyiah Muhammadiyah,"Jl. H.A Salim No.6,Padang",A,,Padang,Sumatera Barat,-0.945628000000000,100.369125000000000,rs
RS Bhayangkara Sumbar,Jl. Jati No.I Padang,A,4,Padang,Sumatera Barat,-0.929311000000000,100.366836000000000,rs
RSB Sari,"Jl. Belakang Olo No.49,Padang",C,,Padang,Sumatera Barat,-0.945789000000000,100.357294000000000,rs
RSB Bunda Padang,"Jl. Gajah Mada No.35,Padang",C,,Padang,Sumatera Barat,-0.919392000000000,100.365217000000000,rs
RS Selaguri,"Jl. A.Yani No.26,Padang",A,,Padang,Sumatera Barat,-0.942803000000000,100.358094000000000,rs
RS Mata Oculer,"Jl. Sawahan No.69,Padang",D,,Padang,Sumatera Barat,-0.945678000000000,100.372372000000000,rs
RS Jantung Sumbar,"Jl. Khatib Sulaiman No.71,Padang",L,D,Padang,Sumatera Barat,-0.915019000000000,100.358567000000000,rs
RS Mata Perintis,"Jl. P.Kemerdekaan No.71,Padang",D,,Padang,Sumatera Barat,-0.889017000000000,100.363000000000000,rs
RSB Lenggogeni,"Jl. Purus II No.1,Padang",C,,Padang,Sumatera Barat,-0.939967000000000,100.353528000000000,rs
RS Mata Sitawa,"Jl. Kartini No.17,Padang",D,,Padang,Sumatera Barat,-0.940067000000000,100.359458000000000,rs
RSK Bedah Ropanasuri,"Jl. Aur No.8,Padang",K,,Padang,Sumatera Barat,-0.935383000000000,100.359308000000000,rs
RS Selasih,"Jl. Khatib Sulaiman 72,Padang",A,,Padang,Sumatera Barat,-0.915008000000000,100.358561000000000,rs
RSUD Solok,"Jl. Simpang Rumbio,Solok",A,C,Sawah Lunto,Sumatera Barat,-1.476997000000000,101.046858000000000,rs
RSU Padang Panjang,"Jl. KHA Dahlan 5,Pdg Panjang",A,C,Padang Panjang,Sumatera Barat,-0.448875000000000,100.416972000000000,rs
RSU Dr. Achmad Mochtar,Jl. Dr. A.Rivai Bukittinggi,A,B,Bukittinggi,Sumatera Barat,-0.299722000000000,100.366067000000000,rs
Rumkit Tk IV Bukit Tinggi,"Jl. Jen Sudirman 37,Bukittinggi",A,4,Bukittinggi,Sumatera Barat,-0.316506000000000,100.374739000000000,rs
RS Stroke Nasional Bukittinggi,"Jl. Jend Sudirman,Bukittinggi",N,B,Bukittinggi,Sumatera Barat,-0.315819000000000,100.374689000000000,rs
RSU Dr. Mohammad Hoesin,"Jl. Jend.Sudirman KM 3.5,Palembang",A,A,Kota Palembang,Sumatera Selatan,-2.972911000000000,104.751933000000000,rs
RS Charitas,"Jl. Sudirman 1054,Palembang",A,B,Kota Palembang,Sumatera Selatan,-2.976550000000000,104.754000000000000,rs
RSUD Dr. Ibnu Sutowo Baturaja,"Jl. Dr. Moh.Hatta No.1,Baturaja",A,C,Ogan Komering Ulu,Sumatera Selatan,-4.279208000000000,104.107575000000000,rs
RSU Dr. Sobirin Musirawas,"Jl. Yos Sudarso No.13,Lubuk Linggau",A,C,Musi Rawas,Sumatera Selatan,-3.296897000000000,102.859900000000000,rs
RSUD Lebong,Jl. Muning Agung Desa Muning Agung Kec. Lebong Sakti,A,D,Lebong,Bengkulu,-2.992617000000000,102.382203000000000,rs
RS Bukit Asam,"Jl. Raya Bukit Asam,Tanjung Enim",A,C,Muara Enim,Sumatera Selatan,-3.637486000000000,103.781331000000000,rs
RS Panti Bhaktiningsih,Tegalrejo Belitang Kab.OKU Timur,A,,Ogan Komering Ulu,Sumatera Selatan,-4.279208000000000,104.107575000000000,rs
Rumkit Tk IV Lahat,"Jl. Mayor Ruslan I No.26,Lahat",TNI-AD,D,Lahat,Sumatera Selatan,-3.747475000000000,103.423703000000000,rs
RSUD Talang Ubi,Jl. Taman Siswa Kel.Pasar Bhayangkara,A,D,Muara Enim,Sumatera Selatan,-3.637486000000000,103.781331000000000,rs
RSUD Basemah Kota Pagar Alam,"Jl. S.Parman Pagar Alam,Lahat",A,C,Lahat,Sumatera Selatan,-4.037669000000000,103.265297000000000,rs
RS Siti Khadijah,"Jl. Demang Lebar Daun,Palembang",A,C,Palembang,Sumatera Selatan,-2.973092000000000,104.728561000000000,rs
RSU Prabumulih,"Jl. Lingkar, Kel. Gunung Ibul, Kec. Prabumulih Timur",A,C,,Sumatera Selatan,-3.481708000000000,104.237183000000000,rs
RSUD Sungai Lilin,Kec.Sungai Lilin Kab.Musi Banyuasin,A,D,Musi Banyuasin,Sumatera Selatan,-3.319436000000000,103.914400000000000,rs
RSUD Bayung Lencir,"Jl raya Palembang-Jambi KM 200 Kec, bayung Lencir",A,D,Musi Banyuasin,Sumatera Selatan,-2.254253000000000,103.817958000000000,rs
RSUD Oku Timur (Gumawang),"Jl. Mayjen Warsito Kec.Belitung,Gumawang",A,C,Ogan Komering Ulu,Sumatera Selatan,-4.279208000000000,104.107575000000000,rs
RS St Antonio,"Jl. Komisaris Umar 33,Baturaja",A,,Ogan Komering Ulu,Sumatera Selatan,-4.113992000000000,104.169828000000000,rs
RSU Kayuagung,"Jl. Letnan Marzuki,Kayu Agung",A,C,Ogan Komering Ilir,Sumatera Selatan,-4.094692000000000,104.166331000000000,rs
RS Pertamina Prabumulih,"Jl. Kesehatan No.100,Prabumulih",A,,Prabumulih,Sumatera Selatan,-3.435192000000000,104.226019000000000,rs
RSU Muara Enim,"Jl. Dr AK Gani No.84,Muara Enim",A,C,Muara Enim,Sumatera Selatan,-3.639906000000000,103.774719000000000,rs
RS AR Bunda Prabumulih,Jl. Angkatan 45 Kel.Prabumulih Timur,A,,Prabumulih,Sumatera Selatan,-3.433517000000000,104.226239000000000,rs
RSU Lahat,"Jl. Mayor Ruslan I No. 28,Lahat",A,C,Lahat,Sumatera Selatan,-3.746900000000000,103.424681000000000,rs
RSUD Siti Aisyiah,"Jl. Lapter Silampari Kel.Air Kuti,Lubuk Linggau Timur",A,D,Lubuk Linggau,Sumatera Selatan,-3.269861000000000,102.919481000000000,rs
RSUD Kab.Musi Rawas,"Kab.Musi Rawas,Sumsel",A,D,Musi Rawas,Sumatera Selatan,-3.296633000000000,102.860100000000000,rs
RSU Sekayu,"Jl. Kolonel Wahid Udin,Sekayu",A,C,Musi Banyuasin,Sumatera Selatan,-2.892100000000000,103.856686000000000,rs
RSUD Banyuasin,"Jl. Raya Palembang - Betung Km.48,Pangkalan Bali Banyuasin",A,D,Banyuasin,Sumatera Selatan,-2.852836000000000,104.542717000000000,rs
RS Pertamina Plaju,"Komp Pertamina Plaju,Palembang",A,,Palembang,Sumatera Selatan,-2.990864000000000,104.759411000000000,rs
Rumkit Tk II Dr. AK Gani Palembang,"Jl. S M Badaruddin II,Palembang",A,2,Palembang,Sumatera Selatan,-2.991639000000000,104.760908000000000,rs
RS PT Pusri Palembang,"Jl. Mayor M Zen,Palembang",A,,Palembang,Sumatera Selatan,-2.968408000000000,104.815933000000000,rs
RS Jiwa Palembang,"Jl. Kol.H. Barlian Km 6,Palembang",B,A,Palembang,Sumatera Selatan,-2.948536000000000,104.732983000000000,rs
RS Boom Baru,"Bomm Baru,Palembang",A,,Palembang,Sumatera Selatan,-2.979025000000000,104.776575000000000,rs
RSB Bunda,"Jl. Demang Lebar Daun,Palembang",C,,Palembang,Sumatera Selatan,-2.976347000000000,104.742911000000000,rs
RSB Tiara Fatrin,"Jl. Rajawali No.495-496,Palembang",C,,Palembang,Sumatera Selatan,-2.927764000000000,104.699656000000000,rs
RSUD Palembang Bari,"Jl. P. Usaha Seb Ulu,Palembang",A,B,Palembang,Sumatera Selatan,-2.962319000000000,104.779944000000000,rs
RS Myria Palembang,"Jl. Kol.H.Barlian Km.7,Palembang",A,,Palembang,Sumatera Selatan,-2.940900000000000,104.725000000000000,rs
RS Muhammadiyah Palembang,"Jl. A.Yani 13 Ulu,Palembang",A,,Palembang,Sumatera Selatan,-2.998408000000000,104.771664000000000,rs
RS Khusus Paru-Paru Pro.Sumatera Selatan,"Jl. Merdeka No.10,Palembang",F,B,Palembang,Sumatera Selatan,-2.991144000000000,104.755825000000000,rs
RS Khusus Mata Masyarakat,"Jl. Merdeka No.10 A,Palembang",D,B,Palembang,Sumatera Selatan,-2.991144000000000,104.755825000000000,rs
RSUD Kota Agung,"Jl. Sukarno Hatta Komplek Islamic Centre Kotaagung,Kab.Tanggamus",A,D,Tanggamus,Lampung,-4.146069000000000,103.516322000000000,rs
RS Mata Sriwijaya Eye Centre Palembang,"Jl. Jenderal Sudirman No. 502 Km.4,5, Palembang",D,C,,Sumatera Selatan,-2.970667000000000,104.750758000000000,rs
RSU Kabanjahe,"Jl. KS.Ketaren 8, Kabanjahe",A,C,Karo,Sumatera Utara,3.138567000000000,98.454631000000000,rs
RSU Artha Medica,Binjai Sumatera Utara,A,D,,Sumatera Utara,3.598611000000000,98.480278000000000,rs
RSU Dr.RM Joelham Binjai,"Jl. Sultan Hasanuddin 9,Binjai",A,B,,Sumatera Utara,3.600425000000000,98.485708000000000,rs
RS Dr Gerhard ML Tobing,Desa Buntu Bedimbar Tanjung Morawa Deli Serdang,C,3,Deli Serdang,Sumatera Utara,3.458222000000000,98.880436000000000,rs
RS Vita Insani,"Jl. Merdeka No.239, Pematang Siantar",rsu,C,Kota Pematang Siantar,Sumatera Utara,2.961683000000000,99.070928000000000,rs
RS Sehat,"Jl. Letda Sujono No.20 E Bandar selamat,Medan",Umum,,Kota Medan,Sumatera Utara,3.585242000000000,98.675597000000000,rs
RSUD Tebing Tinggi,"Desa Terusan Baru, Tebing tinggi",A,-,,Sumatera Selatan,3.319444000000000,99.152222000000000,rs
RSU Permata Madina,Jl. Merdeka No. 155 Panyabungan,A,C,Mandailing Natal,Sumatera Utara,0.792183000000000,99.409922000000000,rs
RSUD Natal,"Jl. Multatuli No. 72,Kab.Mandailing Natal",A,C,Mandailing Natal,Sumatera Utara,0.840222000000000,99.134903000000000,rs
RSU Delia,Jl. K.H. Dewantara No.24 Kec. Selesai Kabupaten Langkat,A,D,Langkat,Sumatera Utara,3.570622000000000,98.418433000000000,rs
RS Gleneagles Medan,"Jl. Listrik No.2A,Medan",A,B,Kota Medan,Sumatera Utara,3.586081000000000,98.676500000000000,rs
RSU Dr Pirngadi,"Jl. Prof H M Yamin SH 47, Medan",A,B,Kota Medan,Sumatera Utara,3.598119000000000,98.688400000000000,rs
RSU Sundari,"Jl. Jend. T.B.Simatupang No.31,Medan",A,,Kota Medan,Sumatera Utara,3.585242000000000,98.675597000000000,rs
RS Delima Medan,"Jl.Kl. Yos Sudarso Km.13,6 No.19 A, Medan - Martubung",A,D,,Sumatera Utara,3.696556000000000,98.673083000000000,rs
RSUD.Dr. H.Kumpulan Pane,Jl. Dr. K. Pane Tebing Tinggi,A,B,Tebing Tinggi,Sumatera Utara,3.319444000000000,99.152222000000000,rs
RS Sari Mutiara,"Jl. Kapten Muslim 79,Medan",A,B,Medan,Sumatera Utara,3.597981000000000,98.644747000000000,rs
RS Grand Medistra,Jl. Medan No.66 Desa Petapahan,A,,,Sumatera Utara,3.552111000000000,98.855644000000000,rs
RSU Inanta,"Jl. Sisingamangaraja No.85/87, Padang Sidempuan",A,,,Sumatera Utara,1.388058000000000,99.274872000000000,rs
RS Efarina Etaham,"Jl. Djamin Ginting, Berastagi - Desa Raya, Kab. Karo",A,,Karo,Sumatera Utara,3.110311000000000,98.281350000000000,rs
RS Full Bethesda,"Jl. Binjai Km.10,8/Jl. Sama No.71, Medan",A,,Medan,Sumatera Utara,3.591250000000000,98.623078000000000,rs
RSU Morawa Utama,"Jl. Medan Tanjung Morawa Km.18,5, Tanjung Morawa - Deli Serdang",A,,Deli-Serdang,Sumatera Utara,3.458072000000000,98.924533000000000,rs
RS Rahmad Hidayah,"Jl. Limau Manis Pasar XIII No.61, Desa Limau Manis, Tanjung Morawa",A,,Tanjung Morawa,Sumatera Utara,3.525714000000000,98.793944000000000,rs
RSU &quot; Insani &quot;,Jl. Perniagaan No.36 Kel.Stabat Baru Kec.Stabat Kabupaten Langkat,A,,Langkat,Sumatera Utara,3.760064000000000,98.207464000000000,rs
RSU Trianda,"Jl. Medan - Tebing Tinggi Km.42,5 No.752 B Ds.Bengkel Kec. Perbaungan Serdang B More ...",A,D,Serdang,Sumatera Utara,3.561089000000000,99.007592000000000,rs
RSU Melati,"Jl. Deli No.115 Perbaungan, Serdang Begadai",A,,Serdang,Sumatera Utara,3.599861000000000,98.678500000000000,rs
RSK Bedah &quot;Accuplast&quot;,"Jl. Sei Bahbolon No.40, Medan Baru",K,,Medan Baru,Sumatera Utara,3.582061000000000,98.654728000000000,rs
RSIA Badrul Aini,"Jl. Bromo Gg.Sukri No.18,Medan",O,,Medan,Sumatera Utara,3.575194000000000,98.711631000000000,rs
RSU Gunung Sitoli,"Jl. Cipto M Kusumo,Gn Sitoli",A,C,Nias,Sumatera Utara,1.273200000000000,97.622964000000000,rs
RSU Padang Sidempuan,"Jl. Dr. F.L. Tobing,Pd Sidempuan",A,B,Tapanuli Selatan,Sumatera Utara,1.419353000000000,99.185211000000000,rs
RSU Panyabungan,"Jl. Merdeka No.40,Panyabungan",A,C,Tapanuli Selatan,Sumatera Utara,0.854531000000000,99.561408000000000,rs
RSU Sipirok,"Jl. RSU No.1,Sipirok Tapsel",A,C,Tapanuli Selatan,Sumatera Utara,1.630233000000000,99.287764000000000,rs
RSUD Gunung Tua,Kab.Tapanuli Selatan,A,C,Tapanuli Selatan,Sumatera Utara,1.348142000000000,99.737250000000000,rs
RSUD Sibuhuan,Kec.Burumun Kab.Tap.Sel,A,C,Tapanuli Selatan,Sumatera Utara,1.052953000000000,99.791647000000000,rs
RSUD Pandan,"Jl. Imam Bonjol,Kab.Tapanuli Tengah",A,C,Tapanuli Tengah,Sumatera Utara,1.682028000000000,98.823069000000000,rs
RSU Tarutung,Jl. Bin Harun Said Tarutung,A,B,Tapanuli Utara,Sumatera Utara,2.034267000000000,98.958581000000000,rs
RSU Dr Hadrianus Sinaga,Jl. Dr Hadrianus S Pangururan,A,C,Tapanuli Utara,Sumatera Utara,2.601400000000000,98.704053000000000,rs
RSU Dolok Sanggul,Jl. Kesehatan Dolok Sanngul,A,D,Tapanuli Utara,Sumatera Utara,2.259583000000000,98.752689000000000,rs
RSU Porsea,"Jl. Parparean Porsea Kab,Taput",A,C,Tapanuli Utara,Sumatera Utara,2.340144000000000,99.109119000000000,rs
RS HKBP Balige,"Jl. Gereja No.17,Balige",A,C,Tapanuli Utara,Sumatera Utara,2.333306000000000,99.083314000000000,rs
RS Kusta Hutasalem,Desa Sintong Manipi Kec.Laguboti Tobasa,G,,Tapanuli Utara,Sumatera Utara,2.360142000000000,99.134878000000000,rs
RS YY Kesehatan Samosir,"Nainggolan Samosir, Kab.Tapanuli Utara",A,,Tapanuli Utara,Sumatera Utara,2.436733000000000,98.882081000000000,rs
RSU HKBP Nainggolan,"Nainggolan,Kab.Tapanuli Utara",A,,Tapanuli Utara,Sumatera Utara,2.434350000000000,98.883750000000000,rs
RSU Rantau Prapat,Jl. KH Dewantara Rantau Prapat,A,B,Labuhan Batu,Sumatera Utara,1.509161000000000,99.626400000000000,rs
RS PTP III Indrya Husada,Membang Muda Labuhan Batu,A,,Labuhan Batu,Sumatera Utara,2.552211000000000,99.660861000000000,rs
RS PTP VI Ajamu,Kebun Ajamu Labuhan Bilik,A,,Labuhan Batu,Sumatera Utara,2.520103000000000,100.167250000000000,rs
RS Sri Torgamba,"Torgamba Aek Batu,Labuhan Batu",A,,Labuhan Batu,Sumatera Utara,1.768717000000000,100.229736000000000,rs
"RSU H.Abd.Manan Simatupang, Kisaran",Jl. Sisingamangaraja Kisaran,A,C,Asahan,Sumatera Utara,2.078778000000000,99.853597000000000,rs
RS Ibu Kartini,Jl. Sekh Silau Rengas Kisaran,A,,Asahan,Sumatera Utara,2.981061000000000,99.622064000000000,rs
RS PTP VI Negaga,Bandar Pulau Kab.Asahan,A,,Asahan,Sumatera Utara,2.613539000000000,99.471247000000000,rs
RS PT Inalum,"Tanjung Gading, Kab.Asahan",A,,Asahan,Sumatera Utara,2.817472000000000,99.634136000000000,rs
RS PTP VIII Balimbingan,Balimbingan Pematang Siantar,A,,Simalungun,Sumatera Utara,2.886433000000000,99.166683000000000,rs
RS PTP IV Laras,Serbalawan Kab.Simalungun,A,,Simalungun,Sumatera Utara,3.133844000000000,99.148075000000000,rs
RS Bridgestone Sumatera Rubber Estate,"Dolok Marangir,Kab.Simalungun",A,,Simalungun,Sumatera Utara,3.133072000000000,99.147172000000000,rs
RSUD Simalungun,Kabupaten Simalungun,A,C,Simalungun,Sumatera Utara,2.957975000000000,99.069231000000000,rs
RSU Sidikalang,"Jl. Rumah Sakit 19,Sidikalang",A,C,Dairi,Sumatera Utara,2.752294000000000,98.309961000000000,rs
RS Serasi Kabanjahe,"Jl. L.R.Perangin-Angin No.34,Kabanjahe",A,,Karo,Sumatera Utara,3.135400000000000,98.454669000000000,rs
RS Kusta Lau Simomo,"Desa Lau Simomo,Kec.Kabanjahe,Kab.Karo",G,,Karo,Sumatera Utara,3.137533000000000,98.452942000000000,rs
RS Ester,"Jl. Veteran No.21,Kabanjahe",A,,Karo,Sumatera Utara,3.663794000000000,98.656442000000000,rs
RS Malem Ras,"Kabanjahe,Kab.Karo",A,,Karo,Sumatera Utara,3.139269000000000,98.456108000000000,rs
RS PTPN III Patumbukan,Kec Galang Kab.Deli Serdang,A,,Deli Serdang,Sumatera Utara,3.493797000000000,98.681894000000000,rs
RS Sembiring,"Jl. Besar No.77, Deli Tua",A,C,Deli Serdang,Sumatera Utara,3.490350000000000,98.681800000000000,rs
RSU Anirma,Jl. Teratai Baru Gg. Amal No. 95 Deli Tua,A,,Deli Serdang,Sumatera Utara,3.577469000000000,98.680664000000000,rs
RS Nur Saadah,"Tanjung Morawa Km.12,Deli Serdang",A,C,Deli Serdang,Sumatera Utara,3.568031000000000,98.714700000000000,rs
RS Sari Mutiara Lubuk Pakam,"Jl. Medan No.17,Lubuk Pakam",A,,Deli Serdang,Sumatera Utara,3.617203000000000,98.689167000000000,rs
RS Horas,"Jl. Bakaran Batu No.61,Lb Pakam Sumut",A,,Deli Serdang,Sumatera Utara,3.583464000000000,98.695247000000000,rs
RS Halvetia,Jl. Kapt Sumars No.Deli Serdang,A,,Deli Serdang,Sumatera Utara,3.615556000000000,98.650000000000000,rs
RSUD Sultan Sulaiman Syariful Alamsyah,Kabupaten Serdang Bedagai,A,C,Deli Serdang,Sumatera Utara,3.492603000000000,99.121019000000000,rs
RSU Sinar Husni,"Jl. Veteran Gg.Utama Psr.V Helvetia,Deli Serdang",A,,Deli Serdang,Sumatera Utara,3.454744000000000,98.907714000000000,rs
RSU Tanjung Pura,Jl. Khairil Anwar Tanjung Pura,A,C,Langkat,Sumatera Utara,3.899600000000000,98.415872000000000,rs
RS PTP II Tg Selamat,Padang Tualang Langkat,A,,Langkat,Sumatera Utara,3.815464000000000,98.348158000000000,rs
RS Pertamina P Brandan,Jl. Lhok Sukon Puraka P Brandan,A,,Langkat,Sumatera Utara,4.008322000000000,98.292606000000000,rs
RSU Dr Fl Tobing Sibolga,"Jl. Dr. FL. Tobing 35,Sibolga",A,B,Tapanuli Tengah,Sumatera Utara,1.700822000000000,98.822947000000000,rs
Rumkitban Sibolga,"Jl. Anggrek No.6,Sibolga",A,4,Tapanuli Tengah,Sumatera Utara,1.679917000000000,98.868011000000000,rs
BPRSU Dr. Tengku Mansyur,Jl. Mayjen Sutoyo Tanjung Balai,A,C,Tanjung Balai,Sumatera Utara,3.048817000000000,99.794914000000000,rs
RS Islam Al Karim,"Jl. Makam No.17,Tanjung Balai",A,,Tanjung Balai,Sumatera Utara,3.037339000000000,99.835250000000000,rs
RSUD.Dr. Djasaman Saragih,"Jl. Sutomo No. 230,P Siantar",A,B,Pematang Siantar,Sumatera Utara,2.958633000000000,99.069628000000000,rs
Rumkit Tk IV Pematang Siantar,"Jl. Gn Simanuk Manuk,P Siantar",A,4,Pematang Siantar,Sumatera Utara,2.959894000000000,99.070567000000000,rs
RS Harapan,"Jl. Farel Pasaribu 21,P.Siantar",A,,Pematang Siantar,Sumatera Utara,2.966008000000000,99.109228000000000,rs
RS Humanitas,"Jl. Asahan 105,Pematang Siantar",A,,Pematang Siantar,Sumatera Utara,2.956972000000000,99.064547000000000,rs
RS Manuela,"Jl. Sisingamangaraja,P.Siantar",A,,Pematang Siantar,Sumatera Utara,2.953442000000000,99.065908000000000,rs
RS Kasih Sayang,"Jl. Jawa No.61,Pematang Siantar",A,,Pematang Siantar,Sumatera Utara,2.961658000000000,99.054014000000000,rs
RS Mina Padi,"Jl. Medan KM.10,Pematang Siantar",A,,Pematang Siantar,Sumatera Utara,2.988261000000000,99.081472000000000,rs
RS Horas Insani,"Jl. Medan Km.2,5,Pematang Siantar",A,,Pematang Siantar,Sumatera Utara,2.986150000000000,99.080364000000000,rs
RS PTPN III Sri Pamela,Jl. Jend Sudirman Tebing Tinggi,A,,Tebing Tinggi,Sumatera Utara,3.320286000000000,99.149439000000000,rs
RS Herna Tebing Tinggi,"Jl. Balai Kota No.2,Tebing Tinggi",A,,Tebing Tinggi,Sumatera Utara,3.170758000000000,99.385336000000000,rs
RS PTP IX Tembakau,"Jl. Putri Hijau No.15, Medan",A,,Medan,Sumatera Utara,3.597831000000000,98.673900000000000,rs
Rumkit Tk II Putri Hijau Medan,"Jl. Putri Hijau 17,Medan",A,2,Medan,Sumatera Utara,3.595758000000000,98.675636000000000,rs
Rumkit Bhayankara Medan,"Jl. KH Wahid Hasyim No.1, Medan",A,2,Medan,Sumatera Utara,3.572600000000000,98.658500000000000,rs
RS Deli,"Jl. Merbabu No.18,Medan",A,,Medan,Sumatera Utara,3.580814000000000,98.657583000000000,rs
RS Santa Elisabeth Medan,"Jl. Haji Misbah No.7,Medan",A,,Medan,Sumatera Utara,3.575289000000000,98.676600000000000,rs
RS Herna,"Jl. Majapahit 118 A,Medan",A,,Medan,Sumatera Utara,3.579789000000000,98.665800000000000,rs
RS Advent Medan,"Jl. Gatot Subroto Km.4,Medan",A,,Medan,Sumatera Utara,3.590000000000000,98.647400000000000,rs
RS Dewi Maya,"Jl. Surakarta No.2,Medan",A,,Medan,Sumatera Utara,3.586939000000000,98.685156000000000,rs
RS Methodist,"Jl. Teuku Umar No.9-11,Medan",A,,Medan,Sumatera Utara,3.583789000000000,98.692900000000000,rs
RS Materna,"Jl. Teuku Umar 9-11,Medan",A,,Medan,Sumatera Utara,3.584481000000000,98.669000000000000,rs
RS AL Belawan,"Jl. Bengkalis Belawan No.1,Medan",A,3,Medan,Sumatera Utara,3.783683000000000,98.684317000000000,rs
RS Lanu Dr ABD Malik,"Jl. Imam Bonjol No.1,Medan",A,4,Medan,Sumatera Utara,3.579528000000000,98.676753000000000,rs
RS Islam Malahayati,"Jl. Diponegoro No.4,Medan",A,,Medan,Sumatera Utara,3.586719000000000,98.672600000000000,rs
RS Glugur,"Jl. Glugur No.140-142,Medan",A,,Medan,Sumatera Utara,3.591667000000000,98.669075000000000,rs
RS Ellyah,"Jl. Gedung Arca 49,Medan",A,,Medan,Sumatera Utara,3.567525000000000,98.695617000000000,rs
RS Sama Ria,"Jl. Sumatera 88 Belawan,Medan",A,,Medan,Sumatera Utara,3.785081000000000,98.690511000000000,rs
RS Jiwa Bina Atma,"Jl. Hos Cokroaminoto No.122, Medan",B,,Medan,Sumatera Utara,3.591678000000000,98.691608000000000,rs
RS Jiwa Medan,"Jl. Tali Air 21 Padang Bulan,Medan",B,A,Medan,Sumatera Utara,3.585222000000000,98.675572000000000,rs
RSU Vina Estetica,"Jl. Sultan Iskandar Muda No.119,Medan",A,,Medan,Sumatera Utara,3.587061000000000,98.661292000000000,rs
RS Helvetia,"Jl. Kapten Sumarsono No.107,Helvetia Medan",A,,Medan,Sumatera Utara,3.615369000000000,98.649714000000000,rs
RSU Mitra Sejati,Jl. Jend.AH Nasution No.7 Pangkalan Masyhur Medan,A,C,Medan,Sumatera Utara,3.540853000000000,98.679669000000000,rs
RS Hisarma,"Jl. Gatot Subroto 108,Medan",A,,Medan,Sumatera Utara,3.591031000000000,98.641989000000000,rs
RS Sari Cipta,"Jl. Medan Belawan Km.16,3,Medan",A,,Medan,Sumatera Utara,3.653922000000000,98.663467000000000,rs
RSU Mitra Medika,"Jl. K.L. Yos Sudarso Km 7,5 Tanjung Mulia,Medan",A,,Medan,Sumatera Utara,3.637389000000000,98.665808000000000,rs
RS Bhakti,"Jl. HM Joni No.64,Medan",A,,Medan,Sumatera Utara,3.568767000000000,98.697011000000000,rs
RS Pel Belawan I Bahagia,"Jl. Stasiun No.92, Belawan Medan",A,,Medan,Sumatera Utara,3.772269000000000,98.681467000000000,rs
RS Imelda,"Jl. Bilal No.24 Pulo Brayan Darat,Medan",A,,Medan,Sumatera Utara,3.622750000000000,98.683947000000000,rs
RS Martha Friska,"Jl. Yos Sudarso Km.6 No. 91,Medan",A,B,Medan,Sumatera Utara,3.683069000000000,98.665322000000000,rs
RS Melati,"Jl. Timor No.27 D,Medan",A,,Medan,Sumatera Utara,3.595889000000000,98.680539000000000,rs
RSU H Adam Malik,"Jl. Bunga Lau No.17,Medan",A,A,Medan,Sumatera Utara,3.518900000000000,98.610300000000000,rs
RS Renata Sakti,"Jl. Pesantren S Sekambing,Medan",A,,Medan,Sumatera Utara,3.587897000000000,98.636878000000000,rs
RS Bina Sejahtera,"Jl. Simpang Kantor No.6, Medan Labuhan",A,,Medan,Sumatera Utara,3.723469000000000,98.678128000000000,rs
RS Alqadri,"Jl. Binjai Km.7 No.237,Medan",A,,Medan,Sumatera Utara,3.591250000000000,98.623078000000000,rs
RS Permata Bunda,"Jl. Sisingamangaraja No.17,Medan",A,,Medan,Sumatera Utara,3.580747000000000,98.685783000000000,rs
RSIA Sri Ratu,"Jl. Nibung Raya No.204,Medan",O,,Medan,Sumatera Utara,3.585000000000000,98.675633000000000,rs
RSU Martondi,"Jl. Letda Sujono No.80-82,Medan",A,,Medan,Sumatera Utara,3.404942000000000,98.604800000000000,rs
RSU Sarah,"Jl. Baja Raya No.10,Medan",A,,Medan,Sumatera Utara,3.587736000000000,98.663572000000000,rs
RS Prof.Dr. Boloni,"Jl. Monginsidi No.11,Medan",A,C,Medan,Sumatera Utara,3.571014000000000,98.668675000000000,rs
RS Bina Persada Medan,"Jl. Letjen Djamin Ginting,Medan",A,,Medan,Sumatera Utara,3.552492000000000,98.615358000000000,rs
RS Bandung,Jl. Mistar Medan,A,,Medan,Sumatera Utara,3.590897000000000,98.645725000000000,rs
RSIA Rosiva,Medan,O,,Medan,Sumatera Utara,3.590178000000000,98.683094000000000,rs
RSU Haji Medan,"Jl. RS. Haji Medan Estate,Medan",A,C,Medan,Sumatera Utara,3.578550000000000,98.688803000000000,rs
RSIA Bunda Zahara,"Jl. Yos Sudarso No.209 K,Medan",O,,Medan,Sumatera Utara,3.682450000000000,98.665772000000000,rs
RS Bahagia Medan,"Jl. Bahagia 85 Ds.Teladan,Medan",A,,Medan,Sumatera Utara,3.562986000000000,98.702975000000000,rs
RS Estomihi,"Jl. Sisinga Mangaraja 235,Medan",A,,Medan,Sumatera Utara,3.561139000000000,98.693314000000000,rs
RSIA Harapan Ibu,"Jl. Danau Singkarak 13 A,Medan",O,,Medan,Sumatera Utara,3.604606000000000,98.647831000000000,rs
RSU Muhammadiyah Sumatera Utara,"Jl. Mandala By Pass No.27,Medan",A,C,Medan,Sumatera Utara,3.589814000000000,98.711397000000000,rs
RS Sufina Aziz,"Jl. Karya Baru No.1,Medan",A,,Medan,Sumatera Utara,3.590356000000000,98.711344000000000,rs
RS PTP IX Bangkatan,Jl. Hasanuddin Binjai,A,,Binjai,Sumatera Utara,3.600425000000000,98.485708000000000,rs
Rumkit Tk IV 01.07.02 Binjai,"Jl. Bandung No.4,Binjai",A,3,Binjai,Sumatera Utara,3.699319000000000,98.507100000000000,rs
RS Serasi Malem Binjai,"Jl. Imam Bonjol No.205,Binjai",A,,Binjai,Sumatera Utara,3.572100000000000,98.674600000000000,rs
RS Tingkat IV 01.07.03,"Jl. Raya Losung Batu,Padang Sidempuan",A,4,Padang Sidempuan,Sumatera Utara,3.596056000000000,98.675811000000000,rs
RSU Siti Hajar,"Jl. Letjend Jamin Ginting No.2, Medan",A,0,,Sumatera Utara,3.539369000000000,98.626200000000000,rs
RS Ibu dan Anak Propinsi NAD,"Jl. Prof.A.Majid Ibrahim I,Banda Aceh",O,B,Banda Aceh,Nanggroe Aceh Darussalam,5.546183000000000,95.319053000000000,rs
RSUD Simeulue,Kab.Simeulue,Umum,C,Simeulue,Nanggroe Aceh Darussalam,2.643972000000000,96.025575000000000,rs
RSU Datu Beru Takengon,Jl. Rumah Sakit Takengon,A,B,Aceh Tengah,Nanggroe Aceh Darussalam,4.613242000000000,96.846711000000000,rs
RSUD Sigli,Jl. Prof.Majid Ibrahim Sigli,A,C,Pidie,Nanggroe Aceh Darussalam,5.363519000000000,95.959553000000000,rs
RSU Dr. H.Yulidin Away,"Jl. T.Ben Mahmud No.86 A, Meulaboh",A,C,Aceh Selatan,Nanggroe Aceh Darussalam,3.000347000000000,97.366478000000000,rs
RSU Cut Meutia,"Jl. Garuda Kebun Baru,Langsa",A,D,Langsa,Nanggroe Aceh Darussalam,4.480000000000000,97.963333000000000,rs
RSIA Beureunuen,"Jl. Banda Aceh  Medan Km.125,5 Kota Mini - Beureunuen",O,,Pidie,Nanggroe Aceh Darussalam,5.342478000000000,95.922075000000000,rs
RSU Cut Meutia Lhoksemawe,Jl. Banda Aceh-Medan Km.6 Buket Rata Lhokseumawe,A,C,Bireuen,Nanggroe Aceh Darussalam,5.209453000000000,96.696953000000000,rs
RS Malahayati,"Jl. Medan - Banda Aceh No.100 M, Meunasah Blang - Bireuen",A,,Bireuen,Nanggroe Aceh Darussalam,5.209453000000000,96.696953000000000,rs
RS PTP IX Cot Girek,Lhok Sukon Kab. Aceh Utara,A,,Bireuen,Nanggroe Aceh Darussalam,5.066667000000000,97.257500000000000,rs
RS PT Arun,Komp.PT Arun Lhokseumawe,A,,Bireuen,Nanggroe Aceh Darussalam,5.188056000000000,97.140278000000000,rs
RS Yayasan Kasih Ibu,Jl. Merdeka No.17. Lhokseumawe,A,,Bireuen,Nanggroe Aceh Darussalam,5.179500000000000,97.146333000000000,rs
RSU Dr. Fauziah Bireun,Jl. RSU No.13. Bireuen,A,C,Bireuen,Nanggroe Aceh Darussalam,5.209453000000000,96.696953000000000,rs
RSIA Bunda,Jl. Darussalam 16.Lhokseumawe,O,,Bireuen,Nanggroe Aceh Darussalam,5.183375000000000,97.145697000000000,rs
Rumkit Tk IV Lhokseumawe Aceh Utara,Jl. Samudra Lhokseumawe AUT,A,4,Bireuen,Nanggroe Aceh Darussalam,5.189203000000000,97.148989000000000,rs
RSUD Tamiang,"Jl. Kesehatan,Kab.Aceh Tamiang",A,C,Aceh Tamiang,Nanggroe Aceh Darussalam,4.208039000000000,98.003497000000000,rs
RSUD Bener Meriah,Simpang Empat Kute Kering Kampung Kute Lintang Kec.Bukit Kab.Bener Meriah,A,D,Bener Meriah,Nanggroe Aceh Darussalam,4.695136000000000,96.749400000000000,rs
RSU Langsa,"Jl. Ahmad Yani No.1,Langsa",A,B,Aceh Timur,Nanggroe Aceh Darussalam,4.469239000000000,97.969961000000000,rs
RS Rehabilitasi Medik,Jl. Monisa Peureulak Kabupaten Aceh Timur,A,,,Nanggroe Aceh Darussalam,4.854303000000000,97.867303000000000,rs
RSU Graha Bunda,"Jl. Medan - Banda Aceh Bukit Pala, Idi Rayeuk - Aceh Timur",A,,,Nanggroe Aceh Darussalam,4.957303000000000,97.762978000000000,rs
RSUD Aceh Singkil,Jl. Rimo/Singkil Km.8,A,C,Aceh Singkil,Nanggroe Aceh Darussalam,2.279364000000000,97.805900000000000,rs
RSU Kutacane,Jl. Blang Kejeran Kutacane,A,C,Aceh Tenggara,Nanggroe Aceh Darussalam,3.767944000000000,97.589111000000000,rs
RS Pertamina Rantau,Jl. Cepu Rantau Kab. Aceh Timur,A,C,Aceh Timur,Nanggroe Aceh Darussalam,4.345525000000000,98.106075000000000,rs
RS Cut Nyak Dhien Langsa,Jl. T.M. Bachrun No.1. Langsa,A,,Aceh Timur,Nanggroe Aceh Darussalam,4.479281000000000,97.956522000000000,rs
RSUD Idi Rayeuk,Kabupaten Aceh Timur,A,D,Aceh Timur,Nanggroe Aceh Darussalam,4.836744000000000,97.662744000000000,rs
RSU Cut Nyak Dhien,Jl. Gajah Mada Meulaboh,A,C,Aceh Barat,Nanggroe Aceh Darussalam,4.136606000000000,96.124694000000000,rs
RSU Kota Jantho,Jl. Transmigrasi I Kota Jantho,A,C,Aceh Besar,Nanggroe Aceh Darussalam,5.170164000000000,95.698206000000000,rs
RSUD Kab.Aceh Barat Daya,"Blang Pidie,Aceh Barat Daya",A,C,Aceh Barat Daya,Nanggroe Aceh Darussalam,3.879514000000000,96.957675000000000,rs
RSUD Nagan Raya,"Jl. Nasional Km.28,5 Ujung Patihah",A,C,Nagan Raya,Nanggroe Aceh Darussalam,4.131444000000000,96.489183000000000,rs
RS Bergerak Kab.Bener Meriah,,A,D,Bener Meriah,Nanggroe Aceh Darussalam,4.634664000000000,96.853456000000000,rs
RSU Dr. Zainoel Abidin,"Jl. Tgk Daud Beureueh,B Aceh",A,B,Banda Aceh,Nanggroe Aceh Darussalam,5.569967000000000,95.341075000000000,rs
Rumkit Tk III Banda Aceh,Jl. Kesehatan Banda Aceh,A,3,Banda Aceh,Nanggroe Aceh Darussalam,5.868111000000000,95.341758000000000,rs
RS Jiwa Banda Aceh,"Jl. Syarief Thayeb,Banda Aceh",B,A,Banda Aceh,Nanggroe Aceh Darussalam,5.565356000000000,95.338889000000000,rs
RS Malahayati,"Jl. Cut Nyak Dhien 4,Banda Aceh",A,,Banda Aceh,Nanggroe Aceh Darussalam,5.545172000000000,95.308389000000000,rs
RSIA Harapan Bunda,"Jl. Teuku Umar 181,Banda Aceh",O,,Banda Aceh,Nanggroe Aceh Darussalam,5.539992000000000,95.309961000000000,rs
RS Teuku Fakinah,"Jl. Jend.Sudirman 27-29,Banda Aceh",A,,Banda Aceh,Nanggroe Aceh Darussalam,5.531211000000000,95.304203000000000,rs
RSU Meuraxa,Banda Aceh,A,C,Banda Aceh,Nanggroe Aceh Darussalam,5.518411000000000,95.317247000000000,rs
RS Permata Hati,"Jl. Sultan Iskandar Muda No.217,Banda Aceh",A,,Banda Aceh,Nanggroe Aceh Darussalam,5.547972000000000,95.296272000000000,rs
Rumkit Bhayangkara Banda Aceh,"Jl. Cut Nyak Dhien Lamtemen No.1,Banda Aceh",A,4,Banda Aceh,Nanggroe Aceh Darussalam,5.548319000000000,95.317272000000000,rs
RSU Sabang,Jl. Teuku Umar Sabang,A,D,Sabang,Nanggroe Aceh Darussalam,5.893303000000000,95.317425000000000,rs
PMI Cabang Aceh Utara,Jl. Samudera Lhoseumawe 24312,A,,Aceh Utara,Nanggroe Aceh Darussalam,5.189203000000000,97.148989000000000,rs
